{
  "type": "FeatureCollection",
  "features": [
    {
      "type": "Feature",
      "properties": {
        "slug": "madagascar-kingdoms",
        "name": "Madagascar",
        "start_year": 600,
        "end_year": 1896,
        "region_type": "confederation",
        "continental_zone": "Africa",
        "source": "historical-basemaps"
      },
      "geometry": {
        "type": "MultiPolygon",
        "coordinates": [
          [
            [
              [
                44.672,
                -16.236
              ],
              [
                44.917,
                -16.203
              ],
              [
                45.197,
                -16.037
              ],
              [
                45.278,
                -16.05
              ],
              [
                45.434,
                -16.094
              ],
              [
                45.555,
                -16.056
              ],
              [
                45.732,
                -15.89
              ],
              [
                46.142,
                -15.826
              ],
              [
                46.282,
                -15.952
              ],
              [
                46.419,
                -15.939
              ],
              [
                46.464,
                -15.857
              ],
              [
                46.388,
                -15.692
              ],
              [
                46.734,
                -15.449
              ],
              [
                46.925,
                -15.36
              ],
              [
                47.07,
                -15.461
              ],
              [
                47.245,
                -15.366
              ],
              [
                47.106,
                -15.144
              ],
              [
                47.199,
                -15.016
              ],
              [
                47.426,
                -14.825
              ],
              [
                47.53,
                -14.958
              ],
              [
                47.633,
                -14.984
              ],
              [
                47.884,
                -14.716
              ],
              [
                47.813,
                -14.627
              ],
              [
                47.699,
                -14.443
              ],
              [
                47.741,
                -14.31
              ],
              [
                47.85,
                -14.316
              ],
              [
                47.972,
                -14.284
              ],
              [
                48.049,
                -14.131
              ],
              [
                47.916,
                -13.737
              ],
              [
                47.942,
                -13.585
              ],
              [
                48.057,
                -13.565
              ],
              [
                48.11,
                -13.597
              ],
              [
                48.224,
                -13.794
              ],
              [
                48.35,
                -13.838
              ],
              [
                48.44,
                -13.654
              ],
              [
                48.751,
                -13.418
              ],
              [
                48.857,
                -13.252
              ],
              [
                48.917,
                -13.049
              ],
              [
                48.993,
                -12.737
              ],
              [
                48.933,
                -12.578
              ],
              [
                48.935,
                -12.477
              ],
              [
                49.176,
                -12.266
              ],
              [
                49.337,
                -12.412
              ],
              [
                49.542,
                -12.704
              ],
              [
                49.817,
                -12.831
              ],
              [
                49.88,
                -12.92
              ],
              [
                49.976,
                -13.301
              ],
              [
                50.108,
                -14.12
              ],
              [
                50.15,
                -14.419
              ],
              [
                50.254,
                -14.775
              ],
              [
                50.43,
                -15.105
              ],
              [
                50.503,
                -15.314
              ],
              [
                50.486,
                -15.48
              ],
              [
                50.455,
                -15.549
              ],
              [
                50.429,
                -15.594
              ],
              [
                50.187,
                -15.957
              ],
              [
                50.089,
                -15.9
              ],
              [
                50.004,
                -15.735
              ],
              [
                49.754,
                -15.398
              ],
              [
                49.62,
                -15.462
              ],
              [
                49.598,
                -15.653
              ],
              [
                49.685,
                -16.047
              ],
              [
                49.863,
                -16.282
              ],
              [
                49.898,
                -16.46
              ],
              [
                49.76,
                -16.746
              ],
              [
                49.425,
                -17.198
              ],
              [
                49.405,
                -17.401
              ],
              [
                49.423,
                -17.802
              ],
              [
                49.342,
                -18.228
              ],
              [
                49.023,
                -19.182
              ],
              [
                48.652,
                -20.339
              ],
              [
                48.087,
                -22.044
              ],
              [
                47.492,
                -24.06
              ],
              [
                47.258,
                -24.766
              ],
              [
                47.174,
                -24.88
              ],
              [
                46.945,
                -25.167
              ],
              [
                46.855,
                -25.218
              ],
              [
                46.239,
                -25.264
              ],
              [
                45.789,
                -25.411
              ],
              [
                45.576,
                -25.621
              ],
              [
                45.211,
                -25.66
              ],
              [
                45.047,
                -25.451
              ],
              [
                44.959,
                -25.387
              ],
              [
                44.713,
                -25.305
              ],
              [
                44.546,
                -25.337
              ],
              [
                44.425,
                -25.312
              ],
              [
                44.037,
                -24.989
              ],
              [
                43.99,
                -24.881
              ],
              [
                43.981,
                -24.627
              ],
              [
                43.934,
                -24.519
              ],
              [
                43.727,
                -24.354
              ],
              [
                43.671,
                -24.227
              ],
              [
                43.672,
                -23.903
              ],
              [
                43.827,
                -23.413
              ],
              [
                43.785,
                -23.267
              ],
              [
                43.655,
                -23.051
              ],
              [
                43.376,
                -22.632
              ],
              [
                43.291,
                -22.41
              ],
              [
                43.325,
                -22.111
              ],
              [
                43.501,
                -21.494
              ],
              [
                43.603,
                -21.399
              ],
              [
                43.816,
                -21.316
              ],
              [
                44.162,
                -20.698
              ],
              [
                44.47,
                -20.17
              ],
              [
                44.517,
                -20.024
              ],
              [
                44.585,
                -19.528
              ],
              [
                44.536,
                -19.369
              ],
              [
                44.41,
                -19.268
              ],
              [
                44.251,
                -19.103
              ],
              [
                44.281,
                -19.02
              ],
              [
                44.394,
                -18.791
              ],
              [
                44.16,
                -18.404
              ],
              [
                44.107,
                -18.099
              ],
              [
                44.076,
                -17.877
              ],
              [
                43.972,
                -17.553
              ],
              [
                43.983,
                -17.502
              ],
              [
                44.215,
                -17.19
              ],
              [
                44.378,
                -16.923
              ],
              [
                44.451,
                -16.725
              ],
              [
                44.454,
                -16.242
              ],
              [
                44.672,
                -16.236
              ]
            ],
            [
              [
                48.015,
                -17.023
              ],
              [
                47.482,
                -16.904
              ],
              [
                46.654,
                -17.733
              ],
              [
                45.292,
                -22.645
              ],
              [
                45.529,
                -23.592
              ],
              [
                46.002,
                -23.592
              ],
              [
                47.186,
                -23.119
              ],
              [
                48.488,
                -20.041
              ],
              [
                48.488,
                -19.449
              ],
              [
                48.015,
                -17.023
              ]
            ]
          ]
        ]
      }
    },
    {
      "type": "Feature",
      "properties": {
        "slug": "swahili-city-states",
        "name": "Islamic city-states",
        "start_year": 900,
        "end_year": 1500,
        "region_type": "city-state",
        "continental_zone": "Africa",
        "source": "historical-basemaps"
      },
      "geometry": {
        "type": "MultiPolygon",
        "coordinates": [
          [
            [
              [
                42.941,
                0.011
              ],
              [
                42.915,
                -0.017
              ],
              [
                42.44,
                -0.512
              ],
              [
                41.884,
                -1.218
              ],
              [
                41.607,
                -1.594
              ],
              [
                41.652,
                -1.752
              ],
              [
                41.61,
                -1.877
              ],
              [
                41.339,
                -2.052
              ],
              [
                41.089,
                -2.129
              ],
              [
                40.915,
                -2.078
              ],
              [
                40.877,
                -2.428
              ],
              [
                40.75,
                -2.593
              ],
              [
                40.449,
                -2.645
              ],
              [
                40.271,
                -2.817
              ],
              [
                40.232,
                -3.033
              ],
              [
                40.234,
                -3.192
              ],
              [
                40.074,
                -3.472
              ],
              [
                39.64,
                -4.083
              ],
              [
                39.681,
                -4.324
              ],
              [
                39.53,
                -4.617
              ],
              [
                39.417,
                -4.731
              ],
              [
                39.267,
                -4.776
              ],
              [
                39.229,
                -4.845
              ],
              [
                39.122,
                -5.037
              ],
              [
                38.934,
                -5.635
              ],
              [
                38.872,
                -6.092
              ],
              [
                38.922,
                -6.34
              ],
              [
                39.221,
                -6.784
              ],
              [
                39.566,
                -7.044
              ],
              [
                39.555,
                -7.171
              ],
              [
                39.437,
                -7.33
              ],
              [
                39.27,
                -7.801
              ],
              [
                39.287,
                -7.877
              ],
              [
                39.424,
                -7.896
              ],
              [
                39.478,
                -7.998
              ],
              [
                39.4,
                -8.309
              ],
              [
                39.392,
                -8.735
              ],
              [
                39.577,
                -9.542
              ],
              [
                39.658,
                -9.796
              ],
              [
                39.838,
                -10.005
              ],
              [
                40.209,
                -10.252
              ],
              [
                40.387,
                -10.372
              ],
              [
                40.466,
                -10.475
              ],
              [
                40.524,
                -10.55
              ],
              [
                40.62,
                -10.766
              ],
              [
                40.536,
                -11.027
              ],
              [
                40.4,
                -11.23
              ],
              [
                39.248,
                -11.145
              ],
              [
                38.238,
                -9.292
              ],
              [
                37.732,
                -4.575
              ],
              [
                39.417,
                -1.375
              ],
              [
                44.281,
                3.358
              ],
              [
                46.449,
                4.08
              ],
              [
                47.636,
                4.096
              ],
              [
                47.556,
                3.993
              ],
              [
                47.384,
                3.795
              ],
              [
                46.361,
                2.668
              ],
              [
                46.225,
                2.552
              ],
              [
                45.541,
                1.967
              ],
              [
                44.567,
                1.463
              ],
              [
                44.301,
                1.291
              ],
              [
                43.724,
                0.8
              ],
              [
                43.099,
                0.17
              ],
              [
                42.941,
                0.011
              ]
            ]
          ]
        ]
      }
    },
    {
      "type": "Feature",
      "properties": {
        "slug": "fatimid-caliphate",
        "name": "Fatimid Caliphate",
        "start_year": 909,
        "end_year": 1171,
        "region_type": "empire",
        "continental_zone": "Africa",
        "source": "historical-basemaps"
      },
      "geometry": {
        "type": "MultiPolygon",
        "coordinates": [
          [
            [
              [
                2.453,
                32.669
              ],
              [
                2.453,
                32.669
              ],
              [
                1.441,
                32.607
              ],
              [
                0.458,
                32.547
              ],
              [
                0.871,
                33.074
              ],
              [
                1.237,
                35.886
              ],
              [
                1.58,
                36.514
              ],
              [
                2.294,
                36.541
              ],
              [
                2.524,
                36.573
              ],
              [
                2.81,
                36.714
              ],
              [
                3.07,
                36.619
              ],
              [
                3.324,
                36.651
              ],
              [
                3.587,
                36.792
              ],
              [
                3.741,
                36.837
              ],
              [
                4.164,
                36.831
              ],
              [
                4.395,
                36.838
              ],
              [
                4.533,
                36.813
              ],
              [
                4.632,
                36.794
              ],
              [
                4.777,
                36.743
              ],
              [
                5.144,
                36.668
              ],
              [
                5.383,
                36.675
              ],
              [
                5.73,
                36.752
              ],
              [
                6.047,
                36.842
              ],
              [
                6.323,
                37.091
              ],
              [
                6.771,
                36.862
              ],
              [
                6.923,
                36.818
              ],
              [
                7.063,
                36.882
              ],
              [
                7.205,
                36.99
              ],
              [
                7.307,
                37.061
              ],
              [
                7.545,
                37.042
              ],
              [
                7.719,
                36.953
              ],
              [
                7.792,
                36.832
              ],
              [
                7.913,
                36.775
              ],
              [
                8.145,
                36.814
              ],
              [
                8.637,
                36.885
              ],
              [
                8.866,
                36.968
              ],
              [
                9.15,
                37.173
              ],
              [
                9.416,
                37.275
              ],
              [
                9.732,
                37.282
              ],
              [
                10.021,
                37.2
              ],
              [
                10.133,
                37.105
              ],
              [
                10.159,
                36.996
              ],
              [
                10.272,
                36.755
              ],
              [
                10.393,
                36.717
              ],
              [
                10.581,
                36.793
              ],
              [
                10.843,
                36.991
              ],
              [
                11.024,
                37.068
              ],
              [
                11.039,
                36.909
              ],
              [
                10.92,
                36.654
              ],
              [
                10.633,
                36.424
              ],
              [
                10.509,
                36.214
              ],
              [
                10.511,
                36.086
              ],
              [
                10.603,
                35.889
              ],
              [
                10.831,
                35.679
              ],
              [
                10.989,
                35.622
              ],
              [
                11.125,
                35.241
              ],
              [
                11.083,
                35.145
              ],
              [
                10.839,
                34.801
              ],
              [
                10.574,
                34.648
              ],
              [
                10.116,
                34.234
              ],
              [
                10.019,
                34.081
              ],
              [
                10.149,
                33.878
              ],
              [
                10.413,
                33.631
              ],
              [
                10.65,
                33.498
              ],
              [
                10.778,
                33.473
              ],
              [
                10.957,
                33.575
              ],
              [
                11.099,
                33.537
              ],
              [
                11.209,
                33.252
              ],
              [
                11.471,
                33.144
              ],
              [
                12.117,
                32.879
              ],
              [
                12.565,
                32.74
              ],
              [
                12.799,
                32.734
              ],
              [
                13.187,
                32.792
              ],
              [
                13.459,
                32.78
              ],
              [
                14.157,
                32.679
              ],
              [
                14.433,
                32.464
              ],
              [
                14.791,
                32.363
              ],
              [
                15.01,
                32.363
              ],
              [
                15.164,
                32.275
              ],
              [
                15.241,
                32.173
              ],
              [
                15.358,
                31.805
              ],
              [
                15.533,
                31.551
              ],
              [
                15.843,
                31.285
              ],
              [
                16.013,
                31.228
              ],
              [
                16.318,
                31.165
              ],
              [
                16.783,
                31.128
              ],
              [
                16.984,
                31.097
              ],
              [
                17.422,
                30.996
              ],
              [
                17.709,
                30.895
              ],
              [
                17.957,
                30.768
              ],
              [
                18.537,
                30.414
              ],
              [
                18.885,
                30.221
              ],
              [
                18.915,
                30.205
              ],
              [
                19.125,
                30.199
              ],
              [
                19.319,
                30.255
              ],
              [
                19.323,
                30.257
              ],
              [
                19.664,
                30.442
              ],
              [
                19.982,
                30.722
              ],
              [
                20.117,
                30.957
              ],
              [
                20.117,
                31.071
              ],
              [
                19.992,
                31.351
              ],
              [
                19.942,
                31.611
              ],
              [
                19.961,
                31.795
              ],
              [
                20.068,
                32.037
              ],
              [
                20.366,
                32.298
              ],
              [
                20.516,
                32.388
              ],
              [
                20.765,
                32.496
              ],
              [
                21.054,
                32.63
              ],
              [
                21.673,
                32.816
              ],
              [
                22.216,
                32.791
              ],
              [
                22.543,
                32.722
              ],
              [
                22.923,
                32.558
              ],
              [
                23.007,
                32.482
              ],
              [
                23.027,
                32.253
              ],
              [
                23.153,
                32.139
              ],
              [
                23.289,
                32.133
              ],
              [
                23.714,
                32.076
              ],
              [
                23.742,
                32.064
              ],
              [
                24.034,
                31.937
              ],
              [
                24.237,
                31.925
              ],
              [
                24.816,
                31.907
              ],
              [
                24.952,
                31.818
              ],
              [
                24.982,
                31.647
              ],
              [
                25.107,
                31.514
              ],
              [
                25.258,
                31.438
              ],
              [
                25.507,
                31.445
              ],
              [
                25.79,
                31.49
              ],
              [
                26.143,
                31.491
              ],
              [
                26.824,
                31.359
              ],
              [
                27.088,
                31.307
              ],
              [
                27.439,
                31.252
              ],
              [
                27.763,
                31.183
              ],
              [
                27.919,
                30.999
              ],
              [
                28.1,
                30.999
              ],
              [
                28.517,
                30.962
              ],
              [
                28.966,
                30.785
              ],
              [
                29.249,
                30.754
              ],
              [
                29.359,
                30.811
              ],
              [
                29.683,
                31.053
              ],
              [
                30.099,
                31.232
              ],
              [
                30.476,
                31.315
              ],
              [
                30.827,
                31.437
              ],
              [
                30.996,
                31.469
              ],
              [
                31.151,
                31.444
              ],
              [
                31.392,
                31.444
              ],
              [
                31.717,
                31.388
              ],
              [
                31.808,
                31.178
              ],
              [
                32.077,
                31.014
              ],
              [
                32.309,
                31.084
              ],
              [
                32.597,
                30.964
              ],
              [
                32.769,
                30.952
              ],
              [
                33.021,
                31.132
              ],
              [
                33.13,
                31.052
              ],
              [
                33.255,
                31.027
              ],
              [
                33.558,
                30.968
              ],
              [
                33.71,
                30.996
              ],
              [
                33.917,
                31.07
              ],
              [
                34.146,
                31.209
              ],
              [
                34.195,
                31.238
              ],
              [
                34.501,
                31.621
              ],
              [
                34.599,
                31.818
              ],
              [
                34.681,
                32.046
              ],
              [
                34.759,
                32.301
              ],
              [
                34.843,
                32.671
              ],
              [
                34.895,
                32.663
              ],
              [
                34.957,
                32.705
              ],
              [
                34.959,
                32.797
              ],
              [
                34.972,
                32.938
              ],
              [
                35.089,
                33.069
              ],
              [
                35.132,
                33.232
              ],
              [
                35.208,
                33.334
              ],
              [
                35.356,
                33.64
              ],
              [
                35.349,
                33.744
              ],
              [
                35.43,
                33.744
              ],
              [
                35.492,
                33.831
              ],
              [
                35.524,
                33.975
              ],
              [
                35.532,
                34.119
              ],
              [
                35.716,
                34.312
              ],
              [
                35.821,
                34.344
              ],
              [
                35.873,
                34.422
              ],
              [
                35.852,
                34.493
              ],
              [
                36.878,
                35.391
              ],
              [
                37.026,
                35.75
              ],
              [
                38.372,
                35.141
              ],
              [
                38.036,
                34.597
              ],
              [
                37.212,
                33.566
              ],
              [
                36.525,
                31.162
              ],
              [
                36.593,
                29.787
              ],
              [
                37.364,
                27.957
              ],
              [
                37.421,
                27.834
              ],
              [
                39.074,
                25.502
              ],
              [
                40.18,
                24.028
              ],
              [
                41.138,
                22.406
              ],
              [
                41.812,
                21.713
              ],
              [
                41.923,
                20.767
              ],
              [
                40.82,
                19.685
              ],
              [
                40.694,
                19.869
              ],
              [
                40.336,
                20.097
              ],
              [
                39.764,
                20.407
              ],
              [
                39.527,
                20.692
              ],
              [
                39.167,
                21.219
              ],
              [
                39.13,
                21.651
              ],
              [
                39.103,
                22.0
              ],
              [
                39.102,
                22.4
              ],
              [
                39.056,
                22.572
              ],
              [
                38.915,
                22.87
              ],
              [
                38.49,
                23.613
              ],
              [
                38.329,
                23.835
              ],
              [
                37.988,
                24.114
              ],
              [
                37.782,
                24.215
              ],
              [
                37.557,
                24.271
              ],
              [
                37.419,
                24.398
              ],
              [
                37.201,
                24.658
              ],
              [
                37.269,
                24.97
              ],
              [
                37.218,
                25.167
              ],
              [
                37.005,
                25.535
              ],
              [
                36.669,
                26.017
              ],
              [
                36.33,
                26.403
              ],
              [
                36.312,
                26.423
              ],
              [
                35.831,
                27.095
              ],
              [
                35.595,
                27.514
              ],
              [
                35.436,
                27.73
              ],
              [
                35.112,
                28.072
              ],
              [
                34.876,
                28.097
              ],
              [
                34.764,
                28.097
              ],
              [
                34.799,
                28.23
              ],
              [
                34.886,
                28.357
              ],
              [
                35.026,
                28.949
              ],
              [
                35.072,
                29.211
              ],
              [
                35.095,
                29.343
              ],
              [
                35.073,
                29.419
              ],
              [
                34.985,
                29.467
              ],
              [
                34.954,
                29.437
              ],
              [
                34.936,
                29.418
              ],
              [
                34.764,
                29.247
              ],
              [
                34.549,
                28.732
              ],
              [
                34.399,
                28.096
              ],
              [
                34.322,
                27.829
              ],
              [
                34.241,
                27.759
              ],
              [
                34.058,
                27.79
              ],
              [
                33.856,
                28.025
              ],
              [
                33.504,
                28.329
              ],
              [
                33.331,
                28.551
              ],
              [
                33.178,
                28.996
              ],
              [
                32.944,
                29.198
              ],
              [
                32.814,
                29.478
              ],
              [
                32.737,
                29.694
              ],
              [
                32.648,
                29.852
              ],
              [
                32.438,
                29.776
              ],
              [
                32.318,
                29.54
              ],
              [
                32.591,
                28.937
              ],
              [
                32.649,
                28.766
              ],
              [
                32.935,
                28.379
              ],
              [
                33.354,
                27.91
              ],
              [
                33.567,
                27.37
              ],
              [
                33.804,
                26.932
              ],
              [
                33.929,
                26.564
              ],
              [
                34.104,
                26.355
              ],
              [
                34.515,
                25.574
              ],
              [
                34.997,
                24.717
              ],
              [
                35.19,
                24.4
              ],
              [
                32.514,
                23.733
              ],
              [
                30.819,
                23.659
              ],
              [
                29.345,
                24.028
              ],
              [
                27.428,
                27.197
              ],
              [
                25.438,
                28.008
              ],
              [
                21.679,
                28.082
              ],
              [
                17.971,
                28.612
              ],
              [
                17.002,
                28.751
              ],
              [
                12.533,
                30.805
              ],
              [
                7.892,
                32.593
              ],
              [
                6.503,
                32.733
              ],
              [
                5.681,
                32.815
              ],
              [
                2.453,
                32.669
              ],
              [
                2.453,
                32.669
              ]
            ]
          ]
        ]
      }
    },
    {
      "type": "Feature",
      "properties": {
        "slug": "kanem-empire",
        "name": "Kanem",
        "start_year": 700,
        "end_year": 1380,
        "region_type": "empire",
        "continental_zone": "Africa",
        "source": "historical-basemaps"
      },
      "geometry": {
        "type": "MultiPolygon",
        "coordinates": [
          [
            [
              [
                17.097,
                16.219
              ],
              [
                18.451,
                15.741
              ],
              [
                19.167,
                15.184
              ],
              [
                19.406,
                14.468
              ],
              [
                18.769,
                13.512
              ],
              [
                17.654,
                13.194
              ],
              [
                15.819,
                13.119
              ],
              [
                13.833,
                13.433
              ],
              [
                12.639,
                14.468
              ],
              [
                12.639,
                15.662
              ],
              [
                12.878,
                16.06
              ],
              [
                14.667,
                16.23
              ],
              [
                17.097,
                16.219
              ]
            ]
          ]
        ]
      }
    },
    {
      "type": "Feature",
      "properties": {
        "slug": "makuria",
        "name": "Makkura",
        "start_year": 550,
        "end_year": 1365,
        "region_type": "kingdom",
        "continental_zone": "Africa",
        "source": "historical-basemaps"
      },
      "geometry": {
        "type": "MultiPolygon",
        "coordinates": [
          [
            [
              [
                37.761,
                18.643
              ],
              [
                37.895,
                18.56
              ],
              [
                37.079,
                17.095
              ],
              [
                35.328,
                15.423
              ],
              [
                34.452,
                16.458
              ],
              [
                33.815,
                16.776
              ],
              [
                32.382,
                16.697
              ],
              [
                31.666,
                16.617
              ],
              [
                31.188,
                16.219
              ],
              [
                30.79,
                15.503
              ],
              [
                29.516,
                17.652
              ],
              [
                29.277,
                18.846
              ],
              [
                29.345,
                24.028
              ],
              [
                30.819,
                23.659
              ],
              [
                32.514,
                23.733
              ],
              [
                35.19,
                24.4
              ],
              [
                35.453,
                24.153
              ],
              [
                35.657,
                23.994
              ],
              [
                35.725,
                23.912
              ],
              [
                35.616,
                23.835
              ],
              [
                35.488,
                23.791
              ],
              [
                35.468,
                23.721
              ],
              [
                35.576,
                23.232
              ],
              [
                35.689,
                23.021
              ],
              [
                35.746,
                22.914
              ],
              [
                36.111,
                22.648
              ],
              [
                36.29,
                22.572
              ],
              [
                36.473,
                22.338
              ],
              [
                36.66,
                22.167
              ],
              [
                36.8,
                21.915
              ],
              [
                36.903,
                21.729
              ],
              [
                37.128,
                21.227
              ],
              [
                37.165,
                20.764
              ],
              [
                37.255,
                19.652
              ],
              [
                37.398,
                18.915
              ],
              [
                37.48,
                18.82
              ],
              [
                37.761,
                18.643
              ]
            ]
          ]
        ]
      }
    },
    {
      "type": "Feature",
      "properties": {
        "slug": "alodia",
        "name": "Alwa",
        "start_year": 550,
        "end_year": 1504,
        "region_type": "kingdom",
        "continental_zone": "Africa",
        "source": "historical-basemaps"
      },
      "geometry": {
        "type": "MultiPolygon",
        "coordinates": [
          [
            [
              [
                31.188,
                16.219
              ],
              [
                31.666,
                16.617
              ],
              [
                32.382,
                16.697
              ],
              [
                33.815,
                16.776
              ],
              [
                34.452,
                16.458
              ],
              [
                35.328,
                15.423
              ],
              [
                35.646,
                12.796
              ],
              [
                35.407,
                11.283
              ],
              [
                34.452,
                10.248
              ],
              [
                33.576,
                10.01
              ],
              [
                32.847,
                10.105
              ],
              [
                31.745,
                10.248
              ],
              [
                31.268,
                10.646
              ],
              [
                30.79,
                11.204
              ],
              [
                30.787,
                11.227
              ],
              [
                30.472,
                13.512
              ],
              [
                30.472,
                14.308
              ],
              [
                30.79,
                15.503
              ],
              [
                31.188,
                16.219
              ]
            ]
          ]
        ]
      }
    },
    {
      "type": "Feature",
      "properties": {
        "slug": "takrur",
        "name": "Takrur",
        "start_year": 800,
        "end_year": 1285,
        "region_type": "kingdom",
        "continental_zone": "Africa",
        "source": "historical-basemaps"
      },
      "geometry": {
        "type": "MultiPolygon",
        "coordinates": [
          [
            [
              [
                -16.132,
                15.602
              ],
              [
                -16.04,
                15.97
              ],
              [
                -15.764,
                16.246
              ],
              [
                -15.397,
                16.43
              ],
              [
                -14.845,
                16.522
              ],
              [
                -14.386,
                16.522
              ],
              [
                -14.11,
                16.338
              ],
              [
                -13.834,
                16.154
              ],
              [
                -13.65,
                15.786
              ],
              [
                -13.558,
                15.143
              ],
              [
                -13.62,
                14.895
              ],
              [
                -13.742,
                14.407
              ],
              [
                -14.202,
                14.04
              ],
              [
                -14.661,
                13.764
              ],
              [
                -15.213,
                13.764
              ],
              [
                -15.673,
                13.856
              ],
              [
                -16.04,
                14.407
              ],
              [
                -16.111,
                14.654
              ],
              [
                -16.224,
                15.051
              ],
              [
                -16.224,
                15.143
              ],
              [
                -16.132,
                15.602
              ]
            ]
          ]
        ]
      }
    },
    {
      "type": "Feature",
      "properties": {
        "slug": "ghana-empire",
        "name": "Ghana",
        "start_year": 300,
        "end_year": 1235,
        "region_type": "empire",
        "continental_zone": "Africa",
        "source": "historical-basemaps"
      },
      "geometry": {
        "type": "MultiPolygon",
        "coordinates": [
          [
            [
              [
                -11.699,
                17.114
              ],
              [
                -7.833,
                17.636
              ],
              [
                -5.012,
                16.696
              ],
              [
                -4.803,
                15.546
              ],
              [
                -6.998,
                14.397
              ],
              [
                -8.878,
                14.293
              ],
              [
                -11.804,
                15.755
              ],
              [
                -11.908,
                16.382
              ],
              [
                -11.699,
                17.114
              ]
            ]
          ]
        ]
      }
    },
    {
      "type": "Feature",
      "properties": {
        "slug": "mali-empire",
        "name": "Mali",
        "start_year": 1235,
        "end_year": 1600,
        "region_type": "empire",
        "continental_zone": "Africa",
        "source": "historical-basemaps"
      },
      "geometry": {
        "type": "MultiPolygon",
        "coordinates": [
          [
            [
              [
                -9.58,
                13.328
              ],
              [
                -9.056,
                13.894
              ],
              [
                -8.74,
                13.894
              ],
              [
                -7.783,
                13.894
              ],
              [
                -5.014,
                13.423
              ],
              [
                -4.958,
                13.341
              ],
              [
                -4.565,
                12.762
              ],
              [
                -4.639,
                12.007
              ],
              [
                -5.089,
                11.536
              ],
              [
                -6.511,
                11.347
              ],
              [
                -7.634,
                11.347
              ],
              [
                -9.131,
                11.913
              ],
              [
                -9.58,
                12.385
              ],
              [
                -9.58,
                13.328
              ]
            ]
          ]
        ]
      }
    },
    {
      "type": "Feature",
      "properties": {
        "slug": "ifat-sultanate",
        "name": "Ifat",
        "start_year": 1185,
        "end_year": 1415,
        "region_type": "sultanate",
        "continental_zone": "Africa",
        "source": "historical-basemaps"
      },
      "geometry": {
        "type": "MultiPolygon",
        "coordinates": [
          [
            [
              [
                32.847,
                10.105
              ],
              [
                33.576,
                10.01
              ],
              [
                34.452,
                10.248
              ],
              [
                35.407,
                11.283
              ],
              [
                35.646,
                12.796
              ],
              [
                35.328,
                15.423
              ],
              [
                37.079,
                17.095
              ],
              [
                37.895,
                18.56
              ],
              [
                38.029,
                18.478
              ],
              [
                38.307,
                18.25
              ],
              [
                38.527,
                18.161
              ],
              [
                38.642,
                18.061
              ],
              [
                38.686,
                18.003
              ],
              [
                38.904,
                17.364
              ],
              [
                38.963,
                17.192
              ],
              [
                39.009,
                17.057
              ],
              [
                39.208,
                16.327
              ],
              [
                39.518,
                15.463
              ],
              [
                39.796,
                15.089
              ],
              [
                39.889,
                15.184
              ],
              [
                39.856,
                15.4
              ],
              [
                39.898,
                15.502
              ],
              [
                40.037,
                15.388
              ],
              [
                40.217,
                15.083
              ],
              [
                40.39,
                14.906
              ],
              [
                40.631,
                14.925
              ],
              [
                40.739,
                14.919
              ],
              [
                41.341,
                14.342
              ],
              [
                41.705,
                13.93
              ],
              [
                41.761,
                13.886
              ],
              [
                42.079,
                13.861
              ],
              [
                42.357,
                13.468
              ],
              [
                42.366,
                13.36
              ],
              [
                42.355,
                13.271
              ],
              [
                42.408,
                13.175
              ],
              [
                42.636,
                13.093
              ],
              [
                43.048,
                12.702
              ],
              [
                43.33,
                12.434
              ],
              [
                43.459,
                12.225
              ],
              [
                43.475,
                12.098
              ],
              [
                43.422,
                12.047
              ],
              [
                43.259,
                11.964
              ],
              [
                43.062,
                11.919
              ],
              [
                42.81,
                11.778
              ],
              [
                42.555,
                11.568
              ],
              [
                42.669,
                11.511
              ],
              [
                42.959,
                11.537
              ],
              [
                43.104,
                11.531
              ],
              [
                41.527,
                10.28
              ],
              [
                40.191,
                10.007
              ],
              [
                40.172,
                9.843
              ],
              [
                39.752,
                7.951
              ],
              [
                38.879,
                7.854
              ],
              [
                38.605,
                6.597
              ],
              [
                35.578,
                5.527
              ],
              [
                33.022,
                6.865
              ],
              [
                32.349,
                9.528
              ],
              [
                32.847,
                10.105
              ]
            ]
          ]
        ]
      }
    },
    {
      "type": "Feature",
      "properties": {
        "slug": "ibadi-imamate",
        "name": "Ibadites",
        "start_year": 750,
        "end_year": 1500,
        "region_type": "sultanate",
        "continental_zone": "Africa",
        "source": "historical-basemaps"
      },
      "geometry": {
        "type": "MultiPolygon",
        "coordinates": [
          [
            [
              [
                -2.622,
                30.34
              ],
              [
                -1.802,
                32.427
              ],
              [
                0.458,
                32.547
              ],
              [
                2.453,
                32.669
              ],
              [
                1.95,
                30.77
              ],
              [
                0.513,
                29.618
              ],
              [
                0.32,
                29.662
              ],
              [
                -2.622,
                30.34
              ]
            ]
          ]
        ]
      }
    }
  ]
}