{
  "type": "FeatureCollection",
  "features": [
    {
      "type": "Feature",
      "properties": {
        "slug": "chimu-empire",
        "name": "Chimú Empire",
        "start_year": 900,
        "end_year": 1470,
        "region_type": "empire",
        "continental_zone": "Americas",
        "source": "historical-basemaps"
      },
      "geometry": {
        "type": "MultiPolygon",
        "coordinates": [
          [
            [
              [
                -77.992,
                -10.234
              ],
              [
                -78.302,
                -9.669
              ],
              [
                -78.751,
                -8.787
              ],
              [
                -79.06,
                -8.216
              ],
              [
                -79.148,
                -8.093
              ],
              [
                -77.717,
                -8.264
              ],
              [
                -77.292,
                -8.983
              ],
              [
                -77.992,
                -10.234
              ]
            ]
          ]
        ]
      }
    },
    {
      "type": "Feature",
      "properties": {
        "slug": "arawak-peoples",
        "name": "Arawaks",
        "start_year": 400,
        "end_year": 1500,
        "region_type": "confederation",
        "continental_zone": "Americas",
        "source": "historical-basemaps"
      },
      "geometry": {
        "type": "MultiPolygon",
        "coordinates": [
          [
            [
              [
                -61.468,
                15.628
              ],
              [
                -61.452,
                15.632
              ],
              [
                -61.434,
                15.632
              ],
              [
                -61.427,
                15.63
              ],
              [
                -61.318,
                15.582
              ],
              [
                -61.304,
                15.574
              ],
              [
                -61.267,
                15.517
              ],
              [
                -61.253,
                15.461
              ],
              [
                -61.251,
                15.329
              ],
              [
                -61.251,
                15.323
              ],
              [
                -61.254,
                15.292
              ],
              [
                -61.255,
                15.285
              ],
              [
                -61.257,
                15.279
              ],
              [
                -61.265,
                15.258
              ],
              [
                -61.27,
                15.248
              ],
              [
                -61.28,
                15.237
              ],
              [
                -61.364,
                15.198
              ],
              [
                -61.371,
                15.199
              ],
              [
                -61.374,
                15.202
              ],
              [
                -61.376,
                15.207
              ],
              [
                -61.378,
                15.236
              ],
              [
                -61.378,
                15.248
              ],
              [
                -61.374,
                15.268
              ],
              [
                -61.374,
                15.274
              ],
              [
                -61.391,
                15.35
              ],
              [
                -61.393,
                15.355
              ],
              [
                -61.395,
                15.359
              ],
              [
                -61.423,
                15.418
              ],
              [
                -61.451,
                15.456
              ],
              [
                -61.463,
                15.471
              ],
              [
                -61.475,
                15.486
              ],
              [
                -61.476,
                15.491
              ],
              [
                -61.491,
                15.541
              ],
              [
                -61.483,
                15.588
              ],
              [
                -61.475,
                15.619
              ],
              [
                -61.468,
                15.628
              ]
            ]
          ],
          [
            [
              [
                -61.596,
                12.126
              ],
              [
                -61.611,
                12.079
              ],
              [
                -61.629,
                12.048
              ],
              [
                -61.632,
                12.044
              ],
              [
                -61.643,
                12.034
              ],
              [
                -61.651,
                12.029
              ],
              [
                -61.683,
                12.016
              ],
              [
                -61.718,
                12.004
              ],
              [
                -61.747,
                11.997
              ],
              [
                -61.753,
                11.996
              ],
              [
                -61.78,
                12
              ],
              [
                -61.784,
                12.001
              ],
              [
                -61.787,
                12.005
              ],
              [
                -61.79,
                12.009
              ],
              [
                -61.725,
                12.172
              ],
              [
                -61.708,
                12.197
              ],
              [
                -61.687,
                12.218
              ],
              [
                -61.676,
                12.228
              ],
              [
                -61.659,
                12.237
              ],
              [
                -61.653,
                12.238
              ],
              [
                -61.648,
                12.237
              ],
              [
                -61.617,
                12.233
              ],
              [
                -61.612,
                12.231
              ],
              [
                -61.61,
                12.228
              ],
              [
                -61.606,
                12.224
              ],
              [
                -61.605,
                12.221
              ],
              [
                -61.6,
                12.187
              ],
              [
                -61.596,
                12.126
              ]
            ]
          ],
          [
            [
              [
                -60.941,
                14.741
              ],
              [
                -60.943,
                14.728
              ],
              [
                -60.907,
                14.652
              ],
              [
                -60.85,
                14.595
              ],
              [
                -60.83,
                14.57
              ],
              [
                -60.817,
                14.476
              ],
              [
                -60.817,
                14.471
              ],
              [
                -60.821,
                14.456
              ],
              [
                -60.827,
                14.44
              ],
              [
                -60.829,
                14.434
              ],
              [
                -60.839,
                14.415
              ],
              [
                -60.855,
                14.403
              ],
              [
                -60.861,
                14.403
              ],
              [
                -60.887,
                14.466
              ],
              [
                -60.975,
                14.471
              ],
              [
                -61.011,
                14.47
              ],
              [
                -61.034,
                14.466
              ],
              [
                -61.173,
                14.693
              ],
              [
                -61.232,
                14.809
              ],
              [
                -61.231,
                14.816
              ],
              [
                -61.227,
                14.832
              ],
              [
                -61.213,
                14.847
              ],
              [
                -61.199,
                14.859
              ],
              [
                -61.175,
                14.877
              ],
              [
                -61.165,
                14.88
              ],
              [
                -61.159,
                14.88
              ],
              [
                -61.145,
                14.878
              ],
              [
                -61.1,
                14.861
              ],
              [
                -61.095,
                14.859
              ],
              [
                -61.04,
                14.832
              ],
              [
                -61.034,
                14.829
              ],
              [
                -60.941,
                14.741
              ]
            ]
          ],
          [
            [
              [
                -61.012,
                14.01
              ],
              [
                -60.946,
                14.105
              ],
              [
                -60.936,
                14.109
              ],
              [
                -60.93,
                14.109
              ],
              [
                -60.92,
                14.106
              ],
              [
                -60.916,
                14.102
              ],
              [
                -60.914,
                14.1
              ],
              [
                -60.888,
                14.013
              ],
              [
                -60.879,
                13.976
              ],
              [
                -60.878,
                13.957
              ],
              [
                -60.885,
                13.854
              ],
              [
                -60.886,
                13.848
              ],
              [
                -60.89,
                13.824
              ],
              [
                -60.9,
                13.778
              ],
              [
                -60.938,
                13.718
              ],
              [
                -60.951,
                13.71
              ],
              [
                -60.955,
                13.709
              ],
              [
                -60.956,
                13.715
              ],
              [
                -60.968,
                13.728
              ],
              [
                -60.986,
                13.744
              ],
              [
                -60.995,
                13.75
              ],
              [
                -61.001,
                13.751
              ],
              [
                -61.014,
                13.75
              ],
              [
                -61.026,
                13.752
              ],
              [
                -61.039,
                13.761
              ],
              [
                -61.051,
                13.771
              ],
              [
                -61.068,
                13.789
              ],
              [
                -61.073,
                13.797
              ],
              [
                -61.074,
                13.802
              ],
              [
                -61.075,
                13.808
              ],
              [
                -61.08,
                13.873
              ],
              [
                -61.079,
                13.88
              ],
              [
                -61.075,
                13.897
              ],
              [
                -61.035,
                13.97
              ],
              [
                -61.012,
                14.01
              ]
            ]
          ],
          [
            [
              [
                -61.454,
                12.594
              ],
              [
                -61.446,
                12.607
              ],
              [
                -61.443,
                12.611
              ],
              [
                -61.438,
                12.612
              ],
              [
                -61.426,
                12.612
              ],
              [
                -61.413,
                12.609
              ],
              [
                -61.407,
                12.607
              ],
              [
                -61.403,
                12.604
              ],
              [
                -61.405,
                12.599
              ],
              [
                -61.417,
                12.59
              ],
              [
                -61.444,
                12.584
              ],
              [
                -61.449,
                12.587
              ],
              [
                -61.452,
                12.59
              ],
              [
                -61.454,
                12.594
              ]
            ]
          ],
          [
            [
              [
                -61.586,
                12.294
              ],
              [
                -61.589,
                12.298
              ],
              [
                -61.589,
                12.304
              ],
              [
                -61.586,
                12.314
              ],
              [
                -61.583,
                12.319
              ],
              [
                -61.579,
                12.323
              ],
              [
                -61.574,
                12.321
              ],
              [
                -61.572,
                12.316
              ],
              [
                -61.573,
                12.309
              ],
              [
                -61.574,
                12.304
              ],
              [
                -61.58,
                12.296
              ],
              [
                -61.586,
                12.294
              ]
            ]
          ],
          [
            [
              [
                -61.419,
                12.508
              ],
              [
                -61.419,
                12.495
              ],
              [
                -61.425,
                12.457
              ],
              [
                -61.428,
                12.454
              ],
              [
                -61.492,
                12.435
              ],
              [
                -61.496,
                12.438
              ],
              [
                -61.497,
                12.444
              ],
              [
                -61.496,
                12.469
              ],
              [
                -61.494,
                12.475
              ],
              [
                -61.491,
                12.479
              ],
              [
                -61.434,
                12.529
              ],
              [
                -61.428,
                12.529
              ],
              [
                -61.426,
                12.527
              ],
              [
                -61.421,
                12.513
              ],
              [
                -61.419,
                12.508
              ]
            ]
          ],
          [
            [
              [
                -61.306,
                12.726
              ],
              [
                -61.305,
                12.72
              ],
              [
                -61.306,
                12.714
              ],
              [
                -61.315,
                12.702
              ],
              [
                -61.321,
                12.694
              ],
              [
                -61.328,
                12.688
              ],
              [
                -61.333,
                12.687
              ],
              [
                -61.336,
                12.689
              ],
              [
                -61.348,
                12.699
              ],
              [
                -61.348,
                12.702
              ],
              [
                -61.33,
                12.732
              ],
              [
                -61.327,
                12.736
              ],
              [
                -61.324,
                12.737
              ],
              [
                -61.311,
                12.735
              ],
              [
                -61.306,
                12.726
              ]
            ]
          ],
          [
            [
              [
                -61.214,
                13.002
              ],
              [
                -61.217,
                12.998
              ],
              [
                -61.239,
                12.975
              ],
              [
                -61.248,
                12.981
              ],
              [
                -61.252,
                12.989
              ],
              [
                -61.228,
                13.023
              ],
              [
                -61.206,
                13.043
              ],
              [
                -61.2,
                13.045
              ],
              [
                -61.197,
                13.034
              ],
              [
                -61.214,
                13.002
              ]
            ]
          ],
          [
            [
              [
                -61.266,
                13.273
              ],
              [
                -61.209,
                13.368
              ],
              [
                -61.205,
                13.371
              ],
              [
                -61.183,
                13.382
              ],
              [
                -61.177,
                13.384
              ],
              [
                -61.144,
                13.378
              ],
              [
                -61.141,
                13.374
              ],
              [
                -61.124,
                13.331
              ],
              [
                -61.122,
                13.326
              ],
              [
                -61.12,
                13.307
              ],
              [
                -61.123,
                13.249
              ],
              [
                -61.124,
                13.243
              ],
              [
                -61.13,
                13.22
              ],
              [
                -61.148,
                13.168
              ],
              [
                -61.165,
                13.138
              ],
              [
                -61.168,
                13.134
              ],
              [
                -61.173,
                13.133
              ],
              [
                -61.184,
                13.13
              ],
              [
                -61.244,
                13.156
              ],
              [
                -61.263,
                13.178
              ],
              [
                -61.279,
                13.204
              ],
              [
                -61.281,
                13.208
              ],
              [
                -61.278,
                13.25
              ],
              [
                -61.266,
                13.273
              ]
            ]
          ]
        ]
      }
    },
    {
      "type": "Feature",
      "properties": {
        "slug": "taino-chiefdoms",
        "name": "Taino",
        "start_year": 600,
        "end_year": 1500,
        "region_type": "confederation",
        "continental_zone": "Americas",
        "source": "historical-basemaps"
      },
      "geometry": {
        "type": "MultiPolygon",
        "coordinates": [
          [
            [
              [
                -62.986,
                17.52
              ],
              [
                -62.943,
                17.494
              ],
              [
                -62.939,
                17.49
              ],
              [
                -62.936,
                17.486
              ],
              [
                -62.94,
                17.474
              ],
              [
                -62.948,
                17.468
              ],
              [
                -62.952,
                17.465
              ],
              [
                -62.961,
                17.461
              ],
              [
                -62.972,
                17.458
              ],
              [
                -62.977,
                17.461
              ],
              [
                -62.979,
                17.465
              ],
              [
                -62.995,
                17.49
              ],
              [
                -62.998,
                17.494
              ],
              [
                -62.998,
                17.514
              ],
              [
                -62.997,
                17.521
              ],
              [
                -62.991,
                17.522
              ],
              [
                -62.986,
                17.52
              ]
            ]
          ],
          [
            [
              [
                -61.887,
                17.105
              ],
              [
                -61.884,
                17.11
              ],
              [
                -61.833,
                17.164
              ],
              [
                -61.826,
                17.167
              ],
              [
                -61.794,
                17.163
              ],
              [
                -61.784,
                17.158
              ],
              [
                -61.744,
                17.137
              ],
              [
                -61.674,
                17.094
              ],
              [
                -61.67,
                17.09
              ],
              [
                -61.669,
                17.085
              ],
              [
                -61.666,
                17.046
              ],
              [
                -61.668,
                17.041
              ],
              [
                -61.683,
                17.027
              ],
              [
                -61.687,
                17.024
              ],
              [
                -61.738,
                16.99
              ],
              [
                -61.829,
                16.997
              ],
              [
                -61.876,
                17.017
              ],
              [
                -61.881,
                17.02
              ],
              [
                -61.884,
                17.024
              ],
              [
                -61.886,
                17.028
              ],
              [
                -61.887,
                17.033
              ],
              [
                -61.891,
                17.094
              ],
              [
                -61.887,
                17.105
              ]
            ]
          ],
          [
            [
              [
                -61.848,
                17.581
              ],
              [
                -61.853,
                17.583
              ],
              [
                -61.857,
                17.592
              ],
              [
                -61.874,
                17.689
              ],
              [
                -61.875,
                17.699
              ],
              [
                -61.873,
                17.704
              ],
              [
                -61.85,
                17.723
              ],
              [
                -61.846,
                17.725
              ],
              [
                -61.839,
                17.725
              ],
              [
                -61.787,
                17.701
              ],
              [
                -61.784,
                17.697
              ],
              [
                -61.743,
                17.653
              ],
              [
                -61.74,
                17.649
              ],
              [
                -61.738,
                17.645
              ],
              [
                -61.732,
                17.625
              ],
              [
                -61.729,
                17.609
              ],
              [
                -61.731,
                17.547
              ],
              [
                -61.733,
                17.541
              ],
              [
                -61.739,
                17.541
              ],
              [
                -61.752,
                17.549
              ],
              [
                -61.816,
                17.584
              ],
              [
                -61.835,
                17.589
              ],
              [
                -61.839,
                17.587
              ],
              [
                -61.843,
                17.583
              ],
              [
                -61.848,
                17.581
              ]
            ]
          ],
          [
            [
              [
                -69.898,
                19.506
              ],
              [
                -69.747,
                19.354
              ],
              [
                -69.509,
                19.208
              ],
              [
                -69.358,
                19.17
              ],
              [
                -69.069,
                19.076
              ],
              [
                -68.657,
                18.873
              ],
              [
                -68.477,
                18.715
              ],
              [
                -68.373,
                18.575
              ],
              [
                -68.459,
                18.499
              ],
              [
                -68.523,
                18.365
              ],
              [
                -68.665,
                18.199
              ],
              [
                -68.772,
                18.244
              ],
              [
                -68.986,
                18.51
              ],
              [
                -69.156,
                18.529
              ],
              [
                -69.511,
                18.503
              ],
              [
                -69.64,
                18.547
              ],
              [
                -69.808,
                18.547
              ],
              [
                -69.956,
                18.502
              ],
              [
                -70.299,
                18.259
              ],
              [
                -70.477,
                18.285
              ],
              [
                -70.621,
                18.507
              ],
              [
                -70.696,
                18.519
              ],
              [
                -70.765,
                18.494
              ],
              [
                -71.062,
                18.347
              ],
              [
                -71.217,
                17.997
              ],
              [
                -71.401,
                17.704
              ],
              [
                -71.531,
                17.755
              ],
              [
                -71.677,
                18.003
              ],
              [
                -71.978,
                18.262
              ],
              [
                -72.178,
                18.287
              ],
              [
                -72.521,
                18.223
              ],
              [
                -72.915,
                18.228
              ],
              [
                -73.215,
                18.291
              ],
              [
                -73.474,
                18.316
              ],
              [
                -73.687,
                18.271
              ],
              [
                -73.857,
                18.112
              ],
              [
                -73.918,
                18.131
              ],
              [
                -74.365,
                18.378
              ],
              [
                -74.442,
                18.524
              ],
              [
                -74.424,
                18.613
              ],
              [
                -74.303,
                18.696
              ],
              [
                -73.83,
                18.652
              ],
              [
                -73.546,
                18.602
              ],
              [
                -73.04,
                18.527
              ],
              [
                -72.746,
                18.509
              ],
              [
                -72.472,
                18.592
              ],
              [
                -72.298,
                18.662
              ],
              [
                -72.387,
                18.732
              ],
              [
                -72.698,
                18.941
              ],
              [
                -72.759,
                19.074
              ],
              [
                -72.676,
                19.392
              ],
              [
                -72.767,
                19.525
              ],
              [
                -72.945,
                19.595
              ],
              [
                -73.355,
                19.658
              ],
              [
                -73.493,
                19.753
              ],
              [
                -73.475,
                19.835
              ],
              [
                -73.421,
                19.874
              ],
              [
                -73.266,
                19.919
              ],
              [
                -72.94,
                19.945
              ],
              [
                -72.589,
                19.888
              ],
              [
                -72.103,
                19.756
              ],
              [
                -71.843,
                19.731
              ],
              [
                -71.777,
                19.771
              ],
              [
                -71.551,
                19.897
              ],
              [
                -71.374,
                19.834
              ],
              [
                -71.22,
                19.834
              ],
              [
                -71.047,
                19.911
              ],
              [
                -70.882,
                19.93
              ],
              [
                -70.819,
                19.841
              ],
              [
                -70.739,
                19.79
              ],
              [
                -70.289,
                19.652
              ],
              [
                -69.993,
                19.684
              ],
              [
                -69.898,
                19.506
              ]
            ]
          ],
          [
            [
              [
                -65.952,
                18.472
              ],
              [
                -65.775,
                18.396
              ],
              [
                -65.724,
                18.333
              ],
              [
                -65.808,
                18.174
              ],
              [
                -65.84,
                18.129
              ],
              [
                -65.967,
                18.027
              ],
              [
                -66.118,
                18.008
              ],
              [
                -66.451,
                18.045
              ],
              [
                -66.746,
                18.013
              ],
              [
                -66.906,
                17.936
              ],
              [
                -67.152,
                17.987
              ],
              [
                -67.152,
                17.987
              ],
              [
                -67.185,
                18.082
              ],
              [
                -67.162,
                18.33
              ],
              [
                -67.162,
                18.33
              ],
              [
                -67.162,
                18.33
              ],
              [
                -67.211,
                18.438
              ],
              [
                -67.211,
                18.438
              ],
              [
                -67.211,
                18.438
              ],
              [
                -67.161,
                18.514
              ],
              [
                -67.055,
                18.546
              ],
              [
                -66.811,
                18.515
              ],
              [
                -66.629,
                18.522
              ],
              [
                -65.952,
                18.472
              ]
            ]
          ],
          [
            [
              [
                -77.769,
                18.51
              ],
              [
                -77.156,
                18.397
              ],
              [
                -76.719,
                18.239
              ],
              [
                -76.426,
                18.119
              ],
              [
                -76.301,
                17.992
              ],
              [
                -76.319,
                17.903
              ],
              [
                -76.468,
                17.871
              ],
              [
                -76.806,
                18.004
              ],
              [
                -77.05,
                17.978
              ],
              [
                -77.152,
                17.863
              ],
              [
                -77.291,
                17.806
              ],
              [
                -77.425,
                17.831
              ],
              [
                -77.737,
                17.932
              ],
              [
                -77.84,
                18.053
              ],
              [
                -78.052,
                18.218
              ],
              [
                -78.261,
                18.255
              ],
              [
                -78.325,
                18.35
              ],
              [
                -78.086,
                18.478
              ],
              [
                -77.769,
                18.51
              ]
            ]
          ],
          [
            [
              [
                -62.207,
                16.811
              ],
              [
                -62.202,
                16.814
              ],
              [
                -62.176,
                16.809
              ],
              [
                -62.148,
                16.752
              ],
              [
                -62.146,
                16.747
              ],
              [
                -62.138,
                16.693
              ],
              [
                -62.14,
                16.688
              ],
              [
                -62.151,
                16.678
              ],
              [
                -62.156,
                16.675
              ],
              [
                -62.166,
                16.672
              ],
              [
                -62.171,
                16.671
              ],
              [
                -62.19,
                16.672
              ],
              [
                -62.209,
                16.684
              ],
              [
                -62.213,
                16.687
              ],
              [
                -62.23,
                16.705
              ],
              [
                -62.237,
                16.712
              ],
              [
                -62.237,
                16.717
              ],
              [
                -62.236,
                16.731
              ],
              [
                -62.207,
                16.811
              ]
            ]
          ],
          [
            [
              [
                -62.979,
                18.277
              ],
              [
                -62.973,
                18.277
              ],
              [
                -62.97,
                18.272
              ],
              [
                -62.969,
                18.266
              ],
              [
                -62.987,
                18.236
              ],
              [
                -62.993,
                18.227
              ],
              [
                -63.021,
                18.214
              ],
              [
                -63.031,
                18.21
              ],
              [
                -63.074,
                18.193
              ],
              [
                -63.14,
                18.168
              ],
              [
                -63.151,
                18.166
              ],
              [
                -63.157,
                18.165
              ],
              [
                -63.168,
                18.164
              ],
              [
                -63.159,
                18.176
              ],
              [
                -63.155,
                18.179
              ],
              [
                -63.141,
                18.194
              ],
              [
                -63.058,
                18.256
              ],
              [
                -63.053,
                18.259
              ],
              [
                -63.049,
                18.261
              ],
              [
                -63.023,
                18.269
              ],
              [
                -62.979,
                18.277
              ]
            ]
          ],
          [
            [
              [
                -62.626,
                17.127
              ],
              [
                -62.626,
                17.139
              ],
              [
                -62.624,
                17.151
              ],
              [
                -62.62,
                17.163
              ],
              [
                -62.61,
                17.191
              ],
              [
                -62.6,
                17.197
              ],
              [
                -62.583,
                17.2
              ],
              [
                -62.576,
                17.199
              ],
              [
                -62.549,
                17.19
              ],
              [
                -62.545,
                17.187
              ],
              [
                -62.543,
                17.182
              ],
              [
                -62.541,
                17.177
              ],
              [
                -62.535,
                17.145
              ],
              [
                -62.534,
                17.134
              ],
              [
                -62.535,
                17.121
              ],
              [
                -62.539,
                17.109
              ],
              [
                -62.544,
                17.1
              ],
              [
                -62.548,
                17.096
              ],
              [
                -62.553,
                17.094
              ],
              [
                -62.585,
                17.092
              ],
              [
                -62.591,
                17.092
              ],
              [
                -62.611,
                17.095
              ],
              [
                -62.617,
                17.102
              ],
              [
                -62.622,
                17.111
              ],
              [
                -62.625,
                17.121
              ],
              [
                -62.626,
                17.127
              ]
            ]
          ],
          [
            [
              [
                -62.671,
                17.257
              ],
              [
                -62.677,
                17.265
              ],
              [
                -62.693,
                17.278
              ],
              [
                -62.708,
                17.286
              ],
              [
                -62.714,
                17.286
              ],
              [
                -62.725,
                17.284
              ],
              [
                -62.738,
                17.285
              ],
              [
                -62.759,
                17.287
              ],
              [
                -62.778,
                17.292
              ],
              [
                -62.793,
                17.3
              ],
              [
                -62.835,
                17.324
              ],
              [
                -62.839,
                17.328
              ],
              [
                -62.862,
                17.366
              ],
              [
                -62.864,
                17.371
              ],
              [
                -62.856,
                17.386
              ],
              [
                -62.849,
                17.393
              ],
              [
                -62.839,
                17.402
              ],
              [
                -62.818,
                17.411
              ],
              [
                -62.813,
                17.409
              ],
              [
                -62.735,
                17.368
              ],
              [
                -62.73,
                17.365
              ],
              [
                -62.702,
                17.337
              ],
              [
                -62.623,
                17.242
              ],
              [
                -62.621,
                17.231
              ],
              [
                -62.622,
                17.224
              ],
              [
                -62.625,
                17.221
              ],
              [
                -62.654,
                17.209
              ],
              [
                -62.662,
                17.239
              ],
              [
                -62.671,
                17.257
              ]
            ]
          ],
          [
            [
              [
                -64.722,
                17.758
              ],
              [
                -64.709,
                17.755
              ],
              [
                -64.697,
                17.746
              ],
              [
                -64.69,
                17.745
              ],
              [
                -64.687,
                17.75
              ],
              [
                -64.684,
                17.754
              ],
              [
                -64.674,
                17.758
              ],
              [
                -64.663,
                17.768
              ],
              [
                -64.658,
                17.769
              ],
              [
                -64.638,
                17.765
              ],
              [
                -64.61,
                17.762
              ],
              [
                -64.59,
                17.762
              ],
              [
                -64.577,
                17.761
              ],
              [
                -64.57,
                17.759
              ],
              [
                -64.565,
                17.757
              ],
              [
                -64.561,
                17.754
              ],
              [
                -64.56,
                17.748
              ],
              [
                -64.564,
                17.745
              ],
              [
                -64.578,
                17.746
              ],
              [
                -64.591,
                17.749
              ],
              [
                -64.596,
                17.749
              ],
              [
                -64.601,
                17.747
              ],
              [
                -64.611,
                17.736
              ],
              [
                -64.619,
                17.73
              ],
              [
                -64.628,
                17.726
              ],
              [
                -64.644,
                17.722
              ],
              [
                -64.668,
                17.711
              ],
              [
                -64.692,
                17.708
              ],
              [
                -64.714,
                17.704
              ],
              [
                -64.726,
                17.705
              ],
              [
                -64.739,
                17.708
              ],
              [
                -64.744,
                17.707
              ],
              [
                -64.758,
                17.699
              ],
              [
                -64.763,
                17.698
              ],
              [
                -64.777,
                17.699
              ],
              [
                -64.789,
                17.698
              ],
              [
                -64.804,
                17.694
              ],
              [
                -64.816,
                17.692
              ],
              [
                -64.823,
                17.685
              ],
              [
                -64.828,
                17.683
              ],
              [
                -64.834,
                17.683
              ],
              [
                -64.843,
                17.689
              ],
              [
                -64.852,
                17.684
              ],
              [
                -64.859,
                17.686
              ],
              [
                -64.863,
                17.689
              ],
              [
                -64.868,
                17.69
              ],
              [
                -64.872,
                17.687
              ],
              [
                -64.878,
                17.686
              ],
              [
                -64.896,
                17.677
              ],
              [
                -64.896,
                17.679
              ],
              [
                -64.892,
                17.682
              ],
              [
                -64.889,
                17.687
              ],
              [
                -64.882,
                17.71
              ],
              [
                -64.88,
                17.724
              ],
              [
                -64.883,
                17.734
              ],
              [
                -64.891,
                17.747
              ],
              [
                -64.892,
                17.752
              ],
              [
                -64.89,
                17.758
              ],
              [
                -64.886,
                17.762
              ],
              [
                -64.883,
                17.765
              ],
              [
                -64.88,
                17.77
              ],
              [
                -64.871,
                17.775
              ],
              [
                -64.864,
                17.774
              ],
              [
                -64.862,
                17.771
              ],
              [
                -64.844,
                17.762
              ],
              [
                -64.838,
                17.76
              ],
              [
                -64.832,
                17.761
              ],
              [
                -64.827,
                17.762
              ],
              [
                -64.819,
                17.768
              ],
              [
                -64.816,
                17.772
              ],
              [
                -64.811,
                17.775
              ],
              [
                -64.797,
                17.789
              ],
              [
                -64.787,
                17.793
              ],
              [
                -64.773,
                17.79
              ],
              [
                -64.769,
                17.787
              ],
              [
                -64.766,
                17.783
              ],
              [
                -64.762,
                17.774
              ],
              [
                -64.759,
                17.772
              ],
              [
                -64.753,
                17.773
              ],
              [
                -64.741,
                17.774
              ],
              [
                -64.736,
                17.772
              ],
              [
                -64.73,
                17.764
              ],
              [
                -64.722,
                17.758
              ]
            ]
          ],
          [
            [
              [
                -64.79,
                18.337
              ],
              [
                -64.782,
                18.343
              ],
              [
                -64.744,
                18.369
              ],
              [
                -64.739,
                18.371
              ],
              [
                -64.732,
                18.372
              ],
              [
                -64.709,
                18.371
              ],
              [
                -64.668,
                18.351
              ],
              [
                -64.664,
                18.348
              ],
              [
                -64.658,
                18.34
              ],
              [
                -64.661,
                18.335
              ],
              [
                -64.665,
                18.332
              ],
              [
                -64.704,
                18.307
              ],
              [
                -64.769,
                18.316
              ],
              [
                -64.775,
                18.318
              ],
              [
                -64.788,
                18.326
              ],
              [
                -64.79,
                18.331
              ],
              [
                -64.79,
                18.337
              ]
            ]
          ],
          [
            [
              [
                -65.012,
                18.349
              ],
              [
                -65.018,
                18.351
              ],
              [
                -65.026,
                18.357
              ],
              [
                -65.027,
                18.363
              ],
              [
                -65.024,
                18.367
              ],
              [
                -64.977,
                18.378
              ],
              [
                -64.95,
                18.375
              ],
              [
                -64.904,
                18.365
              ],
              [
                -64.847,
                18.339
              ],
              [
                -64.834,
                18.329
              ],
              [
                -64.832,
                18.324
              ],
              [
                -64.833,
                18.317
              ],
              [
                -64.836,
                18.313
              ],
              [
                -64.842,
                18.312
              ],
              [
                -64.878,
                18.311
              ],
              [
                -64.886,
                18.317
              ],
              [
                -64.923,
                18.336
              ],
              [
                -64.929,
                18.339
              ],
              [
                -64.979,
                18.347
              ],
              [
                -65.012,
                18.349
              ]
            ]
          ],
          [
            [
              [
                -61.31,
                15.883
              ],
              [
                -61.317,
                15.89
              ],
              [
                -61.329,
                15.929
              ],
              [
                -61.33,
                15.934
              ],
              [
                -61.309,
                15.973
              ],
              [
                -61.275,
                16.009
              ],
              [
                -61.267,
                16.015
              ],
              [
                -61.261,
                16.013
              ],
              [
                -61.238,
                15.993
              ],
              [
                -61.202,
                15.952
              ],
              [
                -61.196,
                15.945
              ],
              [
                -61.187,
                15.921
              ],
              [
                -61.186,
                15.916
              ],
              [
                -61.188,
                15.91
              ],
              [
                -61.194,
                15.903
              ],
              [
                -61.223,
                15.883
              ],
              [
                -61.231,
                15.877
              ],
              [
                -61.246,
                15.872
              ],
              [
                -61.257,
                15.87
              ],
              [
                -61.276,
                15.871
              ],
              [
                -61.283,
                15.872
              ],
              [
                -61.306,
                15.88
              ],
              [
                -61.31,
                15.883
              ]
            ]
          ],
          [
            [
              [
                -61.082,
                16.308
              ],
              [
                -61.059,
                16.326
              ],
              [
                -61.047,
                16.334
              ],
              [
                -61.025,
                16.347
              ],
              [
                -61.021,
                16.349
              ],
              [
                -61.015,
                16.35
              ],
              [
                -61.002,
                16.349
              ],
              [
                -60.989,
                16.346
              ],
              [
                -60.991,
                16.341
              ],
              [
                -60.999,
                16.335
              ],
              [
                -61.037,
                16.311
              ],
              [
                -61.082,
                16.296
              ],
              [
                -61.087,
                16.296
              ],
              [
                -61.088,
                16.301
              ],
              [
                -61.086,
                16.305
              ],
              [
                -61.082,
                16.308
              ]
            ]
          ],
          [
            [
              [
                -61.269,
                16.319
              ],
              [
                -61.26,
                16.313
              ],
              [
                -61.206,
                16.267
              ],
              [
                -61.226,
                16.253
              ],
              [
                -61.455,
                16.201
              ],
              [
                -61.467,
                16.2
              ],
              [
                -61.474,
                16.201
              ],
              [
                -61.498,
                16.208
              ],
              [
                -61.509,
                16.213
              ],
              [
                -61.521,
                16.222
              ],
              [
                -61.533,
                16.232
              ],
              [
                -61.547,
                16.23
              ],
              [
                -61.564,
                16.228
              ],
              [
                -61.567,
                16.227
              ],
              [
                -61.569,
                16.224
              ],
              [
                -61.581,
                16.205
              ],
              [
                -61.581,
                16.199
              ],
              [
                -61.581,
                16.193
              ],
              [
                -61.577,
                16.166
              ],
              [
                -61.575,
                16.161
              ],
              [
                -61.568,
                16.142
              ],
              [
                -61.556,
                16.076
              ],
              [
                -61.553,
                16.054
              ],
              [
                -61.559,
                16.034
              ],
              [
                -61.562,
                16.029
              ],
              [
                -61.573,
                16.018
              ],
              [
                -61.607,
                15.99
              ],
              [
                -61.648,
                15.965
              ],
              [
                -61.685,
                15.948
              ],
              [
                -61.691,
                15.946
              ],
              [
                -61.695,
                15.949
              ],
              [
                -61.737,
                16.016
              ],
              [
                -61.757,
                16.048
              ],
              [
                -61.761,
                16.057
              ],
              [
                -61.794,
                16.242
              ],
              [
                -61.796,
                16.264
              ],
              [
                -61.794,
                16.307
              ],
              [
                -61.784,
                16.333
              ],
              [
                -61.76,
                16.351
              ],
              [
                -61.748,
                16.36
              ],
              [
                -61.742,
                16.361
              ],
              [
                -61.731,
                16.362
              ],
              [
                -61.727,
                16.36
              ],
              [
                -61.656,
                16.325
              ],
              [
                -61.61,
                16.284
              ],
              [
                -61.61,
                16.279
              ],
              [
                -61.607,
                16.275
              ],
              [
                -61.582,
                16.275
              ],
              [
                -61.558,
                16.284
              ],
              [
                -61.557,
                16.285
              ],
              [
                -61.542,
                16.29
              ],
              [
                -61.499,
                16.349
              ],
              [
                -61.523,
                16.393
              ],
              [
                -61.529,
                16.418
              ],
              [
                -61.533,
                16.433
              ],
              [
                -61.533,
                16.439
              ],
              [
                -61.532,
                16.452
              ],
              [
                -61.526,
                16.461
              ],
              [
                -61.507,
                16.485
              ],
              [
                -61.47,
                16.511
              ],
              [
                -61.466,
                16.514
              ],
              [
                -61.46,
                16.514
              ],
              [
                -61.457,
                16.513
              ],
              [
                -61.436,
                16.499
              ],
              [
                -61.408,
                16.477
              ],
              [
                -61.405,
                16.473
              ],
              [
                -61.403,
                16.468
              ],
              [
                -61.393,
                16.433
              ],
              [
                -61.391,
                16.422
              ],
              [
                -61.399,
                16.4
              ],
              [
                -61.4,
                16.393
              ],
              [
                -61.399,
                16.388
              ],
              [
                -61.395,
                16.379
              ],
              [
                -61.373,
                16.351
              ],
              [
                -61.366,
                16.344
              ],
              [
                -61.358,
                16.338
              ],
              [
                -61.346,
                16.334
              ],
              [
                -61.339,
                16.333
              ],
              [
                -61.334,
                16.334
              ],
              [
                -61.292,
                16.327
              ],
              [
                -61.279,
                16.323
              ],
              [
                -61.269,
                16.319
              ]
            ]
          ],
          [
            [
              [
                -62.873,
                17.918
              ],
              [
                -62.873,
                17.923
              ],
              [
                -62.869,
                17.93
              ],
              [
                -62.863,
                17.93
              ],
              [
                -62.812,
                17.918
              ],
              [
                -62.791,
                17.912
              ],
              [
                -62.789,
                17.907
              ],
              [
                -62.791,
                17.903
              ],
              [
                -62.811,
                17.888
              ],
              [
                -62.836,
                17.878
              ],
              [
                -62.841,
                17.879
              ],
              [
                -62.845,
                17.883
              ],
              [
                -62.87,
                17.913
              ],
              [
                -62.873,
                17.918
              ]
            ]
          ],
          [
            [
              [
                -63.147,
                18.072
              ],
              [
                -63.142,
                18.074
              ],
              [
                -63.045,
                18.121
              ],
              [
                -63.039,
                18.122
              ],
              [
                -63.019,
                18.118
              ],
              [
                -63.016,
                18.114
              ],
              [
                -63.006,
                18.087
              ],
              [
                -63.007,
                18.081
              ],
              [
                -63.011,
                18.067
              ],
              [
                -63.01,
                18.048
              ],
              [
                -63.012,
                18.036
              ],
              [
                -63.017,
                18.025
              ],
              [
                -63.019,
                18.021
              ],
              [
                -63.028,
                18.016
              ],
              [
                -63.033,
                18.016
              ],
              [
                -63.073,
                18.025
              ],
              [
                -63.079,
                18.027
              ],
              [
                -63.116,
                18.043
              ],
              [
                -63.14,
                18.059
              ],
              [
                -63.144,
                18.062
              ],
              [
                -63.146,
                18.066
              ],
              [
                -63.147,
                18.072
              ]
            ]
          ],
          [
            [
              [
                -81.103,
                23.061
              ],
              [
                -80.721,
                23.024
              ],
              [
                -80.45,
                22.935
              ],
              [
                -80.199,
                22.885
              ],
              [
                -79.985,
                22.879
              ],
              [
                -79.76,
                22.759
              ],
              [
                -79.502,
                22.518
              ],
              [
                -79.33,
                22.404
              ],
              [
                -79.069,
                22.328
              ],
              [
                -78.723,
                22.278
              ],
              [
                -78.171,
                22.12
              ],
              [
                -77.712,
                21.899
              ],
              [
                -77.508,
                21.759
              ],
              [
                -77.34,
                21.512
              ],
              [
                -77.191,
                21.448
              ],
              [
                -76.976,
                21.43
              ],
              [
                -76.209,
                21.196
              ],
              [
                -75.751,
                21.121
              ],
              [
                -75.604,
                21.013
              ],
              [
                -75.759,
                20.752
              ],
              [
                -75.654,
                20.683
              ],
              [
                -75.402,
                20.664
              ],
              [
                -75.062,
                20.697
              ],
              [
                -74.839,
                20.621
              ],
              [
                -74.611,
                20.45
              ],
              [
                -74.345,
                20.323
              ],
              [
                -74.173,
                20.19
              ],
              [
                -74.278,
                20.152
              ],
              [
                -74.72,
                20.112
              ],
              [
                -75.237,
                19.933
              ],
              [
                -75.519,
                19.907
              ],
              [
                -75.993,
                20.002
              ],
              [
                -76.398,
                20.02
              ],
              [
                -76.819,
                19.936
              ],
              [
                -77.243,
                19.885
              ],
              [
                -77.461,
                19.871
              ],
              [
                -77.663,
                19.903
              ],
              [
                -77.504,
                20.075
              ],
              [
                -77.177,
                20.355
              ],
              [
                -77.099,
                20.533
              ],
              [
                -77.21,
                20.647
              ],
              [
                -77.291,
                20.704
              ],
              [
                -77.571,
                20.767
              ],
              [
                -77.886,
                20.767
              ],
              [
                -78.157,
                20.817
              ],
              [
                -78.45,
                20.969
              ],
              [
                -78.514,
                21.306
              ],
              [
                -78.63,
                21.547
              ],
              [
                -78.728,
                21.617
              ],
              [
                -78.906,
                21.629
              ],
              [
                -79.358,
                21.609
              ],
              [
                -79.735,
                21.672
              ],
              [
                -80.014,
                21.773
              ],
              [
                -80.444,
                21.995
              ],
              [
                -80.776,
                22.102
              ],
              [
                -81.053,
                22.133
              ],
              [
                -81.351,
                22.151
              ],
              [
                -81.363,
                23.121
              ],
              [
                -81.103,
                23.061
              ]
            ]
          ]
        ]
      }
    }
  ]
}