{
  "type": "FeatureCollection",
  "features": [
    {
      "type": "Feature",
      "properties": {
        "slug": "catawba",
        "name": "Catawba",
        "start_date": "-3999",
        "end_date": "1763",
        "region_type": "nation",
        "source_system": "OHM",
        "osm_type": "relation",
        "osm_id": "2888181"
      },
      "geometry": {
        "type": "Polygon",
        "coordinates": [
          [
            [
              -77.3378853,
              34.5281176
            ],
            [
              -77.3371815,
              34.5215553
            ],
            [
              -77.3525796,
              34.5150915
            ],
            [
              -77.3673081,
              34.509575
            ],
            [
              -77.3839764,
              34.5017663
            ],
            [
              -77.3970399,
              34.4961499
            ],
            [
              -77.4065499,
              34.4903349
            ],
            [
              -77.4184975,
              34.4827084
            ],
            [
              -77.4337582,
              34.4762275
            ],
            [
              -77.4435258,
              34.4726472
            ],
            [
              -77.4548897,
              34.4672552
            ],
            [
              -77.4681248,
              34.4601645
            ],
            [
              -77.4829049,
              34.4522096
            ],
            [
              -77.4973931,
              34.4448628
            ],
            [
              -77.510405,
              34.4372888
            ],
            [
              -77.5227818,
              34.4308609
            ],
            [
              -77.5365662,
              34.422082
            ],
            [
              -77.5501961,
              34.4138686
            ],
            [
              -77.5646157,
              34.4060935
            ],
            [
              -77.5707268,
              34.4014054
            ],
            [
              -77.5836014,
              34.3928218
            ],
            [
              -77.5937638,
              34.3861497
            ],
            [
              -77.6046815,
              34.377026
            ],
            [
              -77.6189809,
              34.3650816
            ],
            [
              -77.6280961,
              34.3578122
            ],
            [
              -77.6368851,
              34.3486004
            ],
            [
              -77.6442837,
              34.3401105
            ],
            [
              -77.656094,
              34.3370063
            ],
            [
              -77.6667714,
              34.3298903
            ],
            [
              -77.6770882,
              34.3246026
            ],
            [
              -77.6847272,
              34.3182512
            ],
            [
              -77.6931557,
              34.3111619
            ],
            [
              -77.7001595,
              34.3031504
            ],
            [
              -77.70579,
              34.2966555
            ],
            [
              -77.7122102,
              34.28999
            ],
            [
              -77.7219605,
              34.2830544
            ],
            [
              -77.7318825,
              34.2755934
            ],
            [
              -77.7370667,
              34.2714371
            ],
            [
              -77.7420277,
              34.2658051
            ],
            [
              -77.7466969,
              34.2587683
            ],
            [
              -77.7519841,
              34.2514328
            ],
            [
              -77.7592282,
              34.2441393
            ],
            [
              -77.7664723,
              34.2367316
            ],
            [
              -77.7725663,
              34.2297774
            ],
            [
              -77.7781453,
              34.2212613
            ],
            [
              -77.7839989,
              34.211552
            ],
            [
              -77.7891145,
              34.2024377
            ],
            [
              -77.7959466,
              34.1952962
            ],
            [
              -77.8021779,
              34.1879694
            ],
            [
              -77.8081174,
              34.1810396
            ],
            [
              -77.8125634,
              34.1778017
            ],
            [
              -77.8174214,
              34.1728168
            ],
            [
              -77.8239102,
              34.1630024
            ],
            [
              -77.8275666,
              34.1547069
            ],
            [
              -77.8330598,
              34.1456575
            ],
            [
              -77.8395314,
              34.1308242
            ],
            [
              -77.8443208,
              34.1179495
            ],
            [
              -77.847651,
              34.1080435
            ],
            [
              -77.8542428,
              34.0927202
            ],
            [
              -77.8584656,
              34.0815885
            ],
            [
              -77.8621564,
              34.0728868
            ],
            [
              -77.8673749,
              34.0627479
            ],
            [
              -77.872868,
              34.0514416
            ],
            [
              -77.8759236,
              34.0404894
            ],
            [
              -77.8817601,
              34.0300906
            ],
            [
              -77.8855195,
              34.0199893
            ],
            [
              -77.8890729,
              34.0098156
            ],
            [
              -77.8921799,
              34.0007081
            ],
            [
              -77.8959222,
              33.9930798
            ],
            [
              -77.8990636,
              33.9838282
            ],
            [
              -77.90066,
              33.9768959
            ],
            [
              -77.9049687,
              33.9661476
            ],
            [
              -77.9081616,
              33.9556115
            ],
            [
              -77.9122643,
              33.9463273
            ],
            [
              -77.9170708,
              33.9341225
            ],
            [
              -77.9237485,
              33.9214458
            ],
            [
              -77.9316449,
              33.9093086
            ],
            [
              -77.934031,
              33.9002188
            ],
            [
              -77.9378934,
              33.8860408
            ],
            [
              -77.93858,
              33.8768345
            ],
            [
              -77.9403825,
              33.8694659
            ],
            [
              -77.9413094,
              33.8607425
            ],
            [
              -77.9438157,
              33.8486822
            ],
            [
              -77.9457383,
              33.8420811
            ],
            [
              -77.9470086,
              33.8373759
            ],
            [
              -77.955111,
              33.8365347
            ],
            [
              -77.9663892,
              33.8380176
            ],
            [
              -77.9786114,
              33.8433073
            ],
            [
              -77.9881902,
              33.8473563
            ],
            [
              -78.0058541,
              33.8537289
            ],
            [
              -78.0134415,
              33.8582479
            ],
            [
              -78.0167889,
              33.8655319
            ],
            [
              -78.0162225,
              33.870934
            ],
            [
              -78.0141454,
              33.8757514
            ],
            [
              -78.0177674,
              33.8829769
            ],
            [
              -78.0199303,
              33.8864826
            ],
            [
              -78.026608,
              33.8883351
            ],
            [
              -78.0401864,
              33.8905153
            ],
            [
              -78.062365,
              33.8957875
            ],
            [
              -78.0853333,
              33.9004325
            ],
            [
              -78.1016583,
              33.9030969
            ],
            [
              -78.1255193,
              33.9060176
            ],
            [
              -78.1442647,
              33.9071716
            ],
            [
              -78.1682801,
              33.9085962
            ],
            [
              -78.1885362,
              33.9081404
            ],
            [
              -78.2160363,
              33.9076987
            ],
            [
              -78.2402749,
              33.9054192
            ],
            [
              -78.2606511,
              33.9027977
            ],
            [
              -78.2894044,
              33.9022705
            ],
            [
              -78.3101411,
              33.9015154
            ],
            [
              -78.3313584,
              33.9006035
            ],
            [
              -78.3506532,
              33.8980531
            ],
            [
              -78.3709607,
              33.8937072
            ],
            [
              -78.3807969,
              33.8968989
            ],
            [
              -78.3942552,
              33.8934222
            ],
            [
              -78.4080396,
              33.8890191
            ],
            [
              -78.4258065,
              33.8835184
            ],
            [
              -78.4464402,
              33.8787157
            ],
            [
              -78.464705,
              33.8732144
            ],
            [
              -78.479588,
              33.870763
            ],
            [
              -78.4935269,
              33.8661876
            ],
            [
              -78.5113797,
              33.8605572
            ],
            [
              -78.5254559,
              33.8524459
            ],
            [
              -78.5390172,
              33.8478553
            ],
            [
              -78.5517888,
              33.8442483
            ],
            [
              -78.5718388,
              33.8400137
            ],
            [
              -78.5967126,
              33.8360926
            ],
            [
              -78.6146684,
              33.8298613
            ],
            [
              -78.6367612,
              33.8235583
            ],
            [
              -78.6568971,
              33.8169124
            ],
            [
              -78.6726212,
              33.8115355
            ],
            [
              -78.6893926,
              33.8062581
            ],
            [
              -78.708241,
              33.7993684
            ],
            [
              -78.7260079,
              33.7900101
            ],
            [
              -78.7382302,
              33.7820348
            ],
            [
              -78.7518601,
              33.7751004
            ],
            [
              -78.7679448,
              33.7671237
            ],
            [
              -78.7797379,
              33.7589464
            ],
            [
              -78.7951016,
              33.7486131
            ],
            [
              -78.8121819,
              33.737365
            ],
            [
              -78.8240266,
              33.729242
            ],
            [
              -78.8387208,
              33.7185625
            ],
            [
              -78.8557324,
              33.7042544
            ],
            [
              -78.865191,
              33.6947857
            ],
            [
              -78.8778939,
              33.6830448
            ],
            [
              -78.8920045,
              33.6723024
            ],
            [
              -78.9038835,
              33.6606013
            ],
            [
              -78.912415,
              33.6524711
            ],
            [
              -78.9238648,
              33.6424108
            ],
            [
              -78.9324994,
              33.633064
            ],
            [
              -78.9477086,
              33.6203999
            ],
            [
              -78.956532,
              33.6094923
            ],
            [
              -78.9677415,
              33.5995128
            ],
            [
              -78.9815087,
              33.5849561
            ],
            [
              -78.9902978,
              33.5745876
            ],
            [
              -78.9994817,
              33.566106
            ],
            [
              -79.0092664,
              33.5519871
            ],
            [
              -79.015944,
              33.53954
            ],
            [
              -79.020596,
              33.5319421
            ],
            [
              -79.0255742,
              33.5290086
            ],
            [
              -79.0255742,
              33.5251019
            ],
            [
              -79.0265355,
              33.5208946
            ],
            [
              -79.0391526,
              33.5129945
            ],
            [
              -79.0502248,
              33.5040773
            ],
            [
              -79.0666356,
              33.4903635
            ],
            [
              -79.0776906,
              33.4784516
            ],
            [
              -79.0866513,
              33.4679987
            ],
            [
              -79.0938268,
              33.4580172
            ],
            [
              -79.0996633,
              33.449166
            ],
            [
              -79.1082635,
              33.4372485
            ],
            [
              -79.1143231,
              33.4270628
            ],
            [
              -79.1184945,
              33.4195124
            ],
            [
              -79.1240907,
              33.4089377
            ],
            [
              -79.130116,
              33.3984335
            ],
            [
              -79.1345277,
              33.3895476
            ],
            [
              -79.1392827,
              33.379858
            ],
            [
              -79.141274,
              33.3705545
            ],
            [
              -79.1435914,
              33.3609202
            ],
            [
              -79.145823,
              33.3472554
            ],
            [
              -79.1501489,
              33.3367294
            ],
            [
              -79.1549211,
              33.3270053
            ],
            [
              -79.1568952,
              33.3112407
            ],
            [
              -79.1579938,
              33.3058896
            ],
            [
              -79.1621823,
              33.3019585
            ],
            [
              -79.1650491,
              33.2954303
            ],
            [
              -79.1671433,
              33.2860603
            ],
            [
              -79.1696496,
              33.278024
            ],
            [
              -79.1713834,
              33.2686378
            ],
            [
              -79.171864,
              33.2622219
            ],
            [
              -79.1726708,
              33.2561357
            ],
            [
              -79.173512,
              33.2515995
            ],
            [
              -79.1748681,
              33.244766
            ],
            [
              -79.1754003,
              33.2383626
            ],
            [
              -79.1745248,
              33.2322748
            ],
            [
              -79.1735291,
              33.2296184
            ],
            [
              -79.1677785,
              33.2189058
            ],
            [
              -79.1659074,
              33.2104181
            ],
            [
              -79.1671262,
              33.203093
            ],
            [
              -79.1736321,
              33.193196
            ],
            [
              -79.178576,
              33.1854097
            ],
            [
              -79.1820092,
              33.1794044
            ],
            [
              -79.1852536,
              33.172867
            ],
            [
              -79.1890988,
              33.1668464
            ],
            [
              -79.1964288,
              33.1604948
            ],
            [
              -79.2046685,
              33.1550483
            ],
            [
              -79.2164273,
              33.1462238
            ],
            [
              -79.2227616,
              33.1411932
            ],
            [
              -79.2298684,
              33.1323817
            ],
            [
              -79.2392411,
              33.1240293
            ],
            [
              -79.2512059,
              33.1184223
            ],
            [
              -79.2653336,
              33.1145691
            ],
            [
              -79.2771611,
              33.1108739
            ],
            [
              -79.3865266,
              33.1189399
            ],
            [
              -80.0030141,
              33.4673973
            ],
            [
              -80.3097901,
              33.7242736
            ],
            [
              -80.5288987,
              33.8150298
            ],
            [
              -80.7494836,
              33.9621754
            ],
            [
              -81.0342355,
              34.10675
            ],
            [
              -81.2313028,
              34.2520997
            ],
            [
              -81.5655446,
              34.32568
            ],
            [
              -82.112372,
              34.5615998
            ],
            [
              -82.3089071,
              34.7043697
            ],
            [
              -82.3531099,
              34.8497253
            ],
            [
              -82.4646383,
              35.0647139
            ],
            [
              -82.4854608,
              35.2636512
            ],
            [
              -82.5516706,
              35.4421468
            ],
            [
              -82.529492,
              35.5144322
            ],
            [
              -81.5122438,
              36.0859167
            ],
            [
              -81.3206783,
              36.1553181
            ],
            [
              -80.7485052,
              36.4732725
            ],
            [
              -80.3098417,
              36.7743411
            ],
            [
              -79.9146257,
              36.7923378
            ],
            [
              -79.3937021,
              36.692278
            ],
            [
              -79.2752385,
              36.6599653
            ],
            [
              -78.7725282,
              36.5629458
            ],
            [
              -78.666287,
              36.4786283
            ],
            [
              -78.3762479,
              36.2795699
            ],
            [
              -78.0251832,
              36.3328706
            ],
            [
              -77.7853208,
              36.5818467
            ],
            [
              -77.7365003,
              35.9400602
            ],
            [
              -77.7075238,
              35.5723798
            ],
            [
              -77.5518956,
              34.8501014
            ],
            [
              -77.3378853,
              34.5281176
            ]
          ]
        ]
      }
    },
    {
      "type": "Feature",
      "properties": {
        "slug": "angel-phase",
        "name": "Angel phase",
        "start_date": "1050",
        "end_date": "",
        "region_type": "nation",
        "source_system": "OHM",
        "osm_type": "relation",
        "osm_id": "2894351"
      },
      "geometry": {
        "type": "Polygon",
        "coordinates": [
          [
            [
              -86.9526686,
              37.8921966
            ],
            [
              -86.9650296,
              37.9398676
            ],
            [
              -86.949922,
              37.9885878
            ],
            [
              -86.8991116,
              38.0264609
            ],
            [
              -86.9032301,
              38.1086287
            ],
            [
              -86.9512967,
              38.1885477
            ],
            [
              -87.212222,
              38.207974
            ],
            [
              -87.5967421,
              38.1745134
            ],
            [
              -87.7505521,
              38.1496797
            ],
            [
              -87.804109,
              38.1140314
            ],
            [
              -87.8830726,
              37.92091
            ],
            [
              -87.8816993,
              37.8748539
            ],
            [
              -87.8659064,
              37.8325653
            ],
            [
              -87.8370673,
              37.8135818
            ],
            [
              -87.7265174,
              37.7967637
            ],
            [
              -87.6715858,
              37.7522588
            ],
            [
              -87.6214613,
              37.7392284
            ],
            [
              -87.554856,
              37.7593162
            ],
            [
              -87.5129713,
              37.8000197
            ],
            [
              -87.4697127,
              37.8298542
            ],
            [
              -87.4024214,
              37.8379888
            ],
            [
              -87.2781386,
              37.7696303
            ],
            [
              -87.1019,
              37.7265378
            ],
            [
              -87.045708,
              37.7384131
            ],
            [
              -86.9526686,
              37.8921966
            ]
          ]
        ]
      }
    },
    {
      "type": "Feature",
      "properties": {
        "slug": "itza-kingdom",
        "name": "Itza Kingdom",
        "start_date": "1194",
        "end_date": "1697-03-13",
        "region_type": "kingdom",
        "source_system": "OHM",
        "osm_type": "relation",
        "osm_id": "2841357"
      },
      "geometry": {
        "type": "Polygon",
        "coordinates": [
          [
            [
              -89.9107375,
              16.0128173
            ],
            [
              -89.8818983,
              16.0418554
            ],
            [
              -89.8571791,
              16.0629713
            ],
            [
              -89.8008742,
              16.0801263
            ],
            [
              -89.7500624,
              16.0788068
            ],
            [
              -89.6978773,
              16.0722088
            ],
            [
              -89.6099867,
              16.092002
            ],
            [
              -89.5509352,
              16.0814459
            ],
            [
              -89.50287,
              16.0603319
            ],
            [
              -89.4396986,
              16.0286568
            ],
            [
              -89.3930067,
              16.0194172
            ],
            [
              -89.2845168,
              16.0101773
            ],
            [
              -89.1828932,
              16.0273369
            ],
            [
              -89.0895094,
              16.0774872
            ],
            [
              -88.9054884,
              16.2133572
            ],
            [
              -88.8313307,
              16.3306841
            ],
            [
              -88.7846388,
              16.4123759
            ],
            [
              -88.7008681,
              16.5124675
            ],
            [
              -88.6267104,
              16.6098752
            ],
            [
              -88.5704054,
              16.6782944
            ],
            [
              -88.5113539,
              16.7335382
            ],
            [
              -88.4464659,
              16.8411846
            ],
            [
              -88.4619142,
              16.8461124
            ],
            [
              -88.4704973,
              16.8505483
            ],
            [
              -88.4751322,
              16.8556412
            ],
            [
              -88.4768488,
              16.8608983
            ],
            [
              -88.4799387,
              16.8643482
            ],
            [
              -88.4878351,
              16.865991
            ],
            [
              -88.4984781,
              16.864184
            ],
            [
              -88.5082628,
              16.8597484
            ],
            [
              -88.5197641,
              16.8595841
            ],
            [
              -88.5222531,
              16.8575304
            ],
            [
              -88.5230256,
              16.8639375
            ],
            [
              -88.5250855,
              16.8673051
            ],
            [
              -88.5321237,
              16.8707549
            ],
            [
              -88.5381318,
              16.8706728
            ],
            [
              -88.5437966,
              16.8700978
            ],
            [
              -88.5526372,
              16.8680444
            ],
            [
              -88.5611344,
              16.8679623
            ],
            [
              -88.5771848,
              16.8692765
            ],
            [
              -88.5804463,
              16.8717406
            ],
            [
              -88.5837079,
              16.8765044
            ],
            [
              -88.5893727,
              16.8817609
            ],
            [
              -88.6017323,
              16.8822537
            ],
            [
              -88.6188985,
              16.8834035
            ],
            [
              -88.6316014,
              16.8835678
            ],
            [
              -88.6756326,
              16.9036068
            ],
            [
              -88.7046434,
              16.9216729
            ],
            [
              -88.727461,
              16.9340641
            ],
            [
              -88.7427522,
              16.9353034
            ],
            [
              -88.7726213,
              16.9343181
            ],
            [
              -88.8151933,
              16.9229867
            ],
            [
              -88.848324,
              16.9159248
            ],
            [
              -88.8593103,
              16.910505
            ],
            [
              -88.8763048,
              16.8962157
            ],
            [
              -88.8941576,
              16.8791328
            ],
            [
              -88.9044573,
              16.8638554
            ],
            [
              -88.9152719,
              16.8521912
            ],
            [
              -88.9236833,
              16.8482482
            ],
            [
              -88.9755256,
              16.8472629
            ],
            [
              -89.0325172,
              16.8538346
            ],
            [
              -89.0847022,
              16.8682914
            ],
            [
              -89.1348273,
              16.8893175
            ],
            [
              -89.1822059,
              16.9267644
            ],
            [
              -89.1904476,
              16.9602652
            ],
            [
              -89.5433835,
              16.9819377
            ],
            [
              -89.6281818,
              16.9710995
            ],
            [
              -89.6436313,
              16.9717562
            ],
            [
              -89.6563343,
              16.9793086
            ],
            [
              -89.6755603,
              16.9829205
            ],
            [
              -89.6916965,
              16.9812787
            ],
            [
              -89.728432,
              16.9832489
            ],
            [
              -89.7466282,
              16.9914574
            ],
            [
              -89.7764972,
              16.9967107
            ],
            [
              -89.8032764,
              16.9970391
            ],
            [
              -89.8307422,
              16.9967107
            ],
            [
              -89.8547748,
              16.9927708
            ],
            [
              -89.8667911,
              16.986204
            ],
            [
              -89.8818973,
              16.9704428
            ],
            [
              -89.8997501,
              16.9550086
            ],
            [
              -89.9179462,
              16.9543518
            ],
            [
              -89.9804309,
              16.9691293
            ],
            [
              -90.0466922,
              16.9940841
            ],
            [
              -90.0978473,
              17.0036055
            ],
            [
              -90.1249219,
              17.0044192
            ],
            [
              -90.163423,
              17.0055763
            ],
            [
              -90.2003933,
              17.0008624
            ],
            [
              -90.2458205,
              16.9950701
            ],
            [
              -90.3089919,
              16.9582935
            ],
            [
              -90.357057,
              16.8991733
            ],
            [
              -90.3735365,
              16.8558067
            ],
            [
              -90.3927626,
              16.7164406
            ],
            [
              -90.3625502,
              16.4821821
            ],
            [
              -90.2897658,
              16.2832345
            ],
            [
              -90.1387038,
              16.1051964
            ],
            [
              -90.0260939,
              16.0656106
            ],
            [
              -89.9107375,
              16.0128173
            ]
          ]
        ]
      }
    }
  ]
}