{
  "type": "FeatureCollection",
  "features": [
    {
      "type": "Feature",
      "properties": { "id": "europe_west", "name": "Western Europe" },
      "geometry": {
        "type": "Polygon",
        "coordinates": [[
          [-10, 35], [22, 35], [22, 58], [-10, 58], [-10, 35]
        ]]
      }
    },
    {
      "type": "Feature",
      "properties": { "id": "europe_east", "name": "Eastern Europe & Balkans" },
      "geometry": {
        "type": "Polygon",
        "coordinates": [[
          [14, 38], [42, 38], [42, 62], [14, 62], [14, 38]
        ]]
      }
    },
    {
      "type": "Feature",
      "properties": { "id": "middle_east", "name": "Middle East & Anatolia" },
      "geometry": {
        "type": "Polygon",
        "coordinates": [[
          [25, 22], [62, 22], [62, 42], [25, 42], [25, 22]
        ]]
      }
    },
    {
      "type": "Feature",
      "properties": { "id": "central_asia", "name": "Central Asia & Steppe" },
      "geometry": {
        "type": "Polygon",
        "coordinates": [[
          [45, 36], [92, 36], [92, 58], [45, 58], [45, 36]
        ]]
      }
    },
    {
      "type": "Feature",
      "properties": { "id": "east_asia", "name": "East Asia" },
      "geometry": {
        "type": "Polygon",
        "coordinates": [[
          [95, 10], [146, 10], [146, 46], [95, 46], [95, 10]
        ]]
      }
    },
    {
      "type": "Feature",
      "properties": { "id": "south_asia", "name": "South Asia" },
      "geometry": {
        "type": "Polygon",
        "coordinates": [[
          [60, 6], [92, 6], [92, 36], [60, 36], [60, 6]
        ]]
      }
    },
    {
      "type": "Feature",
      "properties": { "id": "africa_west", "name": "West Africa" },
      "geometry": {
        "type": "Polygon",
        "coordinates": [[
          [-18, -5], [16, -5], [16, 24], [-18, 24], [-18, -5]
        ]]
      }
    },
    {
      "type": "Feature",
      "properties": { "id": "africa_east", "name": "East & Central Africa" },
      "geometry": {
        "type": "Polygon",
        "coordinates": [[
          [24, -26], [54, -26], [54, 20], [24, 20], [24, -26]
        ]]
      }
    },
    {
      "type": "Feature",
      "properties": { "id": "americas", "name": "The Americas" },
      "geometry": {
        "type": "Polygon",
        "coordinates": [[
          [-122, -56], [-58, -56], [-58, 26], [-122, 26], [-122, -56]
        ]]
      }
    }
  ]
}