{
  "type": "FeatureCollection",
  "features": [
    {
      "type": "Feature",
      "properties": {
        "slug": "kanem-bornu-empire",
        "name": "Kanem–Bornu Empire",
        "start_date": "0700",
        "end_date": "1380",
        "region_type": "empire",
        "source_system": "OHM",
        "osm_type": "relation",
        "osm_id": "2809431"
      },
      "geometry": {
        "type": "Polygon",
        "coordinates": [
          [
            [
              17.4902234,
              9.0695621
            ],
            [
              15.7763232,
              6.053205
            ],
            [
              12.7001514,
              6.3153422
            ],
            [
              11.6454639,
              8.9285305
            ],
            [
              11.2060107,
              10.6174613
            ],
            [
              10.3271045,
              11.9103966
            ],
            [
              11.3378467,
              13.2827617
            ],
            [
              12.8319873,
              14.008739
            ],
            [
              13.8427295,
              16.0458557
            ],
            [
              14.6776904,
              17.602181
            ],
            [
              15.0292529,
              21.0435322
            ],
            [
              14.897417,
              24.5271748
            ],
            [
              16.303667,
              25.2447357
            ],
            [
              18.7646045,
              25.1652131
            ],
            [
              20.1708545,
              23.2010012
            ],
            [
              20.4345264,
              20.1385116
            ],
            [
              21.3134326,
              16.636234
            ],
            [
              21.7528857,
              14.4347228
            ],
            [
              21.6210498,
              11.7813683
            ],
            [
              19.6435107,
              10.2284805
            ],
            [
              17.4902234,
              9.0695621
            ]
          ]
        ]
      }
    }
  ]
}