{
  "type": "FeatureCollection",
  "features": [
    {
      "type": "Feature",
      "properties": {
        "slug": "madagascar-kingdoms",
        "name": "Madagascar",
        "start_year": 600,
        "end_year": 1896,
        "region_type": "confederation",
        "continental_zone": "Africa",
        "source": "historical-basemaps"
      },
      "geometry": {
        "type": "MultiPolygon",
        "coordinates": [
          [
            [
              [
                44.672198328478586,
                -16.23558083895979
              ],
              [
                44.91735366295124,
                -16.203270353119947
              ],
              [
                45.196936640246165,
                -16.0374263894969
              ],
              [
                45.277781519396555,
                -16.049967206757643
              ],
              [
                45.43354705284382,
                -16.094116605561354
              ],
              [
                45.55457213829304,
                -16.055725492280104
              ],
              [
                45.73227218101765,
                -15.890102781098463
              ],
              [
                46.142283472521555,
                -15.825677312653639
              ],
              [
                46.281939539416086,
                -15.952485479157545
              ],
              [
                46.41920379112507,
                -15.939479268830397
              ],
              [
                46.46436217735554,
                -15.85676518801985
              ],
              [
                46.387549433214915,
                -15.691685117524244
              ],
              [
                46.734419855578196,
                -15.44942704562483
              ],
              [
                46.92456725548054,
                -15.360046781342604
              ],
              [
                47.06952575157429,
                -15.461425222199537
              ],
              [
                47.24464324425007,
                -15.365706838410475
              ],
              [
                47.10612777183796,
                -15.143568433564283
              ],
              [
                47.19930556724812,
                -15.016262449067213
              ],
              [
                47.426272425158274,
                -14.825099386017897
              ],
              [
                47.52952102134968,
                -14.958347715180494
              ],
              [
                47.63286879966999,
                -14.983552373688795
              ],
              [
                47.88371947716023,
                -14.716083921235182
              ],
              [
                47.81254867027546,
                -14.627255834382154
              ],
              [
                47.698958429796946,
                -14.443191922944166
              ],
              [
                47.74116424034382,
                -14.309638418000318
              ],
              [
                47.85039046715046,
                -14.31576005343733
              ],
              [
                47.97167113731648,
                -14.283718503754713
              ],
              [
                48.04899123619343,
                -14.13103047732649
              ],
              [
                47.915545496447336,
                -13.737275518220045
              ],
              [
                47.94245818565632,
                -13.584690488617994
              ],
              [
                48.05726531456257,
                -13.565369046967604
              ],
              [
                48.10995009849812,
                -13.597038663666822
              ],
              [
                48.22359755943562,
                -13.79381410006819
              ],
              [
                48.349612268908274,
                -13.838030256074049
              ],
              [
                48.43965056846882,
                -13.653529561799147
              ],
              [
                48.75133803795124,
                -13.417710698884108
              ],
              [
                48.85723784874226,
                -13.252239621918775
              ],
              [
                48.917464289171946,
                -13.04874173526106
              ],
              [
                48.993289026720774,
                -12.737159169953443
              ],
              [
                48.93341735313679,
                -12.578401960175611
              ],
              [
                48.934832605822336,
                -12.47670976046858
              ],
              [
                49.176333460314524,
                -12.266468442719557
              ],
              [
                49.33660033653523,
                -12.412291921418287
              ],
              [
                49.541750940783274,
                -12.70419827822981
              ],
              [
                49.81718734215046,
                -12.83071366671858
              ],
              [
                49.880469355089915,
                -12.919562734406568
              ],
              [
                49.97618773887898,
                -13.300679601471998
              ],
              [
                50.10845092247273,
                -14.120246328156568
              ],
              [
                50.15020278404499,
                -14.418864644806959
              ],
              [
                50.25442031334187,
                -14.774549878876783
              ],
              [
                50.43014815758015,
                -15.104658521454908
              ],
              [
                50.503340754015696,
                -15.314229406159498
              ],
              [
                50.486304316027415,
                -15.47952023867903
              ],
              [
                50.455096277697336,
                -15.549497045319654
              ],
              [
                50.42932799766804,
                -15.594039357941725
              ],
              [
                50.18732360313679,
                -15.956830419343092
              ],
              [
                50.0885229439571,
                -15.899843610566236
              ],
              [
                50.003558191759836,
                -15.734774030488111
              ],
              [
                49.753760370714915,
                -15.398466504853346
              ],
              [
                49.620284113390696,
                -15.462312139313795
              ],
              [
                49.59773925255085,
                -15.653023160737135
              ],
              [
                49.684981379015696,
                -16.046881116669752
              ],
              [
                49.862750086291086,
                -16.281658567231275
              ],
              [
                49.898238214953196,
                -16.4595455301219
              ],
              [
                49.76034072349812,
                -16.745846189301588
              ],
              [
                49.42470839927937,
                -17.197809613984205
              ],
              [
                49.404639276964915,
                -17.40122834567366
              ],
              [
                49.42284301231648,
                -17.80159989718733
              ],
              [
                49.34185317466999,
                -18.227621473115065
              ],
              [
                49.02305892418171,
                -19.18165246371565
              ],
              [
                48.651656183703196,
                -20.33920518283186
              ],
              [
                48.087378534777415,
                -22.04376069430647
              ],
              [
                47.491595301134836,
                -24.059830106537916
              ],
              [
                47.25847915123249,
                -24.765831388276197
              ],
              [
                47.173811945421946,
                -24.88041535739241
              ],
              [
                46.94546416710163,
                -25.16691628817854
              ],
              [
                46.855059656603586,
                -25.217951215546705
              ],
              [
                46.23910048912312,
                -25.263739026826002
              ],
              [
                45.78949645469929,
                -25.410877622407057
              ],
              [
                45.576182398302805,
                -25.62107697848616
              ],
              [
                45.21050551841999,
                -25.6599849832469
              ],
              [
                45.04681304405476,
                -25.45058099154768
              ],
              [
                44.9585180611446,
                -25.387203611176588
              ],
              [
                44.71300033043171,
                -25.305088437836744
              ],
              [
                44.54635146568562,
                -25.337219632905104
              ],
              [
                44.425330194933665,
                -25.31205026034651
              ],
              [
                44.036761316759836,
                -24.988716520112135
              ],
              [
                43.989756617052805,
                -24.88077012423811
              ],
              [
                43.980994257433665,
                -24.62655679110823
              ],
              [
                43.93416503380085,
                -24.518610395234205
              ],
              [
                43.727191004259836,
                -24.353788770478346
              ],
              [
                43.67141250084187,
                -24.226787961762525
              ],
              [
                43.67171386192585,
                -23.902649320405104
              ],
              [
                43.82707503746296,
                -23.412924207490065
              ],
              [
                43.78472808311726,
                -23.266834653657057
              ],
              [
                43.65536788414265,
                -23.051014341157057
              ],
              [
                43.3763647408321,
                -22.63212624911604
              ],
              [
                43.291262659533274,
                -22.409847654145338
              ],
              [
                43.32482818077351,
                -22.11106721286116
              ],
              [
                43.50102523277546,
                -21.49418679599104
              ],
              [
                43.60321715782429,
                -21.398634351533033
              ],
              [
                43.81647399376179,
                -21.31555596713362
              ],
              [
                44.16165069053913,
                -20.698309339326002
              ],
              [
                44.47033599327351,
                -20.17013780001936
              ],
              [
                44.51709655235554,
                -20.023853696625807
              ],
              [
                44.58538726280476,
                -19.527967847626783
              ],
              [
                44.53573897789265,
                -19.36917344455061
              ],
              [
                44.410498651964915,
                -19.26775971774397
              ],
              [
                44.2510099739864,
                -19.102844632905104
              ],
              [
                44.280928644640696,
                -19.020157254975416
              ],
              [
                44.39421752403523,
                -18.79112283114729
              ],
              [
                44.159529718859446,
                -18.40391389254866
              ],
              [
                44.10704329918171,
                -18.09896890048323
              ],
              [
                44.07575896690632,
                -17.876581586640455
              ],
              [
                43.97164824913288,
                -17.552675641816236
              ],
              [
                43.98251632164265,
                -17.50180856112776
              ],
              [
                44.215003046496165,
                -17.189880765717604
              ],
              [
                44.37802031944538,
                -16.92261163119612
              ],
              [
                44.4514494271114,
                -16.725416578095533
              ],
              [
                44.45442870567585,
                -16.242399610322096
              ],
              [
                44.672198328478586,
                -16.23558083895979
              ]
            ],
            [
              [
                48.01471769860454,
                -17.022773083630007
              ],
              [
                47.482068280276465,
                -16.904406546223765
              ],
              [
                46.653502518432745,
                -17.732972308067463
              ],
              [
                45.29228733826095,
                -22.64518361042655
              ],
              [
                45.52902041307344,
                -23.592115909676497
              ],
              [
                46.00248656269842,
                -23.592115909676497
              ],
              [
                47.18615193676085,
                -23.11864976005152
              ],
              [
                48.488183848229525,
                -20.041119787489205
              ],
              [
                48.488183848229525,
                -19.44928710045799
              ],
              [
                48.01471769860454,
                -17.022773083630007
              ]
            ]
          ]
        ]
      }
    },
    {
      "type": "Feature",
      "properties": {
        "slug": "great-zimbabwe",
        "name": "Great Zimbabwe",
        "start_year": 1100,
        "end_year": 1450,
        "region_type": "kingdom",
        "continental_zone": "Africa",
        "source": "historical-basemaps"
      },
      "geometry": {
        "type": "MultiPolygon",
        "coordinates": [
          [
            [
              [
                33.39528638537139,
                -20.02211158283374
              ],
              [
                33.39528638537139,
                -20.761010594130624
              ],
              [
                32.86601850002798,
                -21.995968993265286
              ],
              [
                31.101792215549878,
                -23.054504763952146
              ],
              [
                29.33756593107178,
                -23.054504763952146
              ],
              [
                28.455452788832716,
                -22.525236878608716
              ],
              [
                28.27903016038492,
                -21.46670110792186
              ],
              [
                28.63187541728054,
                -19.87889745189157
              ],
              [
                29.6904111879674,
                -18.820361681204712
              ],
              [
                31.278214843997674,
                -18.643939052756906
              ],
              [
                32.68959587158015,
                -18.643939052756906
              ],
              [
                33.39528638537139,
                -19.173206938100336
              ],
              [
                33.39528638537139,
                -20.02211158283374
              ]
            ]
          ]
        ]
      }
    },
    {
      "type": "Feature",
      "properties": {
        "slug": "swahili-city-states",
        "name": "Islamic city-states",
        "start_year": 900,
        "end_year": 1500,
        "region_type": "city-state",
        "continental_zone": "Africa",
        "source": "historical-basemaps"
      },
      "geometry": {
        "type": "MultiPolygon",
        "coordinates": [
          [
            [
              [
                42.941233667834055,
                0.010588750500105
              ],
              [
                42.91478255699421,
                -0.016971982758619
              ],
              [
                42.440066370470774,
                -0.511580146592237
              ],
              [
                41.88418487022663,
                -1.21815697078047
              ],
              [
                41.6073217720821,
                -1.593676365655043
              ],
              [
                41.65220168541218,
                -1.752453006547071
              ],
              [
                41.60989287803913,
                -1.876740492623426
              ],
              [
                41.33932403038288,
                -2.051799453538038
              ],
              [
                41.088606867296946,
                -2.128604806702711
              ],
              [
                40.91536620567585,
                -2.078140176575758
              ],
              [
                40.8768644661739,
                -2.427730954926588
              ],
              [
                40.74980834434773,
                -2.593229211609938
              ],
              [
                40.448504480822336,
                -2.6447261941844
              ],
              [
                40.27134231041218,
                -2.816691077988722
              ],
              [
                40.23169616173054,
                -3.032834209244825
              ],
              [
                40.23441604088093,
                -3.191706575196363
              ],
              [
                40.07403090904499,
                -3.471666492264845
              ],
              [
                39.64013198326374,
                -4.08267203692732
              ],
              [
                39.681399378283274,
                -4.324065603058912
              ],
              [
                39.52981093834187,
                -4.61671916369734
              ],
              [
                39.417368921740305,
                -4.731353200715162
              ],
              [
                39.26727202842976,
                -4.776162542145826
              ],
              [
                39.22912124107624,
                -4.844893850129225
              ],
              [
                39.1224699349239,
                -5.03702060107527
              ],
              [
                38.93381026695515,
                -5.634787000458815
              ],
              [
                38.87236693809773,
                -6.092471040528395
              ],
              [
                38.921526941759836,
                -6.340208925049879
              ],
              [
                39.22087768028523,
                -6.784406579774
              ],
              [
                39.5664282173946,
                -7.044216073792555
              ],
              [
                39.55541900108601,
                -7.171341337006666
              ],
              [
                39.437205347521555,
                -7.330470002930738
              ],
              [
                39.270125421984446,
                -7.801093496125318
              ],
              [
                39.28673461387898,
                -7.877326406281568
              ],
              [
                39.424300226671946,
                -7.896092332642652
              ],
              [
                39.47772887657429,
                -7.997649110596754
              ],
              [
                39.40043166588093,
                -8.309211171906568
              ],
              [
                39.391829523546946,
                -8.735015310090162
              ],
              [
                39.57677367637898,
                -9.541707433503248
              ],
              [
                39.6576147408321,
                -9.795738614838697
              ],
              [
                39.83821776817585,
                -10.00506440524397
              ],
              [
                40.208785089953196,
                -10.252111829560377
              ],
              [
                40.38686660240437,
                -10.37247506503401
              ],
              [
                40.46619323204304,
                -10.47525540713606
              ],
              [
                40.52401259849812,
                -10.550122655671217
              ],
              [
                40.619517359240305,
                -10.76598969821272
              ],
              [
                40.5364103646114,
                -11.02673474673567
              ],
              [
                40.40044310997273,
                -11.230388082306959
              ],
              [
                39.24819753258153,
                -11.144871908746616
              ],
              [
                38.23752179298391,
                -9.291966386150964
              ],
              [
                37.732183923185076,
                -4.575479601362019
              ],
              [
                39.41664348918111,
                -1.375006425969531
              ],
              [
                44.281409389217814,
                3.357797510020823
              ],
              [
                46.449290647584505,
                4.080424596143054
              ],
              [
                47.63646532348032,
                4.096041917326509
              ],
              [
                47.55637649009968,
                3.992555223662279
              ],
              [
                47.38398650596882,
                3.794777952391527
              ],
              [
                46.36050322960163,
                2.667831026274584
              ],
              [
                46.22544175888997,
                2.552302650726347
              ],
              [
                45.541262659533274,
                1.967072092253588
              ],
              [
                44.56746962974812,
                1.462954007346056
              ],
              [
                44.300696405871165,
                1.290809475142382
              ],
              [
                43.724307093127024,
                0.800251446921251
              ],
              [
                43.09933541455361,
                0.170020864515159
              ],
              [
                42.941233667834055,
                0.010588750500105
              ]
            ]
          ]
        ]
      }
    },
    {
      "type": "Feature",
      "properties": {
        "slug": "fatimid-caliphate",
        "name": "Fatimid Caliphate",
        "start_year": 909,
        "end_year": 1171,
        "region_type": "empire",
        "continental_zone": "Africa",
        "source": "historical-basemaps"
      },
      "geometry": {
        "type": "MultiPolygon",
        "coordinates": [
          [
            [
              [
                2.453117778055356,
                32.6686768239575
              ],
              [
                2.453117778055358,
                32.668676823957504
              ],
              [
                1.440658443488291,
                32.60715939039891
              ],
              [
                0.457803183031373,
                32.54744071220753
              ],
              [
                0.87056254793761,
                33.07391500413463
              ],
              [
                1.237401925164406,
                35.886350229540184
              ],
              [
                1.579693111880076,
                36.51388891812029
              ],
              [
                2.29377416084553,
                36.540824495512865
              ],
              [
                2.524363550646555,
                36.57315024014177
              ],
              [
                2.809869083864939,
                36.71390112515154
              ],
              [
                3.070006403429758,
                36.61885794277849
              ],
              [
                3.32383778999592,
                36.65123327847185
              ],
              [
                3.586873087389719,
                36.79195364590349
              ],
              [
                3.741224560244333,
                36.83686789150896
              ],
              [
                4.163919004900706,
                36.831351839262865
              ],
              [
                4.394624266131174,
                36.83819159146013
              ],
              [
                4.532551798327219,
                36.81298407192888
              ],
              [
                4.632117304308665,
                36.794066988188646
              ],
              [
                4.777191671831858,
                36.74338492031755
              ],
              [
                5.144465002520334,
                36.66767843838396
              ],
              [
                5.382732424242747,
                36.67453344937029
              ],
              [
                5.7301621765926,
                36.75170477505388
              ],
              [
                6.04739383171345,
                36.84155615444841
              ],
              [
                6.322870287401926,
                37.09064825649919
              ],
              [
                6.770537409289133,
                36.862147890288256
              ],
              [
                6.923042807085764,
                36.81784018154802
              ],
              [
                7.063241037829172,
                36.881854616362475
              ],
              [
                7.204853090746653,
                36.99046667690935
              ],
              [
                7.306981119616282,
                37.060782991606615
              ],
              [
                7.544922861559641,
                37.04214438076677
              ],
              [
                7.71904328773762,
                36.95327719326677
              ],
              [
                7.792040857775461,
                36.83235891934099
              ],
              [
                7.91317466209675,
                36.77524908657732
              ],
              [
                8.145014795763743,
                36.813949190337084
              ],
              [
                8.63670924614216,
                36.88525732632341
              ],
              [
                8.865518602831614,
                36.96835287686052
              ],
              [
                9.150280031664622,
                37.17287405605974
              ],
              [
                9.416118654711497,
                37.27537878628435
              ],
              [
                9.732199701769602,
                37.2823978292531
              ],
              [
                10.021354708178293,
                37.200133882719896
              ],
              [
                10.13273433159138,
                37.10474737759294
              ],
              [
                10.158871683581125,
                36.99647482510271
              ],
              [
                10.271508249743235,
                36.7545543539113
              ],
              [
                10.392797502978098,
                36.716571413237475
              ],
              [
                10.580582651598704,
                36.793422304350756
              ],
              [
                10.843251261217844,
                36.99148901577654
              ],
              [
                11.02375701378132,
                37.068324648100756
              ],
              [
                11.039403948290598,
                36.90904577847185
              ],
              [
                10.920062098009836,
                36.65393789883318
              ],
              [
                10.633412394030344,
                36.42401465054216
              ],
              [
                10.509244951708567,
                36.213553987700365
              ],
              [
                10.511460337145579,
                36.08616980190935
              ],
              [
                10.602607759936106,
                35.88894613857927
              ],
              [
                10.830826792223704,
                35.679278932768725
              ],
              [
                10.988951715929758,
                35.622298799712084
              ],
              [
                11.125108751757395,
                35.24060782070818
              ],
              [
                11.082800898058665,
                35.14503439541521
              ],
              [
                10.839357408983957,
                34.80115469570818
              ],
              [
                10.574025186999094,
                34.6481090414113
              ],
              [
                10.11642173240925,
                34.2341686117238
              ],
              [
                10.019480738146555,
                34.081473909575365
              ],
              [
                10.148656877978098,
                33.87839850063982
              ],
              [
                10.412600550158274,
                33.63112600918474
              ],
              [
                10.650217089159739,
                33.49818380947771
              ],
              [
                10.778140100939524,
                33.47303351040544
              ],
              [
                10.956539186938059,
                33.575057588774584
              ],
              [
                11.099118265612375,
                33.53722723599138
              ],
              [
                11.208920511706125,
                33.25152166958513
              ],
              [
                11.470686945421946,
                33.1440921651906
              ],
              [
                12.117019686205637,
                32.87850149746599
              ],
              [
                12.564756426317942,
                32.73963888760271
              ],
              [
                12.798863443835032,
                32.73376806851091
              ],
              [
                13.187125238878977,
                32.79175909634294
              ],
              [
                13.458779367907297,
                32.77960928555193
              ],
              [
                14.15702346275593,
                32.67937811489763
              ],
              [
                14.43342784355427,
                32.46390875454607
              ],
              [
                14.790810617907297,
                32.362994753081225
              ],
              [
                15.009786638720286,
                32.3634410726613
              ],
              [
                15.163704905016672,
                32.274806581694506
              ],
              [
                15.24143508384968,
                32.17330130215349
              ],
              [
                15.358129534228098,
                31.80502279873552
              ],
              [
                15.533408197863352,
                31.551215730864428
              ],
              [
                15.843325647814524,
                31.28500326748552
              ],
              [
                16.013379129870188,
                31.228170000273607
              ],
              [
                16.3183870644405,
                31.165261827666185
              ],
              [
                16.78251937340046,
                31.128097139555834
              ],
              [
                16.983780893786204,
                31.09674223538103
              ],
              [
                17.42162993858601,
                30.99598654385271
              ],
              [
                17.708979639513743,
                30.894923769194506
              ],
              [
                17.957158121569407,
                30.768363558012865
              ],
              [
                18.537213358385813,
                30.4137454855031
              ],
              [
                18.885434168210352,
                30.2212213910137
              ],
              [
                18.91502669761921,
                30.204860292632006
              ],
              [
                19.1245394081905,
                30.19894369717302
              ],
              [
                19.318795867027987,
                30.255372139440908
              ],
              [
                19.32281592796589,
                30.25653990383806
              ],
              [
                19.66391471336628,
                30.441501222807787
              ],
              [
                19.981537851794016,
                30.721730791289232
              ],
              [
                20.116768869860422,
                30.957103334624193
              ],
              [
                20.11667922447468,
                31.07146795864763
              ],
              [
                19.992096933825266,
                31.350774370390795
              ],
              [
                19.94158271263386,
                31.611169420439623
              ],
              [
                19.961470636828196,
                31.795470796782396
              ],
              [
                20.068364176256907,
                32.037135683257006
              ],
              [
                20.36572173546101,
                32.29824026699724
              ],
              [
                20.515524897082102,
                32.387511812407396
              ],
              [
                20.765051874621165,
                32.496032320219896
              ],
              [
                21.05449775169636,
                32.630050264555834
              ],
              [
                21.673419031603586,
                32.8155895101613
              ],
              [
                22.21598914573933,
                32.79128988857927
              ],
              [
                22.54312613914753,
                32.722072206694506
              ],
              [
                22.922846827013743,
                32.55765875454607
              ],
              [
                23.007332834704172,
                32.48158987637224
              ],
              [
                23.026656183703196,
                32.25291021938982
              ],
              [
                23.153338465197336,
                32.138812624174975
              ],
              [
                23.28863624046589,
                32.13273199673357
              ],
              [
                23.714034113390696,
                32.07642325039568
              ],
              [
                23.74241927152663,
                32.064098049233976
              ],
              [
                24.03440383384968,
                31.937314592558764
              ],
              [
                24.236922296984446,
                31.92502363796892
              ],
              [
                24.81585792015339,
                31.9071536886281
              ],
              [
                24.95152572105671,
                31.818492494780443
              ],
              [
                24.98223784874226,
                31.647012315947435
              ],
              [
                25.10655311058308,
                31.513841234404467
              ],
              [
                25.258229288561594,
                31.437919222075365
              ],
              [
                25.50715545128132,
                31.444781862456225
              ],
              [
                25.789500269396555,
                31.489841066557787
              ],
              [
                26.143334421618235,
                31.490577303130053
              ],
              [
                26.82399466942097,
                31.358560167509935
              ],
              [
                27.088095697863352,
                31.306726061064623
              ],
              [
                27.4387541146114,
                31.251824938017748
              ],
              [
                27.763331446154368,
                31.182614885527514
              ],
              [
                27.919449839098704,
                30.99868544216814
              ],
              [
                28.099829706652415,
                30.999057375151537
              ],
              [
                28.517182383044016,
                30.961799226958178
              ],
              [
                28.966422113878977,
                30.784841142851732
              ],
              [
                29.24884704063679,
                30.753661714751146
              ],
              [
                29.35938170860554,
                30.81107100125017
              ],
              [
                29.683102640612375,
                31.05317076321306
              ],
              [
                30.099139246447336,
                31.231925569731615
              ],
              [
                30.476056131823313,
                31.31528814907732
              ],
              [
                30.8270597786739,
                31.43673666592302
              ],
              [
                30.995955500109446,
                31.468850694853685
              ],
              [
                31.15138152550007,
                31.443749986845873
              ],
              [
                31.392270121081125,
                31.444261156279467
              ],
              [
                31.717415842516672,
                31.38775213833513
              ],
              [
                31.808123621447336,
                31.178281389433764
              ],
              [
                32.07651046226765,
                31.013650499541185
              ],
              [
                32.30937865684773,
                31.084018312651537
              ],
              [
                32.59724334190632,
                30.963901125151537
              ],
              [
                32.76873305748249,
                30.95155295010271
              ],
              [
                33.02139190147663,
                31.132072054106615
              ],
              [
                33.12956527183796,
                31.051686845976732
              ],
              [
                33.25459960411335,
                31.026528917509935
              ],
              [
                33.557601007921946,
                30.967715822417162
              ],
              [
                33.70960906456257,
                30.99570997830095
              ],
              [
                33.916968378527415,
                31.070052705962084
              ],
              [
                34.146304163439524,
                31.20857962246599
              ],
              [
                34.19527724693562,
                31.23814161892595
              ],
              [
                34.50065902183796,
                31.621099077422045
              ],
              [
                34.59913543175007,
                31.817897402007006
              ],
              [
                34.681338343127024,
                32.045978151518725
              ],
              [
                34.758502039416086,
                32.300719820219896
              ],
              [
                34.84289077232624,
                32.670699678618334
              ],
              [
                34.894969019396555,
                32.662833772856615
              ],
              [
                34.956587824328196,
                32.704818330962084
              ],
              [
                34.959082636339915,
                32.796657167632006
              ],
              [
                34.97200683067585,
                32.938407503325365
              ],
              [
                35.088973078234446,
                33.069259248930834
              ],
              [
                35.13231185386921,
                33.23151739712419
              ],
              [
                35.20838836143757,
                33.33358725186052
              ],
              [
                35.356089624865305,
                33.63978155728044
              ],
              [
                35.34855941246296,
                33.74446829434099
              ],
              [
                35.42986586998249,
                33.74446829434099
              ],
              [
                35.49185088585163,
                33.83082541104021
              ],
              [
                35.52440169761921,
                33.9747691976613
              ],
              [
                35.532080683214915,
                34.118705354887865
              ],
              [
                35.7162084908321,
                34.312369905669115
              ],
              [
                35.82100585411335,
                34.343776308257006
              ],
              [
                35.873065027697336,
                34.422286592680834
              ],
              [
                35.85191634605671,
                34.492946230132006
              ],
              [
                36.8778450757669,
                35.391084422039796
              ],
              [
                37.026331897552225,
                35.74992757468766
              ],
              [
                38.37216217751843,
                35.140887776016086
              ],
              [
                38.03644933743952,
                34.597188473722184
              ],
              [
                37.211895121902344,
                33.56649570430072
              ],
              [
                36.52476660895469,
                31.161545908983946
              ],
              [
                36.59347946024947,
                29.78728888308865
              ],
              [
                37.36353573525129,
                27.957371649593455
              ],
              [
                37.42091198994014,
                27.834118954335942
              ],
              [
                39.07421328931933,
                25.50213950445042
              ],
              [
                40.179837049325,
                24.027974491109504
              ],
              [
                41.13804430799662,
                22.406392976434496
              ],
              [
                41.81245652795077,
                21.71258711091823
              ],
              [
                41.922550674907015,
                20.766511713616353
              ],
              [
                40.81975844810749,
                19.68472059841814
              ],
              [
                40.69382003258015,
                19.868707262236498
              ],
              [
                40.336348566515696,
                20.096686922270678
              ],
              [
                39.76407912681843,
                20.40679510708513
              ],
              [
                39.526900324328196,
                20.692212663847826
              ],
              [
                39.16673949669148,
                21.218801103789232
              ],
              [
                39.13041213463093,
                21.650762163359545
              ],
              [
                39.10333922813679,
                22.0001655447072
              ],
              [
                39.1021948189571,
                22.400445543486498
              ],
              [
                39.05560210655476,
                22.571889482695482
              ],
              [
                38.91509536216999,
                22.87021406765642
              ],
              [
                38.490122827990305,
                23.612683855254076
              ],
              [
                38.329417261584055,
                23.83471830959978
              ],
              [
                37.988421473009836,
                24.11356123562517
              ],
              [
                37.78184798668171,
                24.214786134917162
              ],
              [
                37.55722335289265,
                24.27148588772478
              ],
              [
                37.41881087730671,
                24.398265443999193
              ],
              [
                37.201453241808665,
                24.65831335659685
              ],
              [
                37.26854232261921,
                24.969781480986498
              ],
              [
                37.21826842735554,
                25.166631303984545
              ],
              [
                37.00525573204304,
                25.534686647612475
              ],
              [
                36.669295343859446,
                26.016835771757982
              ],
              [
                36.329762091157946,
                26.40276266471046
              ],
              [
                36.31222442100788,
                26.42269667263689
              ],
              [
                35.831072840197336,
                27.095153413969896
              ],
              [
                35.59481337974812,
                27.51398619290056
              ],
              [
                35.43649581383015,
                27.72965582485857
              ],
              [
                35.111590418322336,
                28.072061144072435
              ],
              [
                34.87561706016804,
                28.0969730245656
              ],
              [
                34.76388076256062,
                28.096747957426928
              ],
              [
                34.798899683459055,
                28.230243288237475
              ],
              [
                34.88559249351765,
                28.357480608183764
              ],
              [
                35.025679621203196,
                28.948632799345873
              ],
              [
                35.07210448692585,
                29.21136053677263
              ],
              [
                35.09547332237507,
                29.342677675444506
              ],
              [
                35.0733976692989,
                29.418868623930834
              ],
              [
                34.98467925499226,
                29.46721991177263
              ],
              [
                34.9542570442989,
                29.43680914517107
              ],
              [
                34.93554213951374,
                29.418094240385912
              ],
              [
                34.76433471153523,
                29.24668654080095
              ],
              [
                34.54894927452351,
                28.731626115996264
              ],
              [
                34.398840937121165,
                28.095985017973803
              ],
              [
                34.32201293419148,
                27.828979097563646
              ],
              [
                34.24119857261921,
                27.75892027493181
              ],
              [
                34.0580053658321,
                27.79031332607927
              ],
              [
                33.85604384849812,
                28.024955354887865
              ],
              [
                33.50405791710163,
                28.329183183867357
              ],
              [
                33.33074096153523,
                28.551192842680834
              ],
              [
                33.17847350548054,
                28.995608888823412
              ],
              [
                32.94378188560749,
                29.19842108364763
              ],
              [
                32.81360534141804,
                29.477700792509935
              ],
              [
                32.73727706383015,
                29.693547807890795
              ],
              [
                32.647959742052805,
                29.85220106716814
              ],
              [
                32.43838027427937,
                29.775519930083178
              ],
              [
                32.318491968615305,
                29.54019697781267
              ],
              [
                32.59057525108601,
                28.93719633694353
              ],
              [
                32.64934447716023,
                28.765781007964037
              ],
              [
                32.934676203234446,
                28.37882574673357
              ],
              [
                33.35421660850788,
                27.90954741116228
              ],
              [
                33.566939386828196,
                27.36995085354509
              ],
              [
                33.80406478355671,
                26.93206938381853
              ],
              [
                33.928809198839915,
                26.56382330532732
              ],
              [
                34.10422042320515,
                26.354524217802904
              ],
              [
                34.514842066271555,
                25.573916994292162
              ],
              [
                34.99740127037312,
                24.71719893093767
              ],
              [
                35.189864191515696,
                24.39991911526384
              ],
              [
                32.51417897995226,
                23.73314148844132
              ],
              [
                30.818889214610195,
                23.659433237774273
              ],
              [
                29.3447242012693,
                24.027974491109504
              ],
              [
                27.428309683926116,
                27.197429269792465
              ],
              [
                25.438186915915864,
                28.008220027129966
              ],
              [
                21.679066131896533,
                28.08192827779702
              ],
              [
                17.970530295354635,
                28.612404204143047
              ],
              [
                17.00195254530469,
                28.750951383364864
              ],
              [
                12.532702649483,
                30.804904526976536
              ],
              [
                7.892289991693659,
                32.592604485305216
              ],
              [
                6.502893292137671,
                32.73261356640472
              ],
              [
                5.681251390019597,
                32.81541016995587
              ],
              [
                2.453117778055358,
                32.6686768239575
              ],
              [
                2.453117778055356,
                32.6686768239575
              ]
            ]
          ]
        ]
      }
    },
    {
      "type": "Feature",
      "properties": {
        "slug": "kanem-empire",
        "name": "Kanem",
        "start_year": 700,
        "end_year": 1380,
        "region_type": "empire",
        "continental_zone": "Africa",
        "source": "historical-basemaps"
      },
      "geometry": {
        "type": "MultiPolygon",
        "coordinates": [
          [
            [
              [
                17.097154687995427,
                16.219046743184023
              ],
              [
                18.450511765438094,
                15.74139130408662
              ],
              [
                19.166994924084193,
                15.18412662513964
              ],
              [
                19.405822643632902,
                14.467643466493527
              ],
              [
                18.768948724836363,
                13.512332588298705
              ],
              [
                17.654419366942406,
                13.193895628900435
              ],
              [
                15.819260203866392,
                13.119153392386728
              ],
              [
                13.833175854163116,
                13.432723348449137
              ],
              [
                12.639037256419599,
                14.467643466493527
              ],
              [
                12.639037256419599,
                15.661782064237052
              ],
              [
                12.877864975968308,
                16.05982826348489
              ],
              [
                14.667427034122326,
                16.230053155654872
              ],
              [
                17.097154687995427,
                16.219046743184023
              ]
            ]
          ]
        ]
      }
    },
    {
      "type": "Feature",
      "properties": {
        "slug": "makuria",
        "name": "Makkura",
        "start_year": 550,
        "end_year": 1365,
        "region_type": "kingdom",
        "continental_zone": "Africa",
        "source": "historical-basemaps"
      },
      "geometry": {
        "type": "MultiPolygon",
        "coordinates": [
          [
            [
              [
                37.76123717735554,
                18.642554842192553
              ],
              [
                37.89511991723812,
                18.56012241001322
              ],
              [
                37.07907389023707,
                17.094748381529286
              ],
              [
                35.32767061354657,
                15.42295434468835
              ],
              [
                34.4519689752013,
                16.457874462732732
              ],
              [
                33.81509505640476,
                16.776311422131002
              ],
              [
                32.38212873911253,
                16.69670218228144
              ],
              [
                31.665645580466432,
                16.617092942431867
              ],
              [
                31.187990141369013,
                16.219046743184023
              ],
              [
                30.789943942121184,
                15.50256358453791
              ],
              [
                29.516196104528078,
                17.652013060476257
              ],
              [
                29.27736838497937,
                18.84615165821978
              ],
              [
                29.3447242012693,
                24.027974491109504
              ],
              [
                30.818889214610195,
                23.659433237774273
              ],
              [
                32.51417897995226,
                23.73314148844132
              ],
              [
                35.189864191515696,
                24.39991911526384
              ],
              [
                35.45345977257038,
                24.152688585478685
              ],
              [
                35.65656951378132,
                23.994273744780443
              ],
              [
                35.72469619224812,
                23.91181906338396
              ],
              [
                35.61630156944538,
                23.835347734648607
              ],
              [
                35.48792937706257,
                23.790595613676928
              ],
              [
                35.468489679796946,
                23.720668398100756
              ],
              [
                35.575850519640696,
                23.231660448271654
              ],
              [
                35.689288172228586,
                23.021319948393725
              ],
              [
                35.74630263756062,
                22.914340578276537
              ],
              [
                36.1113615364864,
                22.64825590725603
              ],
              [
                36.29022124717976,
                22.572381578642748
              ],
              [
                36.47324660728718,
                22.337684236723803
              ],
              [
                36.66042998741413,
                22.166537843901537
              ],
              [
                36.800112757189524,
                21.91489943142595
              ],
              [
                36.90349868248249,
                21.728648744780443
              ],
              [
                37.12776854942585,
                21.227176271635912
              ],
              [
                37.16502690169837,
                20.76426918196936
              ],
              [
                37.25457290123249,
                19.651727281767748
              ],
              [
                37.39818480919148,
                18.91500052090349
              ],
              [
                37.47998717735554,
                18.819871507841967
              ],
              [
                37.76123717735554,
                18.642554842192553
              ]
            ]
          ]
        ]
      }
    },
    {
      "type": "Feature",
      "properties": {
        "slug": "alodia",
        "name": "Alwa",
        "start_year": 550,
        "end_year": 1504,
        "region_type": "kingdom",
        "continental_zone": "Africa",
        "source": "historical-basemaps"
      },
      "geometry": {
        "type": "MultiPolygon",
        "coordinates": [
          [
            [
              [
                31.187990141369013,
                16.219046743184023
              ],
              [
                31.665645580466432,
                16.617092942431867
              ],
              [
                32.38212873911253,
                16.69670218228144
              ],
              [
                33.81509505640476,
                16.776311422131002
              ],
              [
                34.4519689752013,
                16.457874462732732
              ],
              [
                35.32767061354657,
                15.42295434468835
              ],
              [
                35.64610757294484,
                12.795849429652591
              ],
              [
                35.40727985339613,
                11.28327387251079
              ],
              [
                34.4519689752013,
                10.248353754466407
              ],
              [
                33.57626733685608,
                10.009526034917698
              ],
              [
                32.84695298113419,
                10.104653994359682
              ],
              [
                31.745254820315992,
                10.248353754466407
              ],
              [
                31.267599381218602,
                10.646399953714244
              ],
              [
                30.789943942121184,
                11.203664632661223
              ],
              [
                30.78671404375713,
                11.227081395800525
              ],
              [
                30.471506982722886,
                13.512332588298705
              ],
              [
                30.471506982722886,
                14.308424986794392
              ],
              [
                30.789943942121184,
                15.50256358453791
              ],
              [
                31.187990141369013,
                16.219046743184023
              ]
            ]
          ]
        ]
      }
    },
    {
      "type": "Feature",
      "properties": {
        "slug": "takrur",
        "name": "Takrur",
        "start_year": 800,
        "end_year": 1285,
        "region_type": "kingdom",
        "continental_zone": "Africa",
        "source": "historical-basemaps"
      },
      "geometry": {
        "type": "MultiPolygon",
        "coordinates": [
          [
            [
              [
                -16.13216660782693,
                15.602340498482718
              ],
              [
                -16.040244472213956,
                15.970029040934591
              ],
              [
                -15.764478065375059,
                16.24579544777349
              ],
              [
                -15.396789522923186,
                16.429639718999432
              ],
              [
                -14.845256709245362,
                16.5215618546124
              ],
              [
                -14.385646031180542,
                16.5215618546124
              ],
              [
                -14.109879624341616,
                16.33771758338645
              ],
              [
                -13.834113217502718,
                16.15387331216052
              ],
              [
                -13.650268946276796,
                15.786184769708647
              ],
              [
                -13.55834681066382,
                15.14272982041787
              ],
              [
                -13.620296812423263,
                14.894929813380081
              ],
              [
                -13.742191081889743,
                14.407352735514124
              ],
              [
                -14.201801759954591,
                14.03966419306225
              ],
              [
                -14.66141243801944,
                13.763897786223353
              ],
              [
                -15.212945251697235,
                13.763897786223353
              ],
              [
                -15.672555929762083,
                13.855819921836314
              ],
              [
                -16.040244472213956,
                14.407352735514124
              ],
              [
                -16.110722955601183,
                14.654027427369396
              ],
              [
                -16.224088743439907,
                15.050807684804909
              ],
              [
                -16.224088743439907,
                15.14272982041787
              ],
              [
                -16.13216660782693,
                15.602340498482718
              ]
            ]
          ]
        ]
      }
    },
    {
      "type": "Feature",
      "properties": {
        "slug": "ghana-empire",
        "name": "Ghana",
        "start_year": 300,
        "end_year": 1235,
        "region_type": "empire",
        "continental_zone": "Africa",
        "source": "historical-basemaps"
      },
      "geometry": {
        "type": "MultiPolygon",
        "coordinates": [
          [
            [
              [
                -11.699497596589666,
                17.113655575993548
              ],
              [
                -7.833473886395026,
                17.636091212506344
              ],
              [
                -5.012321449225951,
                16.69570706678332
              ],
              [
                -4.803347194620827,
                15.546348666455174
              ],
              [
                -6.997576867974558,
                14.396990266127034
              ],
              [
                -8.878345159420618,
                14.292503138824479
              ],
              [
                -11.803984723892242,
                15.75532292106029
              ],
              [
                -11.90847185119479,
                16.38224568487565
              ],
              [
                -11.699497596589666,
                17.113655575993548
              ]
            ]
          ]
        ]
      }
    },
    {
      "type": "Feature",
      "properties": {
        "slug": "mali-empire",
        "name": "Mali",
        "start_year": 1235,
        "end_year": 1600,
        "region_type": "empire",
        "continental_zone": "Africa",
        "source": "historical-basemaps"
      },
      "geometry": {
        "type": "MultiPolygon",
        "coordinates": [
          [
            [
              [
                -9.579901585594925,
                13.32834678953526
              ],
              [
                -9.055906439719408,
                13.894456939576635
              ],
              [
                -8.739644364285152,
                13.894456939576635
              ],
              [
                -7.783346799736009,
                13.894456939576635
              ],
              [
                -5.013658171536846,
                13.422698481208826
              ],
              [
                -4.958210478409045,
                13.34116223013475
              ],
              [
                -4.564519475072117,
                12.762236639493885
              ],
              [
                -4.639375924482906,
                12.007423106105385
              ],
              [
                -5.088514620947635,
                11.535664647737576
              ],
              [
                -6.51078715975261,
                11.346961264390451
              ],
              [
                -7.633633900914433,
                11.346961264390451
              ],
              [
                -9.130762889130196,
                11.913071414431826
              ],
              [
                -9.579901585594925,
                12.384829872799635
              ],
              [
                -9.579901585594925,
                13.32834678953526
              ]
            ]
          ]
        ]
      }
    },
    {
      "type": "Feature",
      "properties": {
        "slug": "ifat-sultanate",
        "name": "Ifat",
        "start_year": 1185,
        "end_year": 1415,
        "region_type": "sultanate",
        "continental_zone": "Africa",
        "source": "historical-basemaps"
      },
      "geometry": {
        "type": "MultiPolygon",
        "coordinates": [
          [
            [
              [
                32.84695298113419,
                10.104653994359682
              ],
              [
                33.57626733685608,
                10.009526034917698
              ],
              [
                34.4519689752013,
                10.248353754466407
              ],
              [
                35.40727985339613,
                11.28327387251079
              ],
              [
                35.64610757294484,
                12.795849429652591
              ],
              [
                35.32767061354657,
                15.42295434468835
              ],
              [
                37.07907389023707,
                17.094748381529286
              ],
              [
                37.89511991723812,
                18.56012241001322
              ],
              [
                38.0285978646114,
                18.477939211089037
              ],
              [
                38.306651148302805,
                18.24978407498064
              ],
              [
                38.527468714220774,
                18.161315523344896
              ],
              [
                38.641741785509836,
                18.06071051235857
              ],
              [
                38.685671839220774,
                18.002805315215014
              ],
              [
                38.90385722093653,
                17.364074841192043
              ],
              [
                38.96278113744326,
                17.19157702843448
              ],
              [
                39.008826288683665,
                17.056781374174975
              ],
              [
                39.20794204185749,
                16.326509081084154
              ],
              [
                39.517928156359446,
                15.46304854031267
              ],
              [
                39.79644683311726,
                15.088771425444506
              ],
              [
                39.88854125450398,
                15.18427427883806
              ],
              [
                39.85619262169148,
                15.400236688811205
              ],
              [
                39.89788344810749,
                15.50198610897722
              ],
              [
                40.03721145103718,
                15.387916170317553
              ],
              [
                40.217452082140696,
                15.083317362028978
              ],
              [
                40.38988402794148,
                14.90578707333269
              ],
              [
                40.630530390246165,
                14.925351701933764
              ],
              [
                40.739138636095774,
                14.919243417937182
              ],
              [
                41.341250452502024,
                14.342323862273119
              ],
              [
                41.70525649498249,
                13.930101000029467
              ],
              [
                41.76108840416218,
                13.885752283293627
              ],
              [
                42.07897857139851,
                13.861013971526049
              ],
              [
                42.35708144615437,
                13.467672907072924
              ],
              [
                42.36641982506062,
                13.359677873808764
              ],
              [
                42.354964289171946,
                13.270696245390795
              ],
              [
                42.40844253013874,
                13.175496660429857
              ],
              [
                42.63643935631062,
                13.09338244076433
              ],
              [
                43.04802230308796,
                12.702313982207201
              ],
              [
                43.3304777474239,
                12.434074007231615
              ],
              [
                43.458682093127024,
                12.224659525114916
              ],
              [
                43.47482207725788,
                12.097622476775072
              ],
              [
                43.42193129966999,
                12.046670519072435
              ],
              [
                43.259139093859446,
                11.963715158659838
              ],
              [
                43.061846765978586,
                11.91882189388933
              ],
              [
                42.8099584908321,
                11.778485857207201
              ],
              [
                42.5553312630489,
                11.568253122527025
              ],
              [
                42.668772730334055,
                11.511313043791674
              ],
              [
                42.95914748619343,
                11.537357889372728
              ],
              [
                43.10357192466999,
                11.53131254788103
              ],
              [
                41.52688195216976,
                10.279881546371954
              ],
              [
                40.190731525570996,
                10.007197785841594
              ],
              [
                40.17238316906753,
                9.842852789780679
              ],
              [
                39.75203095278518,
                7.951267816510082
              ],
              [
                38.879383970829274,
                7.854307040737202
              ],
              [
                38.605020684873864,
                6.597308569790442
              ],
              [
                35.57782178476831,
                5.527006069275479
              ],
              [
                33.02152049134584,
                6.864538013373648
              ],
              [
                32.34880962465572,
                9.527647378549165
              ],
              [
                32.84695298113419,
                10.104653994359682
              ]
            ]
          ]
        ]
      }
    },
    {
      "type": "Feature",
      "properties": {
        "slug": "ibadi-imamate",
        "name": "Ibadites",
        "start_year": 750,
        "end_year": 1500,
        "region_type": "sultanate",
        "continental_zone": "Africa",
        "source": "historical-basemaps"
      },
      "geometry": {
        "type": "MultiPolygon",
        "coordinates": [
          [
            [
              [
                -2.621771905541009,
                30.34004808642152
              ],
              [
                -1.802211619772081,
                32.42724029347475
              ],
              [
                0.45780318303137,
                32.547440712207525
              ],
              [
                2.453117778055358,
                32.668676823957504
              ],
              [
                1.94958560644656,
                30.770470374518844
              ],
              [
                0.513090257012366,
                29.617586819813564
              ],
              [
                0.320039698526393,
                29.662077308955055
              ],
              [
                -2.621771905541009,
                30.34004808642152
              ]
            ]
          ]
        ]
      }
    }
  ]
}