{"type":"FeatureCollection","features":[{"type":"Feature","properties":{"slug":"imperial-japan","name":"Imperial Japan (Fujiwara)","start_year":794,"end_year":1185,"region_type":"empire","continental_zone":"Asia","source":"historical-basemaps"},"geometry":{"type":"MultiPolygon","coordinates":[[[[130.579,30.907],[130.554,30.97],[130.675,31.211],[130.732,31.478],[130.582,31.529],[130.474,31.44],[130.404,31.23],[130.233,31.026],[130.086,31.121],[130.06,31.217],[130.205,31.426],[130.219,31.56],[130.059,31.972],[130.135,32.023],[130.444,32.284],[130.481,32.347],[130.497,32.557],[130.257,32.912],[130.108,32.931],[130.035,32.81],[129.846,32.587],[129.734,32.638],[129.63,32.866],[129.461,32.987],[129.343,33.151],[129.528,33.298],[129.858,33.26],[130.176,33.337],[130.318,33.547],[130.427,33.674],[130.644,33.7],[130.859,33.675],[130.971,33.504],[131.093,33.428],[131.286,33.39],[131.569,33.486],[131.67,33.309],[131.414,33.111],[131.596,33.004],[131.795,32.807],[131.831,32.693],[131.563,32.432],[131.454,32.248],[131.407,32.083],[131.369,31.803],[131.319,31.511],[131.211,31.352],[131.123,31.308],[131.049,31.276],[130.96,31.193],[130.744,30.888],[130.579,30.907]]],[[[132.568,32.637],[132.467,32.758],[132.422,32.929],[132.343,33.107],[132.121,33.348],[132.45,33.52],[132.579,33.64],[132.784,33.908],[132.969,33.794],[133.245,33.801],[133.463,33.884],[133.603,34.036],[133.806,34.176],[134.01,34.189],[134.153,34.113],[134.54,34.013],[134.61,33.899],[134.565,33.841],[134.519,33.651],[134.388,33.543],[133.999,33.148],[133.917,33.243],[133.727,33.376],[133.517,33.395],[133.241,33.299],[133.154,33.216],[133.044,32.994],[132.97,32.765],[132.901,32.67],[132.699,32.549],[132.568,32.637]]],[[[136.811,37.311],[137.31,37.433],[137.335,37.274],[137.118,37.146],[137.014,37.037],[136.983,36.834],[137.045,36.668],[137.176,36.643],[137.276,36.694],[137.464,36.854],[137.572,36.892],[138.317,37.206],[138.492,37.301],[138.699,37.448],[138.856,37.735],[139.198,37.92],[139.354,38.067],[139.44,38.188],[139.504,38.418],[139.746,38.68],[139.741,38.743],[139.896,38.999],[139.968,39.209],[140.03,39.483],[140.011,39.694],[139.862,39.782],[139.805,39.891],[139.91,39.987],[139.985,40.115],[139.915,40.575],[140.16,40.729],[140.239,40.838],[140.386,40.986],[140.473,40.986],[140.567,40.826],[140.657,40.724],[140.793,40.749],[141.153,40.865],[141.077,41.102],[140.937,41.115],[140.775,41.255],[141.087,41.442],[141.286,41.372],[141.437,41.269],[141.448,41.18],[141.441,40.789],[141.467,40.514],[141.566,40.457],[141.676,40.316],[141.998,39.672],[141.999,39.449],[141.888,39.13],[141.569,38.785],[141.467,38.587],[141.496,38.422],[141.429,38.39],[141.097,38.262],[141.024,38.211],[140.951,38.121],[140.872,37.917],[140.881,37.739],[140.923,37.625],[140.982,37.268],[140.964,36.956],[140.656,36.618],[140.547,36.287],[140.555,35.969],[140.645,35.836],[140.834,35.677],[140.557,35.543],[140.47,35.486],[140.395,35.409],[140.317,35.034],[139.83,34.836],[139.788,34.963],[139.92,35.262],[140.003,35.497],[139.914,35.554],[139.683,35.446],[139.423,35.166],[139.209,35.165],[139.053,35.025],[139.023,34.688],[138.864,34.567],[138.779,34.58],[138.75,34.65],[138.751,34.923],[138.684,34.992],[138.589,34.973],[138.45,34.903],[138.295,34.763],[138.149,34.528],[137.759,34.552],[137.532,34.527],[137.248,34.482],[137.042,34.729],[136.734,34.874],[136.617,34.76],[136.587,34.677],[136.507,34.518],[136.524,34.493],[136.711,34.404],[136.899,34.259],[136.767,34.17],[136.394,34.112],[136.199,34.003],[135.991,33.724],[135.756,33.342],[135.446,33.507],[135.192,33.601],[135.063,33.69],[135.057,33.766],[134.969,34.134],[135.014,34.204],[135.237,34.351],[135.317,34.471],[135.287,34.598],[135.206,34.617],[134.936,34.54],[134.782,34.553],[134.427,34.628],[134.213,34.571],[134.022,34.469],[133.825,34.386],[133.704,34.43],[133.589,34.442],[132.848,34.263],[132.481,34.129],[132.387,34.269],[132.183,34.287],[131.997,34.09],[131.995,33.804],[131.655,33.912],[131.394,33.936],[130.899,33.904],[130.779,33.967],[130.812,34.119],[130.892,34.246],[131.11,34.241],[131.334,34.292],[131.672,34.502],[132.663,35.381],[132.789,35.387],[132.981,35.445],[133.006,35.254],[133.229,35.312],[133.804,35.427],[134.224,35.454],[134.756,35.531],[135.157,35.646],[135.188,35.443],[135.358,35.323],[135.432,35.361],[135.727,35.45],[135.928,35.604],[135.927,35.763],[135.978,35.973],[136.187,36.202],[136.502,36.464],[136.668,36.667],[136.64,37.17],[136.722,37.266],[136.811,37.311]]]]}},{"type":"Feature","properties":{"slug":"east-java-kingdoms","name":"East Java","start_year":929,"end_year":1527,"region_type":"kingdom","continental_zone":"Asia","source":"historical-basemaps"},"geometry":{"type":"MultiPolygon","coordinates":[[[[115.956,-3.199],[115.863,-3.377],[115.806,-3.536],[115.568,-3.804],[114.986,-4.078],[114.712,-4.206],[114.581,-4.295],[114.494,-4.156],[114.505,-3.965],[114.356,-3.603],[114.218,-3.432],[114.099,-3.35],[113.971,-3.363],[113.744,-3.598],[113.608,-3.611],[113.461,-3.383],[113.32,-3.294],[113.123,-3.244],[112.949,-3.041],[112.795,-2.971],[112.638,-3.334],[112.578,-3.423],[112.406,-3.449],[112.246,-3.398],[112.047,-3.456],[111.903,-3.615],[111.739,-3.647],[111.713,-3.399],[111.729,-3.259],[111.587,-2.796],[111.436,-2.974],[110.797,-3.172],[110.653,-2.988],[110.365,-2.995],[110.238,-3.066],[110.102,-3.079],[111.333,-1.37],[112.801,-1.875],[113.772,-1.875],[114.635,-1.659],[115.956,-3.199]]],[[[109.217,-7.014],[109.382,-6.989],[110.027,-7.044],[110.243,-7.031],[110.396,-6.955],[110.492,-6.662],[110.613,-6.541],[110.815,-6.534],[110.915,-6.629],[111.045,-6.852],[111.33,-6.908],[111.568,-6.92],[111.917,-6.958],[112.275,-7.027],[112.405,-7.135],[112.537,-7.265],[112.501,-7.465],[112.625,-7.674],[112.678,-7.719],[113.073,-7.877],[113.263,-7.908],[113.559,-7.914],[113.761,-7.831],[113.948,-7.824],[114.231,-7.932],[114.252,-8.02],[114.138,-8.211],[114.069,-8.434],[114.329,-8.783],[114.105,-8.688],[113.744,-8.6],[113.475,-8.486],[113.074,-8.347],[112.836,-8.348],[112.571,-8.463],[112.414,-8.488],[112.093,-8.445],[111.439,-8.382],[110.778,-8.32],[110.415,-8.207],[110.038,-7.991],[109.544,-7.84],[109.115,-7.739],[109.217,-7.014]]],[[[117.938,-8.54],[117.797,-8.496],[117.705,-8.439],[117.677,-8.363],[117.691,-8.267],[117.806,-8.178],[117.948,-8.162],[118.025,-8.203],[118.048,-8.298],[118.13,-8.343],[118.267,-8.277],[118.42,-8.325],[118.467,-8.393],[118.462,-8.596],[118.544,-8.529],[118.618,-8.392],[118.761,-8.379],[118.863,-8.481],[118.873,-8.671],[118.954,-8.655],[118.982,-8.702],[118.971,-8.881],[118.828,-8.786],[118.689,-8.76],[118.625,-8.786],[118.658,-8.856],[118.275,-8.927],[118.211,-8.886],[118.254,-8.765],[118.216,-8.739],[118.077,-8.86],[117.974,-8.975],[117.841,-8.954],[117.557,-9.056],[117.277,-9.145],[117.116,-9.122],[116.976,-9.178],[116.8,-9.146],[116.754,-9.115],[116.663,-9.059],[116.634,-8.933],[116.699,-8.816],[116.663,-8.702],[116.75,-8.651],[116.853,-8.6],[116.958,-8.529],[117.059,-8.561],[117.334,-8.567],[117.514,-8.613],[117.554,-8.739],[117.685,-8.788],[117.817,-8.814],[117.902,-8.697],[118.033,-8.692],[118.056,-8.608],[117.938,-8.54]]],[[[115.072,-8.781],[114.896,-8.655],[114.511,-8.452],[114.458,-8.331],[114.645,-8.331],[114.876,-8.248],[115.084,-8.235],[115.5,-8.469],[115.348,-8.546],[115.244,-8.59],[115.072,-8.781]]]]}},{"type":"Feature","properties":{"slug":"western-xia","name":"Xixia","start_year":1038,"end_year":1227,"region_type":"kingdom","continental_zone":"Asia","source":"historical-basemaps"},"geometry":{"type":"MultiPolygon","coordinates":[[[[102.044,37.738],[99.802,37.84],[97.459,38.553],[96.236,38.757],[92.569,38.757],[88.289,38.961],[85.844,39.572],[85.131,40.183],[85.233,40.998],[85.946,41.406],[86.911,41.406],[88.188,41.406],[91.346,42.119],[92.263,42.119],[96.236,41.508],[98.987,41.813],[101.432,41.202],[103.063,41.202],[108.361,41.508],[109.379,41.202],[110.5,39.878],[109.889,37.942],[108.972,37.738],[102.044,37.738]]]]}},{"type":"Feature","properties":{"slug":"chola-empire","name":"Chola state","start_year":848,"end_year":1279,"region_type":"empire","continental_zone":"Asia","source":"historical-basemaps"},"geometry":{"type":"MultiPolygon","coordinates":[[[[80.563,5.932],[80.341,5.969],[80.222,6.058],[80.128,6.217],[80.017,6.496],[79.854,7.061],[79.839,7.353],[79.841,7.697],[79.832,8.103],[79.724,8.417],[79.809,8.647],[79.675,8.805],[79.706,8.931],[79.896,8.92],[80.053,9.114],[80.077,9.279],[80.178,9.445],[80.11,9.687],[80.348,9.47],[80.662,9.299],[80.768,9.122],[81.015,8.773],[81.093,8.627],[81.049,8.474],[81.06,8.411],[81.326,8.259],[81.446,7.929],[81.805,7.313],[81.866,7.085],[81.779,6.754],[81.6,6.449],[81.434,6.27],[81.203,6.079],[80.852,5.951],[80.563,5.932]]],[[[75.44,11.75],[76.675,13.286],[78.203,14.814],[80.46,15.773],[80.3,15.646],[80.163,15.391],[80.089,15.175],[80.087,14.946],[80.162,14.254],[80.17,13.892],[80.076,13.669],[80.178,13.524],[80.202,13.492],[80.32,13.333],[80.313,13.104],[80.224,12.831],[79.923,12.106],[79.867,11.969],[79.769,11.731],[79.725,11.516],[79.711,11.445],[79.732,11.153],[79.826,10.359],[79.79,10.251],[79.501,10.25],[79.306,10.256],[79.222,10.192],[79.072,9.76],[78.927,9.493],[78.938,9.436],[79.16,9.277],[78.798,9.13],[78.66,9.124],[78.314,8.996],[78.181,8.811],[78.136,8.5],[78.065,8.385],[77.9,8.258],[77.848,8.233],[77.734,8.177],[77.663,8.143],[77.619,8.117],[77.589,8.098],[77.484,8.028],[77.419,8.028],[77.341,8.053],[76.704,8.706],[76.662,8.884],[76.538,9.119],[76.467,9.41],[76.385,9.748],[76.294,9.985],[76.248,10.104],[76.075,10.554],[75.652,11.423],[75.591,11.518],[75.44,11.75]]]]}},{"type":"Feature","properties":{"slug":"tibet","name":"Tibet","start_year":842,"end_year":1642,"region_type":"kingdom","continental_zone":"Asia","source":"historical-basemaps"},"geometry":{"type":"MultiPolygon","coordinates":[[[[103.203,34.105],[103.155,33.283],[101.936,32.351],[100.687,31.395],[100.493,30.088],[100.682,28.691],[98.637,27.479],[96.428,26.701],[94.492,26.507],[94.153,27.668],[91.83,27.277],[89.575,27.299],[86.409,27.33],[85.088,27.692],[85.862,28.201],[83.543,29.285],[82.036,30.191],[81.108,30.191],[80.673,29.683],[80.054,29.982],[79.974,30.217],[79.808,30.709],[79.808,31.161],[80.079,31.884],[79.808,33.058],[79.898,34.051],[79.845,35.225],[79.833,35.497],[88.086,38.146],[87.678,38.655],[88.289,38.961],[92.569,38.757],[96.236,38.757],[97.459,38.553],[99.802,37.84],[102.044,37.738],[101.688,36.307],[102.088,34.866],[103.203,34.105]]]]}},{"type":"Feature","properties":{"slug":"song-china","name":"Song Empire","start_year":960,"end_year":1279,"region_type":"empire","continental_zone":"Asia","source":"historical-basemaps"},"geometry":{"type":"MultiPolygon","coordinates":[[[[114.046,22.34],[114.031,22.31],[114.022,22.228],[113.989,22.215],[113.955,22.234],[113.932,22.206],[113.904,22.219],[113.867,22.197],[113.836,22.214],[113.858,22.258],[113.902,22.291],[113.95,22.303],[114.046,22.34]]],[[[114.084,22.528],[114.166,22.561],[114.219,22.551],[114.309,22.554],[114.358,22.505],[114.413,22.437],[114.398,22.396],[114.329,22.272],[114.259,22.222],[114.263,22.204],[114.231,22.222],[114.216,22.192],[114.207,22.222],[114.134,22.172],[114.099,22.217],[114.128,22.254],[114.116,22.278],[114.153,22.299],[114.161,22.314],[114.144,22.331],[114.102,22.329],[114.087,22.361],[114.008,22.372],[113.947,22.366],[113.925,22.367],[113.901,22.407],[113.981,22.469],[114.042,22.499],[114.029,22.508],[114.084,22.528]]],[[[100.682,28.691],[100.493,30.088],[100.687,31.395],[101.936,32.351],[103.155,33.283],[103.203,34.105],[102.088,34.866],[101.688,36.307],[102.044,37.738],[108.972,37.738],[109.889,37.942],[110.5,39.878],[111.417,39.572],[115.696,39.572],[117.51,38.766],[117.44,38.603],[117.479,38.45],[117.589,38.284],[117.841,38.164],[118.2,38.044],[118.745,38.064],[118.875,37.949],[118.867,37.707],[118.812,37.446],[118.837,37.204],[118.955,37.077],[119.284,37.046],[119.599,37.117],[119.941,37.353],[120.169,37.576],[120.418,37.679],[120.658,37.736],[120.787,37.705],[121.19,37.425],[121.434,37.337],[121.895,37.376],[122.058,37.364],[122.269,37.3],[122.393,37.301],[122.281,36.982],[122.256,36.734],[121.98,36.822],[121.847,36.86],[121.61,36.834],[120.855,36.584],[120.537,36.387],[120.505,36.056],[120.27,35.985],[120.204,36.036],[120.196,36.157],[120.139,36.195],[119.914,36.143],[119.976,35.934],[119.907,35.768],[119.689,35.545],[119.06,35.041],[119.003,34.939],[119.021,34.692],[119.3,34.591],[119.62,34.369],[119.974,34.135],[120.149,33.894],[120.34,33.336],[120.641,33.045],[120.719,32.848],[120.661,32.543],[120.738,32.461],[121.051,32.328],[121.231,32.062],[121.484,31.948],[121.606,31.828],[121.645,31.688],[121.623,31.618],[121.268,31.452],[121.308,31.421],[121.499,31.281],[121.64,30.926],[121.632,30.793],[121.569,30.71],[121.328,30.691],[121.035,30.595],[120.609,30.346],[120.227,30.25],[119.944,30.116],[120.268,30.022],[120.438,29.997],[120.863,30.188],[121.083,30.214],[121.155,30.189],[121.391,29.922],[121.565,29.847],[121.77,29.834],[121.774,29.764],[121.67,29.625],[121.498,29.523],[121.362,29.414],[121.411,29.345],[121.558,29.358],[121.649,29.32],[121.567,29.173],[121.433,28.837],[121.346,28.544],[121.359,28.386],[121.26,28.182],[121.166,28.125],[121.009,28.277],[120.942,28.213],[120.687,27.87],[120.506,27.59],[120.409,27.31],[120.352,27.177],[120.084,26.986],[119.971,26.789],[119.857,26.706],[119.601,26.693],[119.429,26.591],[119.555,26.267],[119.436,26.038],[119.47,25.772],[119.429,25.651],[119.335,25.53],[119.096,25.441],[119.024,25.313],[118.945,25.135],[118.813,24.849],[118.531,24.69],[118.346,24.467],[118.124,24.53],[117.925,24.562],[117.861,24.511],[117.796,24.422],[117.849,24.047],[117.753,23.983],[117.406,23.69],[117.245,23.633],[116.963,23.556],[116.709,23.346],[116.452,23.25],[116.404,23.199],[116.4,22.983],[116.341,22.913],[116.085,22.887],[115.86,22.836],[115.707,22.639],[115.543,22.696],[115.309,22.771],[115.186,22.746],[115.044,22.599],[114.848,22.51],[114.559,22.465],[114.537,22.675],[114.304,22.649],[113.989,22.553],[113.845,22.463],[113.717,22.482],[113.536,22.704],[113.463,22.774],[113.377,22.647],[113.419,22.571],[113.399,22.475],[113.378,22.164],[113.284,22.03],[113.097,21.979],[112.871,22.061],[112.816,21.934],[112.815,21.826],[112.75,21.756],[112.473,21.73],[112.308,21.679],[112.04,21.659],[111.831,21.754],[111.734,21.709],[111.536,21.493],[111.434,21.461],[111.086,21.479],[110.75,21.377],[110.566,21.231],[110.363,21.243],[110.239,21.281],[110.234,21.255],[110.203,21.096],[110.072,20.918],[110.077,20.867],[110.293,20.582],[110.414,20.525],[110.434,20.436],[110.271,20.315],[109.928,20.245],[109.712,20.568],[109.603,20.879],[109.608,21.057],[109.787,21.407],[109.78,21.483],[109.516,21.597],[109.414,21.565],[109.322,21.431],[109.117,21.399],[108.813,21.494],[108.555,21.823],[108.467,21.785],[108.459,21.709],[108.387,21.531],[108.266,21.473],[108.117,21.499],[107.9,21.479],[107.876,21.462],[107.79,21.403],[107.418,21.186],[106.585,22.919],[105.188,25.829],[102.961,26.797],[101.219,26.991],[100.682,28.691]]]]}},{"type":"Feature","properties":{"slug":"dali-kingdom","name":"Nan Chao","start_year":937,"end_year":1253,"region_type":"kingdom","continental_zone":"Asia","source":"historical-basemaps"},"geometry":{"type":"MultiPolygon","coordinates":[[[[101.008,21.423],[99.482,21.659],[99.428,21.667],[98.627,25.204],[98.583,25.401],[101.219,26.991],[102.961,26.797],[105.188,25.829],[106.585,22.919],[104.849,21.764],[104.558,20.167],[104.026,20.118],[103.787,20.222],[101.008,21.423]]]]}},{"type":"Feature","properties":{"slug":"dai-viet","name":"Đại Việt","start_year":968,"end_year":1804,"region_type":"kingdom","continental_zone":"Asia","source":"historical-basemaps"},"geometry":{"type":"MultiPolygon","coordinates":[[[[105.4,16.331],[104.933,17.451],[104.111,17.999],[103.058,17.999],[103.787,20.222],[104.026,20.118],[104.558,20.167],[104.849,21.764],[106.585,22.919],[107.418,21.186],[107.466,20.976],[107.374,20.881],[106.807,20.905],[106.746,20.816],[106.772,20.638],[106.644,20.466],[106.381,20.11],[106.281,20.046],[106.042,19.938],[105.965,19.881],[105.843,19.702],[105.707,19.283],[105.533,18.844],[105.653,18.743],[105.864,18.489],[106.364,18.007],[106.375,17.9],[106.394,17.665],[106.433,17.55],[106.622,17.328],[107.005,17.038],[107.115,16.955],[107.375,16.691],[106.791,16.373],[106.451,16.188],[106.204,16.053],[105.4,16.331]]]]}},{"type":"Feature","properties":{"slug":"champa","name":"Champa City States","start_year":192,"end_year":1832,"region_type":"kingdom","continental_zone":"Asia","source":"historical-basemaps"},"geometry":{"type":"MultiPolygon","coordinates":[[[[106.451,16.188],[106.791,16.373],[107.375,16.691],[107.692,16.371],[107.809,16.283],[108.095,16.252],[108.236,16.08],[108.363,15.623],[108.499,15.363],[108.786,15.091],[108.918,14.792],[109.071,14.17],[109.307,12.906],[109.175,12.709],[109.068,12.487],[109.091,12.118],[109.048,11.934],[109.073,11.635],[109.061,11.591],[108.943,11.412],[108.897,11.343],[108.696,11.145],[108.582,11.088],[108.353,11.043],[108.164,10.966],[107.939,10.807],[107.673,10.527],[107.412,10.367],[107.266,10.348],[107.036,10.436],[106.854,10.576],[106.773,10.639],[106.93,11.842],[107.898,12.568],[107.898,13.682],[107.462,14.988],[106.451,16.188]]]]}},{"type":"Feature","properties":{"slug":"mon-kingdoms","name":"Mon state","start_year":825,"end_year":1757,"region_type":"kingdom","continental_zone":"Asia","source":"historical-basemaps"},"geometry":{"type":"MultiPolygon","coordinates":[[[[97.418,16.483],[97.352,16.527],[97.215,16.94],[96.983,17.244],[96.882,17.346],[96.77,17.333],[96.734,16.888],[96.663,16.697],[96.469,16.513],[96.204,16.385],[95.714,16.155],[95.552,15.875],[95.418,15.742],[95.33,15.678],[95.223,15.805],[95.22,16.002],[95.125,15.995],[94.973,15.836],[94.828,15.842],[94.753,15.937],[94.82,16.16],[94.819,16.21],[94.54,16.134],[94.416,16.076],[94.304,15.949],[94.144,16.006],[94.143,16.215],[94.392,16.908],[94.465,17.264],[94.465,17.643],[94.465,17.664],[94.42,18.141],[94.247,18.579],[94.244,18.587],[95.605,18.86],[96.699,19.124],[97.008,19.199],[97.444,19.102],[97.532,18.882],[97.734,18.376],[97.418,16.483]]]]}},{"type":"Feature","properties":{"slug":"haripunchai","name":"Harapunchai","start_year":750,"end_year":1292,"region_type":"kingdom","continental_zone":"Asia","source":"historical-basemaps"},"geometry":{"type":"MultiPolygon","coordinates":[[[[97.532,18.882],[99.482,21.659],[101.008,21.423],[103.787,20.222],[103.058,17.999],[101.606,15.569],[97.99,14.207],[97.979,14.235],[97.823,14.616],[97.742,15.01],[97.664,15.791],[97.611,16.096],[97.596,16.35],[97.573,16.445],[97.418,16.483],[97.734,18.376],[97.532,18.882]]]]}},{"type":"Feature","properties":{"slug":"hindu-buddhist-states","name":"minor Hindu and Buddhist states","start_year":600,"end_year":1500,"region_type":"confederation","continental_zone":"Asia","source":"historical-basemaps"},"geometry":{"type":"MultiPolygon","coordinates":[[[[96.118,3.951],[95.828,4.224],[95.561,4.534],[95.308,4.96],[95.205,5.245],[95.191,5.41],[95.216,5.5],[95.283,5.55],[95.464,5.57],[95.628,5.526],[95.74,5.469],[96.025,5.215],[96.187,5.146],[96.602,5.077],[96.753,5.064],[96.999,5.109],[97.204,5.173],[97.384,5.18],[97.529,5.041],[97.943,4.521],[98.174,4.381],[98.199,4.311],[98.146,4.07],[98.625,3.658],[98.962,3.436],[99.491,3.126],[99.796,2.981],[99.858,2.904],[98.71,2.854],[97.597,2.251],[97.543,2.41],[97.509,2.74],[97.428,2.925],[97.254,3.14],[96.886,3.514],[96.72,3.705],[96.394,3.647],[96.118,3.951]]]]}},{"type":"Feature","properties":{"slug":"rasulid-yemen","name":"Yemen","start_year":1229,"end_year":1454,"region_type":"kingdom","continental_zone":"Asia","source":"historical-basemaps"},"geometry":{"type":"MultiPolygon","coordinates":[[[[46.878,13.474],[46.601,13.401],[46.079,13.399],[45.826,13.405],[45.692,13.348],[45.519,13.208],[45.396,13.074],[45.193,12.934],[44.964,12.825],[44.789,12.806],[44.681,12.825],[44.441,12.64],[44.063,12.614],[43.841,12.664],[43.605,12.829],[43.56,12.86],[43.484,12.93],[43.341,13.127],[43.303,13.241],[43.384,13.565],[43.348,13.851],[43.207,14.079],[43.053,14.607],[42.796,15.47],[42.764,15.667],[42.884,15.985],[42.828,16.321],[42.814,16.404],[42.764,16.645],[45.24,17.694],[46.277,17.118],[47.064,15.748],[48.879,14.169],[48.765,14.098],[48.537,14.046],[48.27,14.078],[48.036,14.045],[47.662,13.848],[47.37,13.669],[46.939,13.49],[46.878,13.474]]]]}},{"type":"Feature","properties":{"slug":"hadramaut","name":"Hadramaut","start_year":900,"end_year":1967,"region_type":"sultanate","continental_zone":"Asia","source":"historical-basemaps"},"geometry":{"type":"MultiPolygon","coordinates":[[[[47.064,15.748],[47.838,16.422],[50.511,17.147],[51.815,18.125],[53.939,19.155],[56.726,19.155],[57.186,18.938],[56.904,18.817],[56.739,18.689],[56.609,18.467],[56.549,18.219],[56.458,18.092],[56.258,17.977],[56.013,17.932],[55.882,17.932],[55.708,17.95],[55.561,17.937],[55.389,17.81],[55.29,17.676],[55.234,17.447],[55.236,17.288],[55.195,17.149],[54.911,16.97],[54.756,16.951],[54.407,17.045],[54.084,17.019],[53.681,16.898],[53.336,16.763],[53.208,16.719],[53.021,16.654],[52.894,16.61],[52.652,16.489],[52.357,16.234],[52.238,16.1],[52.163,15.871],[52.135,15.687],[51.95,15.541],[51.599,15.379],[51.313,15.247],[50.291,14.959],[49.713,14.773],[49.334,14.633],[49.173,14.499],[48.96,14.219],[48.879,14.169],[47.064,15.748]]]]}},{"type":"Feature","properties":{"slug":"muscat","name":"Muscat","start_year":751,"end_year":1970,"region_type":"sultanate","continental_zone":"Asia","source":"historical-basemaps"},"geometry":{"type":"MultiPolygon","coordinates":[[[[59.837,22.279],[57.716,22.189],[55.554,23.519],[54.771,24.733],[55.091,25.02],[55.457,25.42],[55.53,25.373],[55.633,25.453],[56.015,25.772],[56.157,25.966],[56.297,26.16],[56.367,26.236],[56.405,25.861],[56.215,25.543],[56.161,25.473],[56.282,25.462],[56.366,25.455],[56.406,25.309],[56.406,25.08],[56.405,24.919],[56.405,24.82],[56.611,24.477],[56.794,24.268],[57.146,23.982],[57.396,23.837],[57.451,23.805],[57.904,23.571],[58.081,23.502],[58.205,23.496],[58.465,23.509],[58.628,23.458],[59.022,23.021],[59.254,22.729],[59.461,22.539],[59.826,22.374],[59.837,22.279]]]]}},{"type":"Feature","properties":{"slug":"khwarezm-empire","name":"Kwarizm-Shah","start_year":1077,"end_year":1231,"region_type":"empire","continental_zone":"Asia","source":"historical-basemaps"},"geometry":{"type":"MultiPolygon","coordinates":[[[[68.072,23.675],[68.047,23.764],[67.692,23.814],[67.486,23.928],[67.316,24.093],[67.204,24.588],[67.154,24.652],[67.0,24.715],[66.702,24.752],[66.654,24.784],[66.648,24.905],[66.701,25.114],[66.621,25.317],[66.432,25.489],[66.3,25.495],[65.769,25.309],[65.216,25.27],[64.851,25.206],[64.425,25.173],[64.238,25.211],[64.12,25.312],[64.059,25.401],[64.158,26.772],[63.6,28.073],[65.025,28.321],[67.378,30.117],[69.636,31.471],[71.404,32.532],[71.32,31.29],[71.156,28.878],[70.958,28.581],[70.289,27.578],[68.865,24.481],[68.072,23.675]]]]}},{"type":"Feature","properties":{"slug":"kingdom-of-georgia","name":"Georgia","start_year":1008,"end_year":1490,"region_type":"kingdom","continental_zone":"Asia","source":"historical-basemaps"},"geometry":{"type":"MultiPolygon","coordinates":[[[[41.68,41.793],[41.652,42.121],[41.503,42.608],[41.41,42.788],[41.123,43.019],[43.546,42.835],[45.26,42.439],[45.558,41.838],[45.432,41.459],[43.325,40.953],[43.367,41.375],[43.114,41.712],[42.914,41.723],[41.68,41.793]]]]}},{"type":"Feature","properties":{"slug":"armenian-kingdom","name":"Armenia","start_year":301,"end_year":1375,"region_type":"kingdom","continental_zone":"Asia","source":"historical-basemaps"},"geometry":{"type":"MultiPolygon","coordinates":[[[[43.325,40.953],[45.432,41.459],[46.148,39.689],[46.822,38.341],[46.907,37.919],[46.822,37.667],[45.516,37.034],[44.842,36.782],[44.463,36.824],[42.019,38.13],[41.007,38.341],[41.808,38.678],[42.019,39.184],[42.314,39.984],[42.693,40.701],[43.325,40.953]]]]}},{"type":"Feature","properties":{"slug":"buwayhid-emirates","name":"Buwayhid Emirates","start_year":934,"end_year":1062,"region_type":"confederation","continental_zone":"Asia","source":"historical-basemaps"},"geometry":{"type":"MultiPolygon","coordinates":[[[[41.007,38.341],[42.019,38.13],[44.463,36.824],[44.842,36.782],[45.516,37.034],[46.822,37.667],[46.907,37.919],[46.822,38.341],[46.148,39.689],[46.738,40.026],[46.907,40.616],[46.822,41.206],[46.738,41.712],[48.222,42.279],[48.42,42.091],[48.5,41.929],[48.662,41.902],[48.683,41.836],[48.892,41.687],[48.999,41.517],[49.116,41.432],[49.244,41.293],[49.286,41.059],[49.35,40.953],[49.478,40.836],[49.605,40.762],[49.605,40.687],[49.807,40.581],[50.02,40.602],[50.19,40.57],[50.318,40.496],[50.424,40.411],[50.467,40.325],[50.467,40.262],[50.307,40.325],[50.126,40.347],[50.031,40.347],[49.914,40.325],[49.85,40.272],[49.669,40.24],[49.573,40.176],[49.552,40.091],[49.541,39.879],[49.488,39.762],[49.446,39.655],[49.403,39.485],[49.499,39.379],[49.488,39.294],[49.382,39.326],[49.339,39.283],[49.307,39.134],[49.275,39.017],[49.222,39.038],[49.18,39.145],[49.116,39.187],[49.041,39.145],[49.02,39.006],[49.052,38.932],[48.999,38.879],[48.946,38.836],[48.988,38.719],[48.825,38.31],[48.832,38.306],[48.809,37.989],[48.745,37.727],[48.837,37.511],[49.06,37.398],[49.476,37.292],[49.848,37.268],[50.039,37.225],[50.111,37.098],[50.252,36.895],[50.561,36.686],[51.417,36.456],[51.796,36.432],[51.993,36.459],[52.602,36.577],[53.139,36.644],[53.8,36.679],[53.984,36.782],[54.067,36.942],[54.868,36.806],[55.611,35.939],[56.54,35.939],[61.928,29.745],[62.857,28.445],[63.6,28.073],[64.158,26.772],[64.059,25.401],[63.65,25.337],[63.404,25.165],[63.018,25.157],[62.45,25.163],[62.138,25.105],[61.813,25.053],[61.57,25.04],[61.344,25.027],[60.858,25.096],[60.752,25.184],[60.48,25.298],[60.298,25.323],[59.655,25.322],[59.302,25.34],[59.031,25.308],[58.818,25.479],[58.744,25.536],[58.369,25.548],[58.11,25.547],[57.9,25.541],[57.805,25.648],[57.465,25.705],[57.328,25.787],[57.255,25.793],[57.245,26.018],[57.112,26.076],[57.066,26.307],[56.935,26.465],[56.929,26.752],[56.79,26.974],[56.684,26.968],[56.668,27.05],[56.431,27.107],[56.068,27.112],[55.9,27.105],[55.805,27.005],[55.658,26.997],[55.425,26.963],[55.34,26.799],[55.098,26.737],[54.926,26.538],[54.76,26.411],[54.646,26.391],[54.065,26.701],[53.634,26.748],[53.381,26.91],[52.891,27.052],[52.78,27.188],[52.634,27.315],[52.41,27.581],[51.962,27.777],[51.699,27.815],[51.611,27.827],[51.35,28.036],[51.082,28.512],[50.797,29.013],[50.702,29.134],[50.705,29.401],[50.36,29.743],[50.132,30.066],[49.718,30.002],[49.511,30.021],[49.452,30.078],[49.321,30.103],[49.235,30.223],[49.222,30.477],[49.02,30.433],[48.946,30.388],[48.801,30.083],[48.714,30.0],[48.554,29.995],[48.511,29.993],[48.212,29.948],[48.028,29.973],[47.957,29.948],[47.911,29.89],[47.936,29.801],[47.996,29.49],[47.845,29.503],[47.614,29.272],[47.804,29.185],[47.992,29.277],[48.129,29.268],[48.444,28.44],[48.463,28.386],[48.588,28.094],[48.752,27.872],[48.832,27.573],[48.855,27.523],[49.132,27.536],[49.244,27.479],[49.152,27.372],[49.239,27.288],[49.322,27.162],[49.427,27.131],[49.533,27.01],[49.931,26.934],[50.122,26.738],[50.09,26.611],[49.984,26.596],[49.934,26.483],[50.076,26.312],[49.992,26.045],[49.937,25.956],[50.011,25.835],[50.147,25.536],[50.214,25.588],[50.382,25.461],[50.429,25.184],[50.619,24.871],[50.607,24.68],[50.706,24.56],[50.778,24.471],[50.907,24.433],[50.968,24.436],[50.965,24.713],[50.896,24.91],[50.847,25.265],[50.931,25.539],[51.015,25.588],[50.989,25.672],[51.069,25.945],[51.217,26.066],[51.358,26.029],[51.389,25.887],[51.506,25.845],[51.534,25.756],[51.587,25.609],[51.539,25.42],[51.553,25.102],[51.606,24.987],[51.559,24.816],[51.412,24.606],[51.288,24.411],[51.291,24.281],[51.454,24.218],[51.523,24.161],[51.606,24.203],[51.586,24.003],[50.857,23.88],[48.617,25.687],[44.083,30.337],[40.029,34.391],[38.372,35.141],[37.026,35.75],[37.384,36.613],[37.594,37.161],[39.617,37.835],[41.007,38.341]]]]}},{"type":"Feature","properties":{"slug":"mongol-empire","name":"Mongol Empire","start_year":1206,"end_year":1368,"region_type":"empire","continental_zone":"Asia","source":"historical-basemaps"},"geometry":{"type":"MultiPolygon","coordinates":[[[[140.847,51.564],[140.73,51.441],[140.405,50.827],[140.323,50.518],[140.349,50.419],[140.457,50.104],[140.372,49.691],[140.328,49.358],[140.147,48.724],[140.081,48.503],[139.214,47.811],[139.047,47.615],[138.949,47.322],[138.685,47.134],[138.352,46.873],[138.243,46.711],[137.985,46.269],[137.721,45.997],[137.297,45.646],[136.494,44.966],[136.285,44.753],[136.179,44.547],[136.034,44.398],[135.693,44.224],[135.415,44.037],[135.156,43.721],[134.962,43.515],[134.569,43.212],[134.139,42.993],[133.312,42.779],[132.953,42.67],[132.827,42.862],[132.594,42.9],[132.485,42.88],[132.333,42.964],[132.182,43.195],[131.883,43.072],[131.675,43.027],[131.865,43.29],[133.399,44.671],[133.709,45.414],[133.028,46.529],[131.913,46.529],[127.578,44.423],[123.614,43.99],[120.084,43.804],[113.828,43.247],[108.361,41.508],[103.063,41.202],[101.432,41.202],[98.987,41.813],[96.236,41.508],[92.263,42.119],[91.346,42.119],[88.188,41.406],[86.911,41.406],[88.845,56.461],[93.7,56.485],[99.537,55.281],[99.485,55.659],[107.962,59.818],[114.016,59.547],[115.205,57.386],[115.393,57.653],[140.847,51.564]],[[109.861,55.575],[109.955,55.672],[109.847,55.755],[109.76,55.774],[109.667,55.779],[109.576,55.771],[109.507,55.731],[109.313,55.608],[109.239,55.575],[109.193,55.536],[109.191,55.464],[109.213,55.405],[109.198,55.261],[109.171,55.194],[109.11,55.099],[109.053,55.028],[108.953,54.983],[108.917,54.951],[108.944,54.931],[108.933,54.898],[108.882,54.853],[108.847,54.8],[108.827,54.739],[108.786,54.672],[108.723,54.601],[108.593,54.492],[108.546,54.429],[108.519,54.35],[108.473,54.277],[108.408,54.21],[108.362,54.173],[108.298,54.078],[108.275,54.036],[108.224,53.976],[108.062,53.849],[107.789,53.711],[107.627,53.611],[107.576,53.548],[107.551,53.502],[107.547,53.453],[107.535,53.439],[107.232,53.316],[107.072,53.241],[106.852,53.103],[106.78,53.045],[106.774,53.022],[106.873,53.029],[106.897,53.003],[106.881,52.973],[106.783,52.906],[106.757,52.869],[106.702,52.832],[106.579,52.742],[106.537,52.706],[106.452,52.656],[106.292,52.592],[106.06,52.512],[105.86,52.387],[105.692,52.216],[105.57,52.108],[105.419,52.03],[105.345,52.009],[105.286,51.979],[105.243,51.938],[105.165,51.906],[105.053,51.882],[104.935,51.87],[104.867,51.87],[104.812,51.87],[104.721,51.849],[104.662,51.806],[104.537,51.784],[104.343,51.783],[104.133,51.769],[103.791,51.732],[103.743,51.722],[103.723,51.711],[103.713,51.694],[103.745,51.669],[103.817,51.634],[104.156,51.535],[104.39,51.5],[104.655,51.482],[104.826,51.49],[104.903,51.522],[105.065,51.557],[105.435,51.614],[105.798,51.701],[105.967,51.774],[106.065,51.863],[106.134,51.916],[106.187,51.956],[106.261,52.103],[106.281,52.169],[106.258,52.231],[106.269,52.282],[106.314,52.323],[106.39,52.355],[106.497,52.383],[106.599,52.371],[106.693,52.338],[106.752,52.317],[106.806,52.329],[106.843,52.356],[106.905,52.447],[106.938,52.475],[107.099,52.542],[107.387,52.648],[107.579,52.701],[107.674,52.701],[107.763,52.714],[107.948,52.78],[108.007,52.837],[108.234,52.946],[108.288,52.989],[108.335,53.038],[108.33,53.056],[108.297,53.093],[108.302,53.109],[108.392,53.163],[108.661,53.302],[108.676,53.304],[108.703,53.283],[108.729,53.278],[108.768,53.281],[108.931,53.344],[108.982,53.393],[108.989,53.45],[108.968,53.508],[108.921,53.566],[108.842,53.587],[108.732,53.571],[108.646,53.548],[108.545,53.508],[108.532,53.513],[108.619,53.582],[108.836,53.807],[108.891,53.842],[108.944,53.862],[108.994,53.869],[109.033,53.858],[109.061,53.831],[109.061,53.804],[109.034,53.76],[109.009,53.668],[109.03,53.639],[109.178,53.638],[109.199,53.66],[109.204,53.679],[109.204,53.737],[109.198,53.793],[109.211,53.828],[109.244,53.869],[109.426,53.998],[109.5,54.061],[109.538,54.116],[109.556,54.154],[109.554,54.174],[109.496,54.262],[109.49,54.38],[109.523,54.559],[109.544,54.629],[109.607,54.676],[109.633,54.772],[109.646,54.807],[109.684,54.85],[109.702,54.902],[109.716,54.932],[109.765,55.04],[109.768,55.083],[109.744,55.14],[109.75,55.185],[109.781,55.28],[109.791,55.33],[109.825,55.402],[109.857,55.446],[109.864,55.539],[109.861,55.575]]],[[[107.639,53.22],[107.438,53.103],[107.314,53.068],[106.963,53.023],[106.96,53.078],[106.995,53.107],[107.091,53.133],[107.353,53.21],[107.584,53.283],[107.744,53.399],[107.795,53.393],[107.767,53.267],[107.639,53.22]]]]}},{"type":"Feature","properties":{"slug":"goryeo","name":"Goryeo","start_year":918,"end_year":1392,"region_type":"kingdom","continental_zone":"Asia","source":"historical-basemaps"},"geometry":{"type":"MultiPolygon","coordinates":[[[[126.599,33.233],[126.587,33.231],[126.509,33.224],[126.482,33.221],[126.476,33.222],[126.446,33.229],[126.425,33.235],[126.417,33.236],[126.341,33.227],[126.331,33.226],[126.315,33.219],[126.31,33.216],[126.301,33.209],[126.297,33.205],[126.291,33.196],[126.286,33.193],[126.274,33.19],[126.266,33.191],[126.261,33.194],[126.227,33.216],[126.207,33.229],[126.186,33.247],[126.171,33.262],[126.158,33.279],[126.155,33.289],[126.158,33.315],[126.176,33.344],[126.184,33.353],[126.27,33.423],[126.312,33.45],[126.317,33.453],[126.372,33.473],[126.378,33.475],[126.634,33.532],[126.696,33.54],[126.793,33.551],[126.813,33.552],[126.821,33.551],[126.827,33.548],[126.836,33.541],[126.84,33.536],[126.891,33.525],[126.898,33.523],[126.941,33.454],[126.937,33.424],[126.919,33.393],[126.916,33.388],[126.908,33.379],[126.847,33.312],[126.843,33.308],[126.765,33.283],[126.725,33.27],[126.622,33.24],[126.599,33.233]]],[[[126.739,34.279],[126.731,34.279],[126.701,34.284],[126.696,34.287],[126.651,34.316],[126.648,34.32],[126.646,34.325],[126.649,34.35],[126.655,34.371],[126.658,34.376],[126.664,34.382],[126.669,34.385],[126.687,34.389],[126.694,34.389],[126.701,34.387],[126.714,34.378],[126.731,34.364],[126.771,34.296],[126.775,34.287],[126.772,34.282],[126.766,34.281],[126.739,34.279]]],[[[127.161,34.414],[127.146,34.415],[127.134,34.42],[127.116,34.434],[127.111,34.46],[127.114,34.464],[127.126,34.472],[127.132,34.474],[127.199,34.485],[127.213,34.486],[127.223,34.484],[127.239,34.474],[127.244,34.471],[127.246,34.466],[127.244,34.453],[127.242,34.447],[127.233,34.431],[127.229,34.427],[127.219,34.421],[127.214,34.419],[127.161,34.414]]],[[[127.786,34.474],[127.781,34.475],[127.758,34.487],[127.716,34.517],[127.713,34.521],[127.712,34.527],[127.716,34.531],[127.741,34.539],[127.751,34.542],[127.764,34.541],[127.771,34.538],[127.776,34.534],[127.786,34.519],[127.798,34.491],[127.798,34.485],[127.795,34.48],[127.791,34.476],[127.786,34.474]]],[[[126.18,34.351],[126.172,34.352],[126.15,34.354],[126.144,34.356],[126.112,34.379],[126.106,34.387],[126.102,34.397],[126.099,34.407],[126.099,34.413],[126.1,34.419],[126.102,34.425],[126.239,34.57],[126.243,34.573],[126.253,34.573],[126.273,34.566],[126.298,34.556],[126.335,34.54],[126.377,34.499],[126.38,34.495],[126.381,34.492],[126.383,34.484],[126.384,34.478],[126.383,34.472],[126.368,34.442],[126.347,34.405],[126.342,34.401],[126.262,34.371],[126.256,34.37],[126.199,34.353],[126.187,34.351],[126.18,34.351]]],[[[127.8,34.572],[127.793,34.573],[127.787,34.576],[127.759,34.591],[127.748,34.597],[127.74,34.604],[127.737,34.609],[127.734,34.613],[127.733,34.619],[127.733,34.636],[127.737,34.64],[127.768,34.664],[127.794,34.661],[127.812,34.641],[127.813,34.622],[127.807,34.582],[127.804,34.576],[127.8,34.572]]],[[[125.972,34.647],[125.964,34.649],[125.926,34.669],[125.918,34.676],[125.916,34.681],[125.914,34.686],[125.915,34.692],[125.918,34.697],[125.923,34.7],[125.956,34.713],[125.981,34.717],[125.994,34.708],[126.003,34.7],[126.006,34.696],[126.009,34.691],[126.006,34.686],[126.002,34.681],[125.991,34.668],[125.972,34.647]]],[[[126.001,34.79],[126.001,34.792],[126.004,34.79],[126.006,34.785],[126.003,34.773],[126.005,34.768],[126.009,34.764],[126.009,34.76],[126.003,34.758],[125.996,34.759],[125.988,34.761],[125.984,34.758],[125.98,34.753],[125.974,34.752],[125.967,34.754],[125.951,34.757],[125.945,34.755],[125.941,34.751],[125.938,34.745],[125.939,34.728],[125.936,34.723],[125.932,34.718],[125.912,34.717],[125.904,34.718],[125.891,34.728],[125.888,34.732],[125.889,34.739],[125.892,34.751],[125.894,34.764],[125.898,34.767],[125.908,34.773],[125.915,34.773],[125.922,34.774],[125.944,34.772],[125.951,34.773],[125.956,34.776],[125.974,34.79],[125.979,34.792],[125.986,34.792],[125.993,34.792],[126.001,34.79]]],[[[128.081,34.828],[128.013,34.833],[127.997,34.835],[127.99,34.837],[127.98,34.844],[127.973,34.852],[127.974,34.858],[127.977,34.864],[128.008,34.908],[128.017,34.914],[128.024,34.914],[128.031,34.912],[128.036,34.908],[128.066,34.879],[128.076,34.874],[128.079,34.87],[128.086,34.83],[128.081,34.828]]],[[[126.042,34.854],[125.993,34.858],[125.987,34.861],[125.984,34.865],[125.985,34.868],[126.002,34.89],[126.058,34.926],[126.063,34.928],[126.07,34.926],[126.075,34.923],[126.077,34.921],[126.094,34.91],[126.091,34.89],[126.09,34.885],[126.082,34.867],[126.079,34.862],[126.074,34.859],[126.064,34.854],[126.042,34.854]]],[[[127.962,34.798],[127.968,34.8],[127.99,34.817],[128.002,34.821],[128.032,34.818],[128.056,34.813],[128.069,34.808],[128.073,34.805],[128.076,34.8],[128.062,34.706],[128.061,34.701],[128.057,34.697],[128.044,34.695],[127.985,34.697],[127.977,34.698],[127.889,34.711],[127.88,34.712],[127.861,34.72],[127.857,34.724],[127.853,34.739],[127.822,34.843],[127.827,34.856],[127.837,34.88],[127.868,34.917],[127.876,34.926],[127.88,34.929],[127.886,34.931],[127.899,34.933],[127.915,34.93],[127.921,34.927],[127.927,34.924],[127.931,34.921],[127.934,34.916],[127.936,34.911],[127.938,34.902],[127.91,34.874],[127.907,34.869],[127.909,34.847],[127.91,34.842],[127.916,34.833],[127.956,34.801],[127.962,34.798]]],[[[128.743,34.788],[128.742,34.782],[128.686,34.724],[128.68,34.722],[128.642,34.709],[128.636,34.707],[128.612,34.701],[128.594,34.698],[128.588,34.699],[128.585,34.704],[128.601,34.76],[128.604,34.809],[128.601,34.831],[128.598,34.835],[128.592,34.837],[128.552,34.824],[128.54,34.816],[128.536,34.812],[128.526,34.806],[128.521,34.809],[128.498,34.832],[128.495,34.836],[128.491,34.846],[128.489,34.856],[128.491,34.869],[128.494,34.88],[128.502,34.887],[128.507,34.89],[128.641,34.952],[128.664,34.96],[128.711,34.977],[128.728,34.943],[128.73,34.942],[128.735,34.933],[128.754,34.883],[128.754,34.877],[128.743,34.788]]],[[[126.1,35.046],[126.093,35.047],[126.059,35.055],[126.056,35.059],[126.058,35.084],[126.06,35.091],[126.064,35.095],[126.068,35.099],[126.117,35.131],[126.137,35.142],[126.149,35.146],[126.156,35.146],[126.162,35.143],[126.15,35.133],[126.147,35.133],[126.144,35.08],[126.116,35.053],[126.106,35.047],[126.1,35.046]]],[[[126.421,36.399],[126.382,36.403],[126.375,36.404],[126.366,36.411],[126.338,36.434],[126.336,36.439],[126.325,36.56],[126.325,36.566],[126.327,36.572],[126.334,36.581],[126.342,36.588],[126.347,36.591],[126.353,36.593],[126.36,36.593],[126.376,36.591],[126.379,36.586],[126.434,36.411],[126.432,36.404],[126.428,36.4],[126.421,36.399]]],[[[126.164,36.824],[126.159,36.828],[126.158,36.833],[126.161,36.838],[126.167,36.84],[126.172,36.837],[126.174,36.829],[126.169,36.826],[126.164,36.824]]],[[[130.876,37.45],[130.869,37.451],[130.819,37.468],[130.816,37.472],[130.812,37.481],[130.806,37.507],[130.806,37.513],[130.807,37.518],[130.839,37.53],[130.845,37.531],[130.912,37.546],[130.919,37.545],[130.924,37.519],[130.922,37.515],[130.922,37.482],[130.921,37.477],[130.887,37.453],[130.876,37.45]]],[[[126.449,37.592],[126.419,37.592],[126.41,37.594],[126.397,37.599],[126.386,37.605],[126.382,37.609],[126.375,37.617],[126.373,37.622],[126.372,37.627],[126.364,37.72],[126.372,37.63],[126.33,37.661],[126.21,37.754],[126.053,37.601],[125.909,37.511],[125.741,37.785],[125.562,37.836],[125.269,37.485],[125.182,37.656],[125.077,37.771],[124.77,37.936],[124.694,38.14],[124.736,38.28],[124.929,38.465],[125.269,38.568],[125.294,38.689],[125.028,38.816],[125.211,39.211],[125.296,39.364],[125.207,39.485],[124.922,39.619],[124.86,39.618],[124.688,39.605],[124.548,39.541],[124.443,39.573],[124.209,39.738],[124.134,39.843],[124.111,39.875],[129.825,41.861],[129.641,41.656],[129.591,41.47],[129.631,41.278],[129.561,41.073],[129.478,40.682],[129.177,40.63],[129.015,40.528],[128.791,40.354],[128.447,40.066],[128.236,39.97],[127.931,39.956],[127.672,39.866],[127.552,39.764],[127.441,39.624],[127.277,39.222],[127.405,39.075],[127.956,38.694],[128.144,38.535],[128.27,38.42],[128.28,38.43],[128.293,38.451],[128.301,38.468],[128.308,38.489],[128.313,38.514],[128.314,38.521],[128.314,38.532],[128.308,38.558],[128.306,38.563],[128.302,38.578],[128.304,38.584],[128.307,38.589],[128.321,38.599],[128.364,38.625],[128.389,38.579],[128.532,38.331],[128.626,38.144],[128.634,38.126],[128.638,38.121],[128.641,38.117],[128.858,37.859],[128.863,37.856],[128.878,37.852],[128.883,37.848],[128.999,37.736],[129.011,37.724],[129.05,37.686],[129.063,37.669],[129.063,37.657],[129.06,37.639],[129.066,37.624],[129.136,37.526],[129.19,37.465],[129.259,37.371],[129.342,37.257],[129.353,37.234],[129.354,37.228],[129.362,37.15],[129.366,37.147],[129.376,37.135],[129.429,37.068],[129.434,37.059],[129.432,37.053],[129.429,37.048],[129.424,37.045],[129.417,37.035],[129.415,37.028],[129.414,37.022],[129.414,37.016],[129.416,36.942],[129.424,36.9],[129.428,36.879],[129.431,36.869],[129.454,36.816],[129.459,36.807],[129.469,36.789],[129.475,36.774],[129.475,36.769],[129.473,36.71],[129.472,36.692],[129.47,36.686],[129.467,36.68],[129.462,36.676],[129.452,36.671],[129.442,36.665],[129.439,36.66],[129.422,36.634],[129.418,36.623],[129.417,36.617],[129.419,36.583],[129.42,36.578],[129.423,36.568],[129.427,36.558],[129.437,36.546],[129.441,36.536],[129.451,36.506],[129.451,36.501],[129.439,36.406],[129.438,36.4],[129.435,36.394],[129.418,36.37],[129.406,36.357],[129.391,36.339],[129.385,36.327],[129.382,36.314],[129.382,36.309],[129.387,36.036],[129.389,36.026],[129.394,36.017],[129.398,36.013],[129.419,36.0],[129.426,35.997],[129.45,35.993],[129.457,35.993],[129.463,35.995],[129.472,36],[129.482,36.008],[129.49,36.016],[129.528,36.051],[129.551,36.077],[129.557,36.079],[129.564,36.077],[129.574,36.064],[129.585,36.035],[129.588,36.019],[129.588,36.008],[129.587,36.0],[129.584,35.989],[129.487,35.683],[129.465,35.645],[129.473,35.603],[129.475,35.592],[129.474,35.58],[129.469,35.55],[129.466,35.537],[129.439,35.476],[129.347,35.345],[129.342,35.342],[129.281,35.301],[129.278,35.296],[129.242,35.209],[129.237,35.19],[129.175,35.147],[129.137,35.112],[128.979,35.085],[128.974,35.135],[128.929,35.094],[128.925,35.091],[128.919,35.089],[128.811,35.084],[128.735,35.093],[128.711,35.101],[128.62,35.149],[128.611,35.173],[128.573,35.17],[128.386,35.042],[128.378,35.036],[128.371,35.009],[128.372,35.005],[128.379,35.005],[128.391,35.008],[128.396,35.011],[128.405,35.018],[128.407,35.024],[128.411,35.03],[128.416,35.032],[128.466,35.05],[128.477,35.054],[128.483,35.051],[128.487,35.047],[128.501,35.008],[128.47,34.886],[128.463,34.869],[128.452,34.846],[128.446,34.839],[128.435,34.835],[128.409,34.832],[128.403,34.834],[128.336,34.871],[128.346,34.9],[128.357,34.905],[128.356,34.91],[128.351,34.931],[128.341,34.944],[128.329,34.949],[128.228,34.934],[128.216,34.931],[128.211,34.928],[128.208,34.923],[128.209,34.912],[128.208,34.9],[128.207,34.894],[128.204,34.888],[128.176,34.889],[128.154,34.894],[128.073,34.922],[128.067,34.924],[128.056,34.931],[128.05,34.937],[128.048,34.942],[128.047,34.947],[128.021,34.986],[127.909,34.955],[127.894,34.947],[127.883,34.943],[127.864,34.94],[127.831,34.947],[127.767,34.96],[127.661,34.905],[127.643,34.901],[127.635,34.902],[127.628,34.904],[127.619,34.911],[127.609,34.923],[127.606,34.939],[127.601,34.942],[127.593,34.942],[127.589,34.938],[127.569,34.918],[127.569,34.912],[127.576,34.887],[127.605,34.849],[127.611,34.841],[127.639,34.814],[127.655,34.812],[127.667,34.814],[127.673,34.816],[127.686,34.826],[127.69,34.83],[127.705,34.839],[127.711,34.841],[127.717,34.842],[127.774,34.844],[127.774,34.826],[127.769,34.795],[127.748,34.727],[127.744,34.723],[127.641,34.617],[127.635,34.615],[127.576,34.638],[127.556,34.651],[127.554,34.656],[127.556,34.692],[127.558,34.705],[127.563,34.717],[127.568,34.767],[127.522,34.857],[127.494,34.852],[127.418,34.819],[127.399,34.802],[127.364,34.751],[127.387,34.702],[127.392,34.698],[127.409,34.689],[127.429,34.677],[127.486,34.642],[127.489,34.638],[127.513,34.597],[127.514,34.591],[127.51,34.579],[127.389,34.471],[127.315,34.444],[127.244,34.511],[127.168,34.512],[127.14,34.516],[127.136,34.519],[127.129,34.528],[127.125,34.537],[127.123,34.548],[127.125,34.555],[127.132,34.565],[127.202,34.633],[127.206,34.636],[127.212,34.632],[127.213,34.627],[127.213,34.621],[127.211,34.614],[127.203,34.597],[127.192,34.575],[127.193,34.569],[127.207,34.569],[127.242,34.569],[127.329,34.652],[127.332,34.656],[127.353,34.693],[127.352,34.698],[127.338,34.738],[127.335,34.742],[127.329,34.743],[127.274,34.727],[127.217,34.707],[127.112,34.66],[127.092,34.651],[127.037,34.62],[127.01,34.602],[126.989,34.538],[126.989,34.532],[126.986,34.526],[126.966,34.504],[126.938,34.487],[126.897,34.449],[126.888,34.435],[126.889,34.412],[126.817,34.442],[126.812,34.446],[126.801,34.463],[126.8,34.492],[126.805,34.53],[126.804,34.558],[126.803,34.569],[126.799,34.579],[126.795,34.583],[126.79,34.586],[126.783,34.587],[126.777,34.586],[126.772,34.583],[126.766,34.573],[126.756,34.558],[126.684,34.434],[126.6,34.3],[126.594,34.299],[126.556,34.301],[126.525,34.316],[126.478,34.345],[126.462,34.473],[126.462,34.479],[126.463,34.485],[126.391,34.544],[126.318,34.565],[126.313,34.568],[126.288,34.59],[126.273,34.634],[126.265,34.671],[126.267,34.683],[126.289,34.742],[126.293,34.747],[126.297,34.751],[126.304,34.751],[126.311,34.749],[126.317,34.746],[126.328,34.735],[126.343,34.713],[126.351,34.699],[126.417,34.596],[126.452,34.578],[126.432,34.619],[126.451,34.648],[126.462,34.642],[126.473,34.637],[126.522,34.616],[126.529,34.614],[126.537,34.614],[126.606,34.617],[126.612,34.618],[126.618,34.619],[126.62,34.624],[126.503,34.715],[126.492,34.722],[126.477,34.725],[126.494,34.751],[126.608,34.779],[126.629,34.781],[126.635,34.782],[126.661,34.807],[126.66,34.813],[126.591,34.877],[126.54,34.873],[126.534,34.817],[126.531,34.804],[126.519,34.783],[126.515,34.779],[126.511,34.776],[126.499,34.776],[126.381,34.784],[126.376,34.786],[126.371,34.789],[126.369,34.794],[126.371,34.801],[126.379,34.809],[126.413,34.894],[126.434,34.964],[126.377,34.947],[126.376,34.941],[126.369,34.931],[126.344,34.917],[126.338,34.919],[126.333,34.922],[126.322,34.929],[126.318,34.932],[126.304,34.962],[126.248,35.11],[126.249,35.117],[126.251,35.123],[126.254,35.129],[126.264,35.135],[126.269,35.137],[126.345,35.152],[126.349,35.148],[126.353,35.132],[126.354,35.127],[126.353,35.121],[126.35,35.117],[126.343,35.106],[126.341,35.1],[126.343,35.096],[126.36,35.069],[126.416,35.02],[126.421,35.018],[126.431,35.023],[126.457,35.069],[126.459,35.091],[126.456,35.095],[126.444,35.101],[126.431,35.106],[126.421,35.112],[126.411,35.119],[126.387,35.148],[126.361,35.18],[126.364,35.228],[126.378,35.312],[126.387,35.337],[126.422,35.407],[126.425,35.412],[126.429,35.416],[126.441,35.43],[126.447,35.448],[126.457,35.462],[126.484,35.501],[126.492,35.51],[126.497,35.512],[126.523,35.525],[126.529,35.527],[126.619,35.547],[126.679,35.532],[126.684,35.529],[126.688,35.533],[126.687,35.539],[126.675,35.574],[126.669,35.588],[126.665,35.592],[126.659,35.594],[126.651,35.595],[126.644,35.595],[126.547,35.59],[126.536,35.586],[126.521,35.577],[126.515,35.576],[126.507,35.576],[126.499,35.578],[126.488,35.584],[126.477,35.596],[126.471,35.604],[126.469,35.609],[126.475,35.636],[126.479,35.64],[126.632,35.737],[126.642,35.742],[126.696,35.766],[126.707,35.771],[126.738,35.776],[126.752,35.778],[126.801,35.862],[126.788,35.895],[126.782,35.893],[126.733,35.882],[126.726,35.882],[126.62,35.889],[126.615,35.891],[126.614,35.896],[126.614,35.919],[126.615,35.926],[126.628,35.962],[126.632,35.967],[126.642,35.972],[126.705,35.985],[126.762,35.995],[126.854,36.035],[126.869,36.043],[126.873,36.055],[126.871,36.058],[126.869,36.061],[126.859,36.056],[126.739,36.006],[126.707,36.001],[126.689,36.0],[126.685,36.0],[126.674,36.005],[126.544,36.136],[126.537,36.219],[126.496,36.394],[126.481,36.481],[126.464,36.575],[126.466,36.58],[126.474,36.588],[126.5,36.592],[126.507,36.591],[126.512,36.587],[126.519,36.585],[126.525,36.587],[126.527,36.593],[126.527,36.599],[126.516,36.66],[126.497,36.724],[126.475,36.742],[126.469,36.744],[126.355,36.74],[126.347,36.74],[126.343,36.737],[126.307,36.697],[126.304,36.693],[126.305,36.687],[126.309,36.678],[126.323,36.662],[126.335,36.65],[126.337,36.646],[126.316,36.599],[126.293,36.582],[126.299,36.628],[126.299,36.639],[126.275,36.713],[126.273,36.717],[126.256,36.711],[126.251,36.707],[126.248,36.702],[126.244,36.69],[126.24,36.685],[126.235,36.682],[126.229,36.681],[126.193,36.671],[126.186,36.67],[126.173,36.673],[126.166,36.675],[126.128,36.705],[126.124,36.709],[126.129,36.752],[126.164,36.81],[126.192,36.82],[126.184,36.878],[126.188,36.882],[126.286,36.96],[126.291,36.962],[126.298,36.964],[126.304,36.962],[126.309,36.942],[126.322,36.884],[126.321,36.878],[126.314,36.868],[126.297,36.844],[126.281,36.815],[126.279,36.81],[126.28,36.804],[126.284,36.795],[126.289,36.786],[126.294,36.787],[126.325,36.804],[126.401,36.852],[126.415,36.897],[126.415,36.912],[126.414,36.915],[126.414,36.933],[126.407,36.936],[126.39,36.931],[126.383,36.929],[126.353,36.949],[126.348,36.952],[126.345,36.957],[126.335,36.986],[126.34,36.989],[126.35,36.994],[126.356,36.996],[126.393,37.005],[126.422,37.005],[126.429,37.005],[126.437,37.003],[126.442,37.0],[126.449,36.991],[126.478,36.934],[126.479,36.928],[126.477,36.922],[126.468,36.906],[126.462,36.898],[126.462,36.895],[126.463,36.864],[126.468,36.843],[126.472,36.839],[126.479,36.839],[126.483,36.842],[126.491,36.852],[126.496,36.864],[126.497,36.871],[126.514,36.941],[126.491,36.996],[126.499,37.05],[126.502,37.053],[126.518,37.052],[126.525,37.05],[126.567,37.025],[126.572,37.021],[126.62,36.973],[126.682,36.972],[126.761,36.97],[126.769,36.969],[126.777,36.967],[126.781,36.964],[126.823,36.914],[126.826,36.909],[126.831,36.894],[126.834,36.878],[126.834,36.873],[126.832,36.86],[126.829,36.854],[126.827,36.841],[126.829,36.766],[126.831,36.761],[126.834,36.757],[126.839,36.753],[126.846,36.752],[126.906,36.817],[126.992,36.911],[127.0,36.93],[126.922,36.917],[126.914,36.917],[126.908,36.919],[126.87,36.947],[126.866,36.951],[126.756,37.044],[126.753,37.049],[126.754,37.054],[126.773,37.119],[126.776,37.124],[126.782,37.126],[126.819,37.134],[126.853,37.138],[126.859,37.139],[126.865,37.141],[126.869,37.146],[126.87,37.172],[126.869,37.176],[126.77,37.174],[126.764,37.172],[126.759,37.169],[126.739,37.149],[126.723,37.132],[126.719,37.128],[126.707,37.124],[126.694,37.122],[126.688,37.124],[126.661,37.156],[126.661,37.162],[126.659,37.249],[126.662,37.254],[126.668,37.256],[126.699,37.262],[126.753,37.245],[126.766,37.232],[126.856,37.261],[126.862,37.263],[126.866,37.267],[126.864,37.272],[126.847,37.304],[126.843,37.308],[126.836,37.308],[126.815,37.297],[126.809,37.296],[126.802,37.296],[126.771,37.305],[126.722,37.328],[126.742,37.387],[126.733,37.385],[126.726,37.385],[126.717,37.386],[126.673,37.402],[126.666,37.404],[126.661,37.407],[126.656,37.411],[126.626,37.471],[126.622,37.481],[126.626,37.486],[126.632,37.487],[126.664,37.484],[126.671,37.485],[126.674,37.488],[126.663,37.541],[126.659,37.555],[126.652,37.567],[126.629,37.591],[126.572,37.62],[126.553,37.638],[126.55,37.642],[126.547,37.647],[126.546,37.652],[126.542,37.673],[126.532,37.669],[126.539,37.628],[126.514,37.597],[126.501,37.594],[126.449,37.592]]],[[[124.652,37.914],[124.643,37.916],[124.637,37.918],[124.633,37.922],[124.613,37.947],[124.61,37.957],[124.615,37.969],[124.624,37.974],[124.689,37.982],[124.71,37.984],[124.718,37.984],[124.726,37.982],[124.726,37.978],[124.732,37.976],[124.743,37.965],[124.746,37.96],[124.747,37.955],[124.744,37.95],[124.739,37.946],[124.701,37.918],[124.696,37.916],[124.652,37.914]]]]}},{"type":"Feature","properties":{"slug":"kamarupa","name":"Kamarupa","start_year":350,"end_year":1255,"region_type":"kingdom","continental_zone":"Asia","source":"historical-basemaps"},"geometry":{"type":"MultiPolygon","coordinates":[[[[98.627,25.204],[93.716,24.955],[94.492,26.507],[96.428,26.701],[98.637,27.479],[100.682,28.691],[101.219,26.991],[98.583,25.401],[98.627,25.204]]]]}},{"type":"Feature","properties":{"slug":"khmer-empire","name":"Khmer Empire","start_year":802,"end_year":1431,"region_type":"empire","continental_zone":"Asia","source":"historical-basemaps"},"geometry":{"type":"MultiPolygon","coordinates":[[[[100.585,13.472],[100.474,13.51],[100.24,13.49],[100.04,13.395],[99.93,13.261],[98.597,12.737],[98.486,13.112],[98.403,13.266],[98.199,13.645],[97.99,14.207],[101.606,15.569],[103.058,17.999],[104.111,17.999],[104.933,17.451],[105.4,16.331],[106.204,16.053],[106.451,16.188],[107.462,14.988],[107.898,13.682],[107.898,12.568],[106.93,11.842],[106.773,10.639],[106.704,10.448],[106.727,10.226],[106.749,10.067],[106.656,9.743],[106.482,9.552],[106.335,9.52],[106.229,9.552],[106.118,9.335],[105.927,9.189],[105.691,9.125],[105.503,9.029],[105.297,8.774],[105.208,8.654],[105.026,8.52],[104.907,8.475],[104.742,8.494],[104.778,8.881],[104.822,9.472],[104.89,9.695],[104.987,9.822],[104.979,9.981],[104.765,10.177],[104.428,10.285],[104.387,10.314],[104.272,10.399],[104.16,10.519],[104.003,10.538],[103.831,10.474],[103.739,10.493],[103.607,10.474],[103.525,10.524],[103.588,10.664],[103.67,10.766],[103.652,10.88],[103.525,11.058],[103.4,11.039],[103.192,10.905],[103.04,10.898],[102.963,11.368],[102.671,12.038],[102.658,12.066],[102.53,12.148],[102.324,12.186],[101.919,12.585],[101.724,12.655],[101.587,12.661],[101.329,12.559],[101.154,12.609],[101.023,12.673],[100.872,12.679],[100.871,12.806],[100.957,13.365],[100.909,13.447],[100.585,13.472]]]]}},{"type":"Feature","properties":{"slug":"pagan-empire","name":"Bagan","start_year":849,"end_year":1297,"region_type":"empire","continental_zone":"Asia","source":"historical-basemaps"},"geometry":{"type":"MultiPolygon","coordinates":[[[[99.482,21.659],[97.532,18.882],[97.444,19.102],[97.008,19.199],[96.699,19.124],[96.476,21.764],[95.895,22.635],[95.46,22.732],[94.879,22.684],[94.298,22.296],[93.966,19.194],[93.839,18.953],[93.695,19.01],[93.458,19.174],[93.675,19.251],[93.815,19.258],[93.748,19.473],[93.724,19.594],[93.416,19.943],[93.334,20.025],[93.248,20.038],[93.066,19.993],[92.894,20.113],[92.933,20.31],[92.921,20.374],[92.827,20.424],[92.663,20.405],[92.403,20.614],[92.176,20.887],[92.124,20.996],[92.067,21.115],[91.946,21.363],[91.846,21.909],[91.571,22.543],[91.41,22.721],[93.621,24.765],[93.622,24.768],[93.716,24.955],[98.627,25.204],[99.428,21.667],[99.482,21.659]]]]}},{"type":"Feature","properties":{"slug":"srivijaya","name":"Srivijaya Empire","start_year":650,"end_year":1275,"region_type":"empire","continental_zone":"Asia","source":"historical-basemaps"},"geometry":{"type":"MultiPolygon","coordinates":[[[[100.746,7.011],[100.975,6.853],[101.217,6.802],[101.428,6.828],[101.56,6.74],[101.68,6.464],[101.978,6.219],[102.074,6.154],[102.09,6.143],[102.325,6.099],[102.802,5.56],[103.114,5.148],[103.342,4.805],[103.379,4.545],[103.368,4.183],[103.308,3.795],[103.334,3.394],[103.339,3.312],[103.308,3.026],[103.351,2.804],[103.44,2.633],[103.678,2.411],[103.83,2.17],[104.148,1.446],[104.176,1.389],[104.011,1.42],[103.608,1.445],[103.428,1.381],[103.349,1.412],[103.115,1.609],[102.717,1.881],[102.447,2.033],[101.893,2.337],[101.434,2.666],[101.336,2.781],[101.264,3.225],[101.067,3.536],[100.664,3.904],[100.577,4.202],[100.594,4.425],[100.608,4.552],[100.559,4.736],[100.38,5.021],[100.224,5.853],[100.139,6.177],[100.159,6.34],[100.164,6.387],[100.222,6.521],[100.207,6.539],[100.746,7.011]]],[[[99.872,2.638],[99.863,2.568],[100.121,2.543],[100.456,2.118],[100.732,1.871],[100.854,1.877],[100.856,1.966],[100.801,2.068],[100.832,2.176],[101.06,2.081],[101.276,1.719],[101.474,1.548],[101.675,1.523],[101.868,1.435],[102.01,1.27],[102.136,0.94],[102.278,0.743],[102.472,0.623],[102.702,0.566],[103.047,0.528],[103.24,0.459],[103.463,0.288],[103.722,0.015],[103.714,-0.017],[103.687,-0.118],[103.501,-0.316],[103.409,-0.5],[103.238,-0.659],[103.311,-0.818],[103.384,-0.894],[103.747,-1.116],[104.121,-1.141],[104.23,-1.191],[104.298,-1.363],[104.355,-1.706],[104.352,-1.89],[104.472,-2.08],[104.568,-2.137],[104.813,-2.156],[104.61,-2.576],[104.678,-2.671],[104.995,-2.467],[105.365,-2.58],[105.445,-2.599],[105.564,-2.713],[105.629,-2.91],[105.943,-3.215],[105.711,-4.105],[105.693,-4.308],[105.797,-4.734],[105.787,-4.931],[105.796,-5.23],[105.796,-5.35],[105.728,-5.827],[105.689,-5.897],[105.641,-5.929],[105.476,-5.815],[105.304,-5.58],[105.187,-5.542],[105.069,-5.759],[105.033,-5.879],[104.563,-5.601],[104.465,-5.639],[104.642,-5.976],[104.568,-6.071],[104.477,-5.982],[103.873,-5.342],[103.523,-4.999],[103.069,-4.613],[102.462,-4.182],[102.287,-3.979],[102.197,-3.757],[102.111,-3.604],[101.66,-3.319],[101.345,-3.015],[100.812,-2.336],[100.779,-2.177],[100.796,-2.025],[100.65,-1.631],[100.272,-0.971],[99.972,-0.501],[99.697,-0.152],[99.53,-0.017],[99.401,0.088],[99.113,0.221],[98.999,0.558],[98.689,1.37],[98.719,1.479],[98.671,1.618],[98.601,1.707],[98.303,1.935],[97.983,2.112],[97.74,2.207],[97.597,2.251],[98.71,2.854],[99.858,2.904],[99.872,2.638]]],[[[108.841,0.331],[108.87,0.541],[108.814,0.808],[108.896,1.1],[108.956,1.259],[109.146,1.52],[109.282,1.883],[109.426,1.87],[109.518,1.821],[109.554,1.801],[109.723,1.617],[109.902,1.554],[110.289,1.516],[110.475,1.441],[110.818,1.244],[110.968,1.226],[111.263,0.79],[110.636,0.163],[110.706,-0.604],[111.333,-1.37],[110.102,-3.079],[110.076,-2.786],[110.066,-2.494],[109.946,-1.859],[109.941,-1.643],[109.783,-1.306],[109.6,-1.122],[109.245,-0.932],[109.179,-0.869],[109.429,-0.71],[109.19,-0.539],[109.073,-0.405],[109.158,-0.075],[109.124,-0.017],[108.999,0.198],[108.841,0.331]]],[[[105.144,-6.782],[105.286,-6.771],[105.467,-6.813],[105.633,-6.755],[105.664,-6.519],[105.672,-6.456],[105.811,-6.482],[105.792,-6.257],[105.891,-6.151],[105.933,-6.026],[106.024,-6.081],[106.308,-6.131],[106.521,-6.11],[106.628,-6.309],[106.864,-6.27],[106.935,-6.136],[106.945,-6.026],[107.061,-6.078],[107.34,-6.154],[107.525,-6.351],[107.677,-6.33],[107.769,-6.452],[107.97,-6.439],[108.173,-6.356],[108.309,-6.451],[108.475,-6.686],[108.556,-6.921],[108.953,-6.939],[109.161,-7.023],[109.217,-7.014],[109.115,-7.739],[109.037,-7.72],[108.61,-7.702],[108.361,-7.836],[108.16,-7.856],[107.73,-7.787],[107.368,-7.565],[107.207,-7.534],[106.484,-7.503],[106.32,-7.434],[106.345,-7.37],[106.547,-7.16],[106.366,-7.04],[106.118,-6.996],[105.89,-6.933],[105.752,-6.92],[105.185,-6.866],[105.144,-6.782]]],[[[106.164,-2.998],[105.995,-2.89],[105.902,-2.725],[105.882,-2.56],[105.812,-2.382],[105.583,-2.205],[105.453,-2.161],[105.252,-2.174],[105.2,-2.11],[105.321,-1.818],[105.427,-1.71],[105.656,-1.957],[105.722,-1.747],[105.863,-1.626],[105.896,-1.804],[106.037,-2.204],[106.329,-2.572],[106.643,-2.711],[106.523,-2.794],[106.471,-2.921],[106.553,-3.175],[106.164,-2.998]]]]}},{"type":"Feature","properties":{"slug":"malay-kingdoms","name":"Malays","start_year":200,"end_year":1511,"region_type":"confederation","continental_zone":"Asia","source":"historical-basemaps"},"geometry":{"type":"MultiPolygon","coordinates":[[[[125.911,6.849],[125.748,7.186],[125.615,7.236],[125.443,6.963],[125.28,6.594],[125.391,6.423],[125.466,6.245],[125.533,5.94],[125.461,5.717],[125.289,5.488],[125.152,5.602],[125.073,5.723],[125.163,5.907],[125.129,6.053],[124.966,6.085],[124.803,5.786],[124.725,5.811],[124.224,6.09],[123.973,6.337],[123.881,6.565],[123.864,6.851],[124.074,7.258],[124.025,7.474],[123.815,7.658],[123.465,7.791],[123.334,7.771],[123.306,7.695],[123.248,7.593],[123.023,7.478],[122.725,7.452],[122.713,7.675],[122.635,7.783],[122.455,7.693],[122.228,7.261],[121.992,6.873],[121.894,6.911],[121.84,6.968],[121.824,7.057],[121.849,7.196],[122.01,7.533],[122.094,7.775],[122.212,7.902],[122.384,7.985],[122.638,8.005],[122.736,8.062],[122.796,8.272],[122.889,8.342],[123.136,8.451],[123.486,8.496],[123.617,8.337],[123.663,8.014],[123.805,8.084],[124.024,8.11],[124.117,8.192],[124.21,8.447],[124.372,8.561],[124.587,8.467],[124.671,8.429],[124.742,8.918],[124.872,8.925],[124.991,8.715],[125.133,8.932],[125.225,8.995],[125.401,8.951],[125.461,9.053],[125.44,9.371],[125.362,9.625],[125.428,9.784],[125.614,9.536],[125.934,9.175],[126.037,8.959],[126.075,8.813],[125.923,8.482],[126.03,8.381],[126.272,8.426],[126.306,8.235],[126.254,8.045],[126.28,7.733],[126.373,7.537],[126.372,7.34],[126.322,7.149],[126.195,6.888],[126.045,6.608],[125.955,6.652],[125.911,6.849]]],[[[110.893,1.511],[110.97,1.759],[111.134,2.033],[111.372,2.599],[111.635,2.72],[112.301,2.874],[112.759,3.009],[112.952,3.155],[113.188,3.615],[113.423,3.76],[113.815,4.263],[113.913,4.358],[114.023,4.425],[114.074,4.455],[114.167,4.511],[114.45,4.563],[114.745,4.984],[114.854,5.016],[114.823,4.895],[114.878,4.856],[114.962,4.877],[115.037,4.895],[115.121,4.831],[115.159,4.838],[115.361,4.876],[115.434,5.003],[115.418,5.111],[115.203,5.276],[115.292,5.454],[115.488,5.486],[115.717,5.468],[115.787,5.74],[115.971,5.881],[116.099,6.097],[116.338,6.358],[116.562,6.823],[116.596,6.899],[116.741,6.69],[116.889,6.646],[117.031,6.837],[117.168,6.614],[117.326,6.488],[117.507,6.393],[117.541,6.24],[117.459,6.081],[117.354,5.878],[117.37,5.789],[117.654,5.847],[117.867,5.904],[117.918,5.803],[117.762,5.58],[118.095,5.625],[118.256,5.664],[118.377,5.639],[118.843,5.341],[118.998,5.278],[119.043,5.17],[118.971,5.049],[118.881,4.979],[118.683,4.915],[118.416,4.902],[118.108,4.939],[117.948,4.799],[117.992,4.685],[118.391,4.374],[118.319,4.234],[118.112,4.145],[117.822,4.1],[117.589,4.048],[117.559,3.981],[117.541,3.94],[117.684,3.629],[117.58,3.565],[117.335,3.546],[117.074,3.507],[117.163,3.406],[117.215,3.272],[117.139,3.171],[117.236,3.075],[117.342,3.025],[117.588,2.651],[117.829,2.314],[117.848,2.225],[117.696,1.901],[117.73,1.799],[117.913,1.59],[118.247,1.387],[118.517,1.166],[118.765,0.823],[118.556,0.746],[118.218,0.758],[117.86,0.866],[117.708,0.821],[117.534,0.611],[117.375,0.197],[117.339,-0.017],[117.318,-0.14],[117.378,-0.432],[117.43,-0.622],[117.37,-1.004],[117.255,-1.004],[117.046,-0.935],[116.579,-1.368],[116.384,-1.66],[116.046,-1.934],[116.246,-2.106],[116.273,-2.283],[116.349,-2.417],[116.041,-2.443],[116.245,-2.703],[116.248,-2.798],[116.202,-2.9],[115.956,-3.199],[114.635,-1.659],[113.772,-1.875],[112.801,-1.875],[111.333,-1.37],[110.706,-0.604],[110.636,0.163],[111.263,0.79],[110.968,1.226],[111.12,1.27],[110.893,1.511]]],[[[120.636,0.922],[120.767,1.139],[120.991,1.165],[121.263,1.102],[121.591,0.861],[121.792,0.849],[122.181,0.869],[122.396,0.793],[122.733,0.673],[122.992,0.775],[123.826,0.739],[124.15,0.797],[124.432,0.956],[124.527,1.083],[124.457,1.204],[124.545,1.331],[124.72,1.44],[124.852,1.624],[124.982,1.65],[125.016,1.542],[124.983,1.3],[124.931,1.16],[124.894,1.103],[124.857,1.046],[124.421,0.479],[124.234,0.301],[124.025,0.256],[123.472,0.153],[123.249,0.185],[122.983,0.375],[122.466,0.405],[121.948,0.379],[121.552,0.397],[121.085,0.377],[120.826,0.414],[120.524,0.401],[120.454,0.384],[120.337,0.356],[120.143,0.191],[120.026,-0.017],[119.957,-0.14],[119.873,-0.465],[119.904,-0.681],[120.022,-0.903],[120.109,-0.985],[120.291,-1.086],[120.407,-1.175],[120.507,-1.448],[120.587,-1.518],[120.688,-1.537],[121.055,-1.549],[121.168,-1.428],[121.461,-0.989],[121.634,-1.014],[121.772,-1.096],[121.995,-1.114],[122.159,-1.012],[122.46,-0.942],[122.739,-0.878],[122.86,-0.744],[122.981,-0.718],[123.191,-0.807],[123.25,-0.902],[123.213,-1.233],[123.002,-1.112],[122.757,-1.094],[122.594,-1.228],[122.42,-1.463],[122.223,-1.654],[121.746,-1.852],[121.65,-1.999],[121.586,-2.011],[121.477,-1.993],[121.267,-1.936],[121.253,-1.961],[121.265,-2.101],[121.36,-2.158],[121.664,-2.418],[121.874,-2.653],[122.258,-3.211],[122.215,-3.357],[122.144,-3.663],[122.19,-3.847],[122.391,-4.088],[122.641,-4.284],[122.669,-4.386],[122.648,-4.513],[122.452,-4.488],[122.159,-4.514],[121.974,-4.648],[121.873,-4.96],[121.649,-4.947],[121.441,-4.865],[121.393,-4.789],[121.416,-4.497],[121.508,-4.236],[121.068,-3.856],[120.881,-3.716],[120.802,-3.596],[120.818,-3.487],[120.946,-3.309],[120.999,-3.049],[120.925,-2.826],[120.593,-2.802],[120.419,-2.875],[120.367,-2.897],[120.144,-3.076],[120.216,-3.235],[120.28,-3.654],[120.25,-3.883],[120.143,-4.398],[120.307,-4.804],[120.302,-4.944],[120.133,-5.23],[120.124,-5.332],[120.248,-5.586],[119.922,-5.663],[119.691,-5.772],[119.477,-5.804],[119.367,-5.658],[119.295,-5.423],[119.365,-5.277],[119.446,-5.067],[119.477,-4.672],[119.504,-4.189],[119.448,-3.961],[119.461,-3.808],[119.365,-3.63],[119.226,-3.574],[119.05,-3.65],[118.791,-3.663],[118.796,-3.479],[118.684,-2.901],[118.743,-2.761],[118.964,-2.526],[119.175,-2.176],[119.247,-1.959],[119.207,-1.546],[119.205,-1.432],[119.244,-1.228],[119.396,-0.904],[119.597,-0.878],[119.578,-0.491],[119.692,-0.017],[119.697,0.005],[119.914,0.54],[120.109,0.724],[120.239,0.788],[120.432,0.636],[120.562,0.776],[120.636,0.922]]]]}},{"type":"Feature","properties":{"slug":"nepal","name":"Nepal","start_year":900,"end_year":1768,"region_type":"kingdom","continental_zone":"Asia","source":"historical-basemaps"},"geometry":{"type":"MultiPolygon","coordinates":[[[[81.108,30.191],[82.036,30.191],[83.543,29.285],[85.862,28.201],[85.088,27.692],[84.509,27.312],[83.079,27.277],[80.103,29.015],[80.673,29.683],[81.108,30.191]]]]}},{"type":"Feature","properties":{"slug":"kara-khitai","name":"Kara Khitai Khaganate","start_year":1124,"end_year":1218,"region_type":"empire","continental_zone":"Asia","source":"historical-basemaps"},"geometry":{"type":"MultiPolygon","coordinates":[[[[76.812,33.182],[76.611,35.925],[73.256,37.221],[69.333,35.686],[67.884,36.852],[67.342,37.213],[66.71,37.213],[66.529,38.116],[64.632,38.839],[63.729,39.471],[63.121,39.809],[55.487,39.345],[54.929,39.159],[54.868,36.806],[54.067,36.942],[54.009,37.349],[54.015,37.348],[53.985,37.518],[53.928,37.824],[53.88,38.025],[53.937,38.159],[53.937,38.332],[53.937,38.571],[53.985,38.657],[54.033,38.792],[54.071,38.897],[54.033,38.993],[53.918,39.05],[53.775,39.136],[53.679,39.251],[53.66,39.318],[53.583,39.318],[53.497,39.338],[53.334,39.385],[53.248,39.299],[53.209,39.405],[53.248,39.452],[53.315,39.567],[53.372,39.52],[53.545,39.539],[53.736,39.5],[53.794,39.491],[53.813,39.548],[53.669,39.644],[53.554,39.654],[53.516,39.778],[53.559,39.843],[55.472,40.246],[57.255,41.646],[57.346,41.573],[57.43,41.579],[57.527,41.594],[57.685,41.636],[57.818,41.7],[57.865,41.773],[57.845,41.838],[57.7,41.913],[57.682,42.01],[57.632,42.066],[57.63,42.069],[59.181,44.431],[59.649,44.34],[59.648,44.32],[59.567,44.243],[59.54,44.198],[59.53,44.169],[59.541,44.148],[59.718,44.163],[59.811,44.182],[59.921,44.235],[59.936,44.253],[59.928,44.269],[59.898,44.281],[59.886,44.297],[59.89,44.316],[59.92,44.329],[59.975,44.336],[60.013,44.362],[60.034,44.407],[60.029,44.484],[59.996,44.593],[59.998,44.67],[60.036,44.716],[60.38,44.804],[60.784,44.953],[61.236,45.31],[61.613,45.571],[61.543,45.857],[61.677,46.126],[61.951,46.209],[61.473,46.459],[62.748,47.447],[65.848,55.103],[78.362,56.41],[88.845,56.461],[86.911,41.406],[85.946,41.406],[85.233,40.998],[85.131,40.183],[85.844,39.572],[88.289,38.961],[87.678,38.655],[88.086,38.146],[79.833,35.497],[79.845,35.225],[79.898,34.051],[79.808,33.058],[76.812,33.182]],[[78.93,46.788],[78.868,46.799],[78.823,46.795],[78.793,46.78],[78.787,46.755],[78.784,46.735],[78.761,46.724],[78.63,46.747],[78.581,46.723],[78.551,46.707],[78.504,46.665],[78.476,46.625],[78.452,46.618],[78.433,46.652],[78.397,46.658],[78.368,46.643],[78.359,46.623],[78.348,46.512],[78.324,46.482],[78.297,46.469],[78.169,46.58],[78.136,46.595],[77.86,46.648],[77.69,46.659],[77.645,46.656],[77.602,46.64],[77.37,46.623],[77.266,46.611],[77.226,46.567],[77.175,46.556],[77.082,46.625],[76.859,46.644],[76.793,46.631],[76.7,46.667],[76.668,46.673],[76.6,46.665],[76.496,46.636],[76.45,46.641],[76.405,46.662],[76.336,46.729],[76.298,46.753],[76.203,46.78],[75.951,46.795],[75.826,46.818],[75.427,46.737],[75.338,46.73],[75.201,46.759],[75.163,46.775],[75.089,46.814],[74.974,46.814],[74.939,46.817],[74.804,46.781],[74.625,46.752],[74.553,46.69],[74.524,46.623],[74.43,46.578],[74.375,46.518],[74.28,46.47],[74.094,46.428],[74.023,46.369],[73.95,46.288],[74.027,46.222],[74.021,46.205],[73.982,46.186],[73.898,46.208],[73.829,46.185],[73.775,46.206],[73.752,46.203],[73.679,46.183],[73.646,46.15],[73.654,46.093],[73.663,46.062],[73.737,46.013],[73.715,45.983],[73.633,45.907],[73.56,45.816],[73.488,45.831],[73.463,45.826],[73.44,45.806],[73.451,45.78],[73.519,45.763],[73.532,45.734],[73.494,45.687],[73.444,45.657],[73.437,45.609],[73.465,45.582],[73.615,45.513],[73.663,45.436],[73.84,45.264],[73.877,45.239],[73.981,45.204],[73.999,45.189],[74.008,45.147],[73.993,45.112],[74.016,45.056],[74.01,45.034],[74.017,45.013],[74.056,44.994],[74.1,44.989],[74.12,45.0],[74.094,45.04],[74.101,45.059],[74.136,45.07],[74.143,45.103],[74.156,45.271],[74.151,45.317],[74.128,45.337],[74.087,45.344],[74.083,45.352],[74.089,45.509],[74.101,45.537],[74.231,45.615],[74.289,45.651],[74.313,45.671],[74.311,45.695],[74.245,45.74],[74.243,45.752],[74.251,45.761],[74.289,45.765],[74.303,45.79],[74.253,45.942],[74.258,45.977],[74.278,46.004],[74.37,46.02],[74.55,46.006],[74.599,46.022],[74.771,46.108],[74.794,46.13],[74.815,46.216],[74.857,46.294],[74.888,46.377],[74.911,46.405],[75.013,46.417],[75.067,46.451],[75.093,46.461],[75.121,46.446],[75.152,46.438],[75.212,46.427],[75.241,46.448],[75.256,46.474],[75.278,46.515],[75.304,46.519],[75.33,46.513],[75.35,46.47],[75.406,46.471],[75.448,46.498],[75.432,46.542],[75.404,46.61],[75.417,46.641],[75.463,46.671],[75.509,46.678],[75.553,46.673],[75.56,46.653],[75.562,46.646],[75.548,46.634],[75.508,46.636],[75.49,46.631],[75.492,46.596],[75.515,46.567],[75.558,46.53],[75.611,46.507],[75.715,46.516],[75.867,46.536],[75.909,46.536],[76.033,46.512],[76.176,46.532],[76.238,46.555],[76.464,46.542],[76.742,46.532],[76.853,46.492],[77.004,46.464],[77.104,46.454],[77.165,46.489],[77.282,46.473],[77.355,46.502],[77.429,46.5],[77.563,46.435],[77.652,46.415],[77.726,46.407],[77.781,46.423],[77.817,46.439],[77.865,46.429],[78.018,46.343],[78.075,46.328],[78.128,46.319],[78.161,46.319],[78.233,46.337],[78.317,46.35],[78.367,46.339],[78.409,46.299],[78.445,46.297],[78.462,46.313],[78.435,46.352],[78.438,46.377],[78.465,46.392],[78.544,46.401],[78.625,46.38],[78.711,46.396],[78.787,46.385],[78.89,46.37],[78.971,46.406],[79.023,46.447],[79.068,46.526],[79.095,46.582],[79.157,46.603],[79.217,46.61],[79.236,46.634],[79.245,46.645],[79.245,46.68],[79.222,46.72],[79.177,46.764],[79.122,46.799],[79.084,46.81],[79.052,46.808],[79.022,46.795],[79.019,46.768],[78.991,46.749],[78.93,46.788]]]]}},{"type":"Feature","properties":{"slug":"bhutan","name":"Bhutan","start_year":600,"end_year":1907,"region_type":"kingdom","continental_zone":"Asia","source":"historical-basemaps"},"geometry":{"type":"MultiPolygon","coordinates":[[[[93.622,24.768],[89.575,27.299],[91.83,27.277],[94.153,27.668],[94.492,26.507],[93.716,24.955],[93.622,24.768]]]]}},{"type":"Feature","properties":{"slug":"delhi-sultanate","name":"Sultanate of Delhi","start_year":1206,"end_year":1526,"region_type":"sultanate","continental_zone":"Asia","source":"historical-basemaps"},"geometry":{"type":"MultiPolygon","coordinates":[[[[71.404,32.532],[72.21,33.372],[76.812,33.182],[79.808,33.058],[80.079,31.884],[79.808,31.161],[79.808,30.709],[79.974,30.217],[80.054,29.982],[80.673,29.683],[80.103,29.015],[83.079,27.277],[84.509,27.312],[85.088,27.692],[86.409,27.33],[89.575,27.299],[93.622,24.768],[93.621,24.765],[91.41,22.721],[91.081,22.561],[90,22.561],[90,22.325],[90,22.231],[88.966,22.493],[82.223,24.469],[81.446,23.953],[79.463,25.171],[76.994,25.777],[74.965,26.425],[74.05,25.859],[71.907,25.746],[71.907,27.436],[72.412,27.671],[75.476,29.097],[71.32,31.29],[71.404,32.532]]]]}},{"type":"Feature","properties":{"slug":"rajput-kingdoms","name":"Rajput Kingdoms","start_year":700,"end_year":1200,"region_type":"confederation","continental_zone":"Asia","source":"historical-basemaps"},"geometry":{"type":"MultiPolygon","coordinates":[[[[71.907,27.436],[71.907,25.746],[74.05,25.859],[74.965,26.425],[76.994,25.777],[79.463,25.171],[81.446,23.953],[82.223,24.469],[88.966,22.493],[90,22.231],[90,22.135],[90,22.058],[90,22.02],[90,21.93],[89.903,22.108],[89.87,22.133],[89.796,21.832],[89.67,21.72],[89.579,21.701],[89.457,21.942],[89.234,21.655],[89.072,21.774],[88.995,21.629],[89.026,21.547],[88.881,21.515],[88.723,21.54],[88.657,21.857],[88.568,21.895],[88.454,21.736],[88.377,21.577],[88.3,21.552],[88.248,21.596],[88.122,21.863],[88.053,21.939],[87.867,21.697],[87.641,21.563],[87.194,21.384],[86.937,21.288],[86.819,21.187],[86.796,21.136],[86.844,20.875],[86.926,20.691],[86.775,20.469],[86.638,20.319],[86.632,20.204],[86.386,20.017],[86.119,19.807],[85.909,19.724],[85.715,19.698],[85.379,19.605],[85.113,19.442],[84.907,19.181],[84.659,18.933],[84.325,18.53],[84.263,18.456],[83.988,18.207],[83.685,18.083],[83.381,17.711],[83.077,17.5],[82.846,17.383],[82.75,17.335],[82.546,17.226],[82.354,17.086],[82.267,16.857],[82.235,16.647],[82.081,16.463],[81.789,16.329],[81.597,16.303],[81.369,16.347],[81.253,16.226],[81.088,15.827],[80.963,15.723],[80.736,15.837],[80.46,15.773],[78.203,14.814],[76.675,13.286],[75.44,11.75],[75.211,12.102],[74.962,12.877],[74.778,13.528],[74.734,13.683],[74.703,13.751],[74.421,14.375],[74.402,14.42],[74.377,14.462],[74.153,14.85],[74.032,15.059],[73.841,15.39],[73.573,16.038],[73.508,16.244],[73.494,16.288],[73.409,16.559],[73.396,16.616],[73.185,17.517],[73.064,18.032],[72.976,18.539],[72.853,19.245],[72.783,19.95],[72.759,20.058],[72.864,20.312],[73.11,20.687],[73.113,20.827],[72.931,20.954],[72.766,21.15],[72.715,21.436],[72.666,21.849],[72.696,22.129],[72.319,22.115],[72.233,22.02],[72.127,21.829],[72.131,21.746],[72.256,21.632],[72.289,21.55],[72.256,21.353],[72.121,21.155],[71.894,20.99],[71.529,20.824],[71.303,20.772],[71.024,20.657],[70.855,20.651],[70.467,20.777],[70.21,20.948],[69.752,21.398],[69.126,21.969],[68.894,22.286],[69.014,22.305],[69.492,22.249],[69.769,22.288],[69.969,22.351],[70.176,22.479],[70.411,22.753],[70.381,22.861],[70.31,22.829],[70.046,22.777],[69.665,22.789],[69.392,22.839],[69.107,22.899],[68.882,22.997],[68.791,23.029],[68.373,23.326],[68.072,23.675],[68.865,24.481],[70.289,27.578],[70.958,28.581],[71.156,28.878],[71.32,31.29],[75.476,29.097],[72.412,27.671],[71.907,27.436]]]]}}]}