{"type": "FeatureCollection", "features": [{"type": "Feature", "properties": {"slug": "chactemal", "name": "Chactemal", "start_date": "0950", "end_date": "1544", "region_type": "mayan", "source_system": "OHM", "osm_type": "relation", "osm_id": "2840556"}, "geometry": {"type": "Polygon", "coordinates": [[[-87.8610661, 18.190283], [-87.8621507, 18.1907052], [-87.8626228, 18.1909906], [-87.8632665, 18.1927029], [-87.8632879, 18.1931718], [-87.8626657, 18.1945987], [-87.8623224, 18.195781], [-87.8621936, 18.1961887], [-87.8622365, 18.1968818], [-87.8627086, 18.1974933], [-87.8637815, 18.1985329], [-87.8644252, 18.1988795], [-87.8652621, 18.1988795], [-87.86582, 18.1987164], [-87.8661633, 18.1985737], [-87.8671932, 18.1976768], [-87.8679657, 18.1968003], [-87.8684807, 18.1959441], [-87.8694892, 18.1942725], [-87.8713131, 18.1889928], [-87.8719354, 18.1874639], [-87.8721071, 18.1866892], [-87.8727079, 18.1854457], [-87.873416, 18.1843448], [-87.873931, 18.1836517], [-87.8743601, 18.1829586], [-87.8749609, 18.1822655], [-87.8792739, 18.1772096], [-87.8804541, 18.176231], [-87.8821922, 18.1746204], [-87.885797, 18.1708895], [-87.888372, 18.1690547], [-87.8889728, 18.1684226], [-87.8910971, 18.1665469], [-87.8914833, 18.1659965], [-87.8994227, 18.1600022], [-87.9034353, 18.156006], [-87.9039073, 18.1554962], [-87.9067397, 18.1531718], [-87.9075766, 18.1527233], [-87.9088855, 18.1517038], [-87.91013, 18.1509697], [-87.9112244, 18.1503376], [-87.9125118, 18.149991], [-87.9137564, 18.1499298], [-87.9161597, 18.1499502], [-87.9174042, 18.1502561], [-87.9190135, 18.1509086], [-87.9203224, 18.1517649], [-87.9232836, 18.1544156], [-87.9316521, 18.1629178], [-87.9326606, 18.1644673], [-87.9332614, 18.1675052], [-87.9339266, 18.1686877], [-87.9439048, 18.1760377], [-87.9469303, 18.1863022], [-87.9491047, 18.2813934], [-87.9492692, 18.282466], [-87.9491274, 18.2850636], [-87.9516724, 18.3179956], [-87.9567032, 18.3326815], [-87.9601456, 18.3418921], [-87.9730633, 18.3604576], [-87.9783326, 18.3688524], [-87.9817749, 18.378061], [-87.9820817, 18.3800608], [-87.9858857, 18.3861205], [-88.011106, 18.4047347], [-88.0167522, 18.4072863], [-88.019689, 18.4079923], [-88.0289844, 18.4121928], [-88.0295351, 18.4125826], [-88.0375418, 18.4145073], [-88.0468372, 18.4187077], [-88.049503, 18.4205941], [-88.0554203, 18.4232679], [-88.0873236, 18.4353536], [-88.096619, 18.4395535], [-88.1117657, 18.4526472], [-88.1225281, 18.472435], [-88.1259705, 18.4816381], [-88.1280304, 18.5005228], [-88.1295136, 18.5101844], [-88.1289807, 18.5199343], [-88.126452, 18.5293976], [-88.1220249, 18.5382109], [-88.0970517, 18.5863322], [-88.094523, 18.5957918], [-88.0622867, 18.6586065], [-88.0603867, 18.6660772], [-88.0656556, 18.7050845], [-88.0651226, 18.7148231], [-88.062594, 18.7242757], [-88.059905, 18.7296226], [-88.0596655, 18.7339997], [-88.0598191, 18.7349992], [-88.0598039, 18.735277], [-88.0609056, 18.7370284], [-88.0653765, 18.7751785], [-88.0652048, 18.8021558], [-88.0615999, 18.8253918], [-88.0549051, 18.8450506], [-88.036285, 18.8749861], [-88.1645972, 18.9095351], [-88.1790168, 18.8751034], [-88.1920631, 18.8640578], [-88.2092292, 18.8718548], [-88.2257087, 18.8751034], [-88.2373817, 18.8640578], [-88.2593543, 18.8263672], [-88.2916267, 18.7841177], [-88.3115394, 18.7548618], [-88.3513648, 18.7164965], [-88.3705909, 18.6904811], [-88.389817, 18.6306306], [-88.5621657, 18.6514512], [-88.724214, 18.405353], [-88.8011183, 18.2215263], [-88.865663, 18.0270585], [-88.8752103, 17.8960842], [-88.8848891, 17.7578432], [-88.8807692, 17.6597269], [-88.8587965, 17.5013199], [-88.8356223, 17.4978819], [-88.8127903, 17.4924781], [-88.7781147, 17.4970623], [-88.7521938, 17.5155616], [-88.7111667, 17.5664659], [-88.6867908, 17.5910127], [-88.6246494, 17.629299], [-88.5789875, 17.6505657], [-88.5209659, 17.6829516], [-88.4687809, 17.704539], [-88.4165958, 17.7114072], [-88.3630375, 17.7058473], [-88.3328251, 17.6960352], [-88.3060459, 17.6816432], [-88.2651905, 17.6600531], [-88.2236488, 17.6407509], [-88.1687171, 17.617847], [-88.1151588, 17.6060667], [-88.0691535, 17.6041033], [-88.0176654, 17.6040788], [-88.0177035, 17.6099166], [-88.0149569, 17.6192425], [-88.0126476, 17.6332023], [-88.0050454, 17.6483871], [-87.9968776, 17.6598031], [-87.9783381, 17.7168806], [-87.9717085, 17.7418768], [-87.9633595, 17.7917453], [-87.9604914, 17.8188106], [-87.9561998, 17.8318842], [-87.950535, 17.8429961], [-87.9398062, 17.8603978], [-87.9279639, 17.8813105], [-87.8822071, 17.9497362], [-87.8617688, 17.9915558], [-87.8408627, 18.0362251], [-87.8333392, 18.0579928], [-87.8302861, 18.062394], [-87.8264237, 18.066474], [-87.8192998, 18.0698195], [-87.8076268, 18.0754496], [-87.796898, 18.0823851], [-87.7907182, 18.088178], [-87.7850533, 18.0962551], [-87.7811051, 18.1042503], [-87.7778436, 18.1155081], [-87.7762128, 18.1283967], [-87.7770711, 18.138348], [-87.7800752, 18.1506639], [-87.78574, 18.1711343], [-87.790289, 18.1857311], [-87.7920708, 18.1912572], [-87.8089142, 18.1915206], [-87.8199864, 18.1918468], [-87.82372, 18.1919691], [-87.82475, 18.191806], [-87.8306723, 18.191806], [-87.8325177, 18.1919283], [-87.8337622, 18.1918468], [-87.8358651, 18.1914798], [-87.8407471, 18.1888441], [-87.8435361, 18.1874129], [-87.8442013, 18.1871581], [-87.8474093, 18.1864344], [-87.8478714, 18.1862325], [-87.8484139, 18.1859201], [-87.84956, 18.1847376], [-87.850509, 18.1843863], [-87.8528753, 18.18448], [-87.8533805, 18.1844683], [-87.8539968, 18.1837306], [-87.8543788, 18.1835316], [-87.8548102, 18.1834964], [-87.8553278, 18.1832623], [-87.8556852, 18.182993], [-87.8562274, 18.1826651], [-87.8563876, 18.182548], [-87.8566834, 18.1826768], [-87.8572996, 18.1833091], [-87.8572441, 18.1836113], [-87.8570008, 18.1838963], [-87.8575909, 18.1845691], [-87.8574193, 18.1848239], [-87.8575266, 18.1852316], [-87.8579235, 18.1853947], [-87.8582561, 18.1857209], [-87.8588569, 18.1861286], [-87.8587818, 18.1864242], [-87.858932, 18.1869033], [-87.8593826, 18.1872906], [-87.8596294, 18.1880856], [-87.8599191, 18.1883914], [-87.8597152, 18.1890947], [-87.8601766, 18.1900324], [-87.8605735, 18.1902363], [-87.8610661, 18.190283]]]}}]}