{"type":"FeatureCollection","features":[{"type":"Feature","properties":{"slug":"kingdom-of-cyprus","name":"Cyprus","start_year":1192,"end_year":1489,"region_type":"kingdom","continental_zone":"Europe","source":"historical-basemaps"},"geometry":{"type":"MultiPolygon","coordinates":[[[[33.78,35.208],[33.773,35.129],[33.925,34.953],[33.792,34.957],[33.733,34.909],[33.686,34.935],[33.539,34.944],[33.484,34.796],[33.131,34.68],[32.959,34.659],[32.915,34.636],[32.915,34.541],[32.817,34.539],[32.784,34.625],[32.603,34.615],[32.357,34.68],[32.271,34.72],[32.271,34.814],[32.199,34.861],[32.144,35.043],[32.18,35.058],[32.234,35.014],[32.301,35.016],[32.483,35.153],[32.597,35.156],[32.745,35.114],[32.78,35.153],[32.819,35.282],[32.795,35.361],[33.077,35.319],[33.374,35.306],[33.539,35.332],[33.907,35.437],[34.217,35.574],[34.458,35.645],[34.245,35.512],[34.048,35.408],[33.78,35.208]]]]}},{"type":"Feature","properties":{"slug":"kingdom-of-norway","name":"Norway","start_year":872,"end_year":1814,"region_type":"kingdom","continental_zone":"Europe","source":"historical-basemaps"},"geometry":{"type":"MultiPolygon","coordinates":[[[[11.179,59.07],[11.112,59.165],[10.829,59.106],[10.769,59.118],[10.657,59.224],[10.549,59.379],[10.634,59.45],[10.57,59.581],[10.407,59.497],[10.379,59.367],[10.43,59.26],[10.363,59.213],[10.211,59.07],[10.172,58.987],[9.938,58.94],[9.698,58.999],[9.346,58.845],[9.372,58.786],[9.146,58.656],[8.922,58.538],[8.175,58.172],[8.154,58.09],[8.03,58.066],[7.908,58.066],[6.959,57.972],[6.874,58.078],[6.726,58.137],[6.644,58.042],[6.479,58.09],[6.652,58.172],[6.231,58.278],[5.874,58.432],[5.615,58.455],[5.4,58.715],[5.531,58.881],[5.475,58.976],[5.627,58.964],[5.666,58.822],[5.794,58.916],[6.094,58.798],[5.984,58.887],[6.041,58.952],[6.266,58.993],[6.051,58.981],[5.94,58.934],[5.822,59.017],[5.772,59.076],[6.033,59.201],[6.238,59.284],[6.02,59.254],[5.877,59.313],[6.076,59.42],[6.113,59.527],[5.816,59.313],[5.8,59.432],[5.68,59.509],[5.683,59.414],[5.717,59.337],[5.529,59.266],[5.344,59.266],[5.35,59.39],[5.283,59.272],[5.177,59.307],[5.087,59.509],[5.383,59.711],[5.419,59.515],[5.449,59.658],[5.646,59.586],[5.741,59.628],[5.667,59.676],[5.97,59.711],[6.185,59.824],[5.91,59.753],[5.694,59.753],[5.543,59.824],[5.632,59.884],[5.806,59.949],[5.894,60.161],[5.525,60.168],[5.279,60.125],[5.096,60.264],[5.262,60.327],[5.551,60.509],[5.456,60.592],[5.255,60.564],[5.075,60.592],[4.98,60.689],[5.109,60.906],[5.387,61.026],[5.12,61.137],[5.018,61.305],[5.141,61.39],[5.101,61.699],[5.149,61.741],[5.416,61.77],[5.592,61.79],[5.797,61.77],[5.834,61.819],[5.719,61.88],[5.528,61.933],[5.426,62.009],[5.47,62.094],[5.565,62.15],[5.824,62.179],[6.053,62.335],[6.308,62.286],[6.533,62.336],[6.613,62.583],[6.989,62.542],[7.289,62.486],[7.547,62.599],[7.102,62.705],[6.982,62.846],[7.088,62.91],[7.606,62.904],[7.989,62.94],[8.231,62.841],[8.258,63.054],[8.472,63.176],[8.606,63.325],[8.957,63.404],[9.154,63.319],[9.216,63.284],[9.441,63.498],[9.832,63.684],[9.87,63.876],[10.066,64.056],[10.74,64.386],[10.891,64.473],[10.997,64.494],[11.214,64.416],[11.364,64.416],[11.508,64.517],[11.407,64.617],[11.47,64.675],[11.69,64.776],[11.896,64.913],[12.112,65.13],[12.222,65.101],[12.526,65.109],[12.496,65.384],[12.284,65.435],[12.479,65.617],[12.709,65.909],[13.087,65.88],[13.109,66.034],[13.152,66.136],[13.581,66.188],[13.403,66.349],[13.255,66.393],[13.169,66.458],[13.242,66.569],[13.383,66.679],[13.592,66.657],[13.992,66.687],[13.747,66.922],[13.859,66.959],[14.055,66.975],[14.373,67.093],[14.639,67.123],[14.778,67.217],[14.616,67.245],[14.569,67.329],[14.699,67.374],[14.976,67.523],[15.227,67.509],[15.385,67.464],[15.58,67.583],[15.746,67.597],[15.762,67.676],[15.572,67.821],[15.854,67.925],[15.92,68.049],[16.071,68.045],[16.233,67.911],[16.412,67.874],[16.649,68.046],[16.522,68.341],[16.719,68.311],[17.033,68.338],[17.126,68.416],[16.855,68.558],[17.04,68.659],[17.407,68.772],[17.449,68.887],[17.566,68.974],[17.895,69.035],[17.928,69.005],[18.052,69.028],[18.097,69.058],[18.319,69.359],[18.553,69.247],[18.985,69.315],[19.17,69.256],[19.289,69.211],[19.58,69.181],[17.009,67.248],[14.536,63.098],[14.344,62.948],[13.155,62.024],[12.792,61.33],[12.597,61.029],[12.174,60.956],[12.431,60.626],[12.548,60.434],[12.436,60.278],[12.423,60.039],[12.488,58.563],[11.736,57.698],[11.61,57.807],[11.709,58.025],[11.802,58.178],[11.614,58.247],[11.431,58.202],[11.407,58.331],[11.221,58.308],[11.14,58.851],[11.039,58.91],[11.179,59.07]]],[[[-24.219,65.534],[-24.162,65.607],[-23.973,65.687],[-23.571,65.681],[-23.267,65.725],[-23.426,65.827],[-23.608,65.98],[-23.466,66.133],[-23.341,66.134],[-22.911,65.944],[-22.609,65.923],[-22.474,65.996],[-22.56,66.113],[-22.841,66.281],[-22.676,66.391],[-22.21,66.29],[-21.779,66.254],[-21.443,66.13],[-21.242,65.882],[-21.296,65.699],[-21.495,65.568],[-21.08,65.205],[-20.831,65.366],[-20.672,65.424],[-20.389,65.475],[-20.168,65.556],[-20.141,65.651],[-20.217,66.001],[-19.973,66.111],[-19.748,65.907],[-19.556,65.768],[-19.336,65.674],[-19.239,65.667],[-19.156,65.725],[-19.275,65.929],[-19.165,66.003],[-19.044,66.017],[-18.676,66.091],[-18.369,65.895],[-18.128,65.786],[-17.884,65.757],[-17.861,65.837],[-18.022,66.078],[-17.57,66.013],[-16.922,65.978],[-16.568,66.029],[-16.376,66.132],[-16.385,66.454],[-15.86,66.419],[-15.574,66.207],[-15.071,66.061],[-14.763,66.055],[-14.641,65.945],[-14.754,65.697],[-14.4,65.567],[-13.647,65.495],[-13.59,65.43],[-13.526,65.183],[-13.557,65.009],[-13.626,64.894],[-13.694,64.779],[-13.893,64.721],[-14.26,64.713],[-14.348,64.67],[-14.366,64.476],[-14.598,64.267],[-14.821,64.195],[-15.077,64.209],[-15.267,64.28],[-15.634,64.057],[-15.876,63.993],[-16.534,63.784],[-16.918,63.733],[-17.244,63.733],[-17.591,63.689],[-17.944,63.425],[-18.157,63.367],[-18.642,63.324],[-18.961,63.337],[-19.553,63.415],[-19.827,63.478],[-20.404,63.698],[-20.88,63.74],[-21.079,63.711],[-21.548,63.718],[-22.373,63.773],[-22.507,63.866],[-22.311,63.952],[-21.804,64.11],[-21.488,64.376],[-21.857,64.383],[-22.086,64.44],[-22.279,64.619],[-22.392,64.662],[-22.554,64.625],[-23.258,64.574],[-23.508,64.559],[-23.675,64.659],[-23.611,64.746],[-23.437,64.804],[-23.136,64.847],[-22.778,64.855],[-22.45,64.906],[-21.978,64.95],[-21.809,65.037],[-21.729,65.182],[-21.794,65.298],[-21.955,65.378],[-22.146,65.385],[-22.362,65.45],[-22.814,65.471],[-23.183,65.427],[-23.374,65.354],[-23.678,65.317],[-24.147,65.439],[-24.219,65.534]]]]}},{"type":"Feature","properties":{"slug":"sardinia","name":"Sardinia","start_year":900,"end_year":1420,"region_type":"kingdom","continental_zone":"Europe","source":"historical-basemaps"},"geometry":{"type":"MultiPolygon","coordinates":[[[[8.82,38.977],[8.696,38.996],[8.582,39.066],[8.417,39.212],[8.374,39.308],[8.465,39.64],[8.508,39.946],[8.488,40.209],[8.428,40.465],[8.202,40.663],[8.159,40.785],[8.241,40.855],[8.406,40.862],[8.766,40.863],[8.918,40.94],[9.306,41.184],[9.591,40.903],[9.794,40.564],[9.788,40.442],[9.696,40.314],[9.631,40.096],[9.698,39.693],[9.648,39.457],[9.479,39.144],[9.296,39.233],[9.063,39.22],[8.999,39.175],[8.931,39.054],[8.82,38.977]]]]}},{"type":"Feature","properties":{"slug":"kingdom-of-hungary","name":"Hungary","start_year":1000,"end_year":1918,"region_type":"kingdom","continental_zone":"Europe","source":"historical-basemaps"},"geometry":{"type":"MultiPolygon","coordinates":[[[[16.448,46.104],[16.535,46.365],[16.296,46.408],[16.514,46.626],[16.448,46.778],[16.448,46.93],[16.557,47.06],[16.557,47.191],[16.644,47.3],[16.557,47.495],[16.482,48.196],[17.353,48.963],[17.87,48.8],[18.114,48.854],[18.114,48.99],[18.223,48.99],[18.25,49.181],[18.522,49.561],[18.927,49.622],[19.108,49.592],[19.138,49.713],[19.381,49.803],[19.562,49.713],[19.562,49.531],[19.713,49.531],[19.895,49.471],[20.016,49.803],[20.349,49.743],[20.53,49.803],[20.681,49.652],[20.893,49.743],[20.803,49.834],[20.893,49.834],[20.984,49.743],[21.135,49.834],[21.287,49.773],[21.317,49.864],[21.768,49.744],[21.771,49.743],[21.771,49.592],[22.881,49.225],[22.948,48.97],[24.132,48.811],[27.449,46.525],[27.366,46.34],[26.517,45.818],[23.056,45.034],[22.664,44.642],[22.338,44.773],[22.077,44.446],[21.358,44.773],[20.994,44.7],[20.705,44.642],[20.314,44.901],[20.291,44.9],[19.785,44.936],[17.949,44.813],[17.827,45.139],[17.338,45.139],[16.808,44.935],[15.912,45.631],[16.122,45.582],[16.209,45.734],[16.079,45.886],[16.209,46.147],[16.448,46.104]]]]}},{"type":"Feature","properties":{"slug":"republic-of-venice","name":"Venice","start_year":697,"end_year":1797,"region_type":"city-state","continental_zone":"Europe","source":"historical-basemaps"},"geometry":{"type":"MultiPolygon","coordinates":[[[[13.368,45.694],[13.156,45.727],[13.105,45.582],[12.899,45.558],[12.448,45.394],[12.483,45.462],[12.28,45.402],[12.251,45.29],[12.18,45.27],[12.176,45.214],[11.971,45.436],[12.145,45.763],[12.645,45.915],[13.081,45.98],[13.368,45.694]]],[[[14.175,45.01],[14.189,44.943],[14.06,44.895],[13.991,44.783],[13.895,44.759],[13.672,45.05],[13.644,45.179],[13.527,45.454],[13.556,45.46],[13.749,45.494],[13.8,45.566],[13.995,45.458],[13.952,45.393],[13.799,45.306],[13.908,44.979],[14.175,45.01]]]]}},{"type":"Feature","properties":{"slug":"corsica","name":"Corsica","start_year":1000,"end_year":1768,"region_type":"kingdom","continental_zone":"Europe","source":"historical-basemaps"},"geometry":{"type":"MultiPolygon","coordinates":[[[[9.432,42.794],[9.405,42.581],[9.459,42.556],[9.487,42.406],[9.453,42.048],[9.357,41.901],[9.305,41.575],[9.173,41.35],[9.039,41.369],[9.013,41.458],[8.829,41.492],[8.727,41.561],[8.855,41.654],[8.823,41.688],[8.627,41.732],[8.742,41.882],[8.693,41.913],[8.562,41.882],[8.538,41.948],[8.59,41.958],[8.668,42.029],[8.626,42.097],[8.511,42.134],[8.517,42.208],[8.628,42.262],[8.5,42.36],[8.609,42.487],[8.879,42.625],[9.0,42.635],[9.018,42.691],[9.149,42.711],[9.238,42.664],[9.28,42.728],[9.271,42.883],[9.303,42.983],[9.367,42.988],[9.414,42.91],[9.432,42.794]]]]}},{"type":"Feature","properties":{"slug":"duchy-of-benevento","name":"Dutchy of Benevento","start_year":571,"end_year":1053,"region_type":"kingdom","continental_zone":"Europe","source":"historical-basemaps"},"geometry":{"type":"MultiPolygon","coordinates":[[[[14.922,41.972],[15.449,41.857],[15.598,41.08],[15.767,40.574],[15.666,40.092],[15.516,40.066],[15.432,39.989],[15.027,40.212],[14.899,40.241],[14.992,40.372],[14.951,40.551],[14.743,40.705],[14.334,40.594],[14.35,40.643],[14.495,40.73],[14.37,40.851],[14.24,40.853],[14.051,40.768],[13.942,40.998],[13.853,41.091],[13.797,41.193],[13.761,41.207],[13.498,41.302],[13.761,41.207],[13.813,41.318],[13.979,41.335],[13.996,41.352],[14.029,41.401],[13.963,41.468],[13.963,41.518],[13.929,41.634],[13.88,41.634],[13.88,41.667],[13.929,41.75],[13.863,41.783],[13.863,41.75],[13.647,41.8],[13.647,41.75],[13.597,41.8],[13.569,41.856],[14.439,41.879],[14.739,42.047],[14.922,41.972]]],[[[14.622,36.776],[14.216,37.049],[13.868,37.157],[13.012,37.525],[12.637,37.582],[12.532,37.639],[12.454,37.766],[12.517,37.919],[12.664,38.072],[12.783,38.117],[13.066,38.067],[13.322,38.221],[13.628,38.03],[13.81,37.966],[14.134,37.973],[14.766,38.058],[15.387,38.206],[15.454,38.167],[15.473,38.11],[15.423,38.053],[15.181,37.682],[15.112,37.459],[15.116,37.287],[15.301,37.058],[15.221,37.0],[15.027,36.745],[14.942,36.739],[14.622,36.776]]]]}},{"type":"Feature","properties":{"slug":"duchy-of-burgundy","name":"Burgandy","start_year":918,"end_year":1477,"region_type":"kingdom","continental_zone":"Europe","source":"historical-basemaps"},"geometry":{"type":"MultiPolygon","coordinates":[[[[8.343,44.22],[8.186,44.126],[8.09,44.051],[7.98,43.965],[7.689,43.887],[7.553,43.867],[7.468,43.811],[7.397,43.764],[7.355,43.902],[6.923,43.815],[6.886,43.902],[6.96,43.914],[6.923,43.976],[6.997,44.05],[6.972,44.062],[6.935,44.136],[6.886,44.149],[6.836,44.112],[6.787,44.198],[6.787,44.297],[6.87,44.349],[6.783,44.548],[6.925,44.715],[7.003,44.72],[6.943,44.869],[6.665,44.955],[6.507,45.116],[6.28,45.199],[6.243,45.297],[6.268,45.322],[6.219,45.347],[6.145,45.322],[6.083,45.372],[6.033,45.334],[6.058,45.223],[5.947,45.26],[5.935,45.322],[5.841,45.385],[5.823,45.396],[5.607,45.847],[5.357,45.876],[5.357,46.053],[5.533,46.009],[5.533,46.097],[5.268,46.318],[5.416,46.524],[5.646,46.457],[5.725,46.48],[5.74,46.598],[5.626,46.649],[5.646,46.85],[5.757,46.887],[5.794,46.997],[5.667,47.108],[5.737,47.234],[5.779,47.359],[5.793,47.512],[5.918,47.595],[5.82,47.735],[5.96,47.804],[5.96,47.985],[6.057,47.957],[6.099,48.027],[6.252,47.957],[6.781,47.951],[7.27,47.462],[8.411,47.462],[8.493,46.117],[7.514,45.383],[7.677,44.731],[8.289,44.568],[8.343,44.22]]]]}},{"type":"Feature","properties":{"slug":"kingdom-of-croatia","name":"Croatia","start_year":925,"end_year":1918,"region_type":"kingdom","continental_zone":"Europe","source":"historical-basemaps"},"geometry":{"type":"MultiPolygon","coordinates":[[[[14.354,45.323],[14.527,45.783],[14.798,45.865],[14.88,45.484],[15.424,45.43],[15.47,45.734],[15.912,45.631],[16.808,44.935],[16.865,44.245],[16.701,43.847],[16.712,43.771],[16.64,43.39],[16.549,43.461],[16.367,43.513],[16.059,43.433],[15.913,43.652],[15.494,43.888],[15.412,43.935],[15.149,44.24],[15.274,44.237],[15.548,44.229],[15.286,44.329],[14.989,44.54],[14.907,44.723],[14.946,44.927],[14.815,45.078],[14.525,45.266],[14.354,45.323]]]]}},{"type":"Feature","properties":{"slug":"kingdom-of-poland","name":"Poland","start_year":1025,"end_year":1795,"region_type":"kingdom","continental_zone":"Europe","source":"historical-basemaps"},"geometry":{"type":"MultiPolygon","coordinates":[[[[20.984,49.743],[20.893,49.834],[20.803,49.834],[20.893,49.743],[20.681,49.652],[20.53,49.803],[20.349,49.743],[20.016,49.803],[19.895,49.471],[19.713,49.531],[19.562,49.531],[19.562,49.713],[19.381,49.803],[19.138,49.713],[19.108,49.592],[18.927,49.622],[18.522,49.561],[18.25,49.181],[18.223,48.99],[18.114,48.99],[18.114,48.854],[17.87,48.8],[17.353,48.963],[16.482,48.196],[16.4,48.481],[15.585,48.563],[15.3,48.277],[14.892,48.196],[13.955,48.44],[13.058,48.563],[12.12,49.541],[12.12,50.071],[12.772,50.438],[14.647,50.764],[14.729,51.131],[14.134,52.409],[15.844,52.71],[16.053,52.716],[18.59,53.1],[18.949,53.254],[19.206,53.254],[19.565,53.46],[20.078,53.665],[20.078,53.511],[20.386,53.511],[20.428,53.778],[20.709,53.758],[20.81,53.638],[21.105,53.819],[21.464,53.819],[24.169,54.28],[24.266,52.97],[23.48,53.024],[23.406,52.369],[23.077,51.886],[22.509,50.637],[22.881,49.225],[21.771,49.592],[21.771,49.743],[21.768,49.744],[21.317,49.864],[21.287,49.773],[21.135,49.834],[20.984,49.743]]]]}},{"type":"Feature","properties":{"slug":"celtic-kingdoms","name":"Celtic kingdoms","start_year":500,"end_year":1283,"region_type":"confederation","continental_zone":"Europe","source":"historical-basemaps"},"geometry":{"type":"MultiPolygon","coordinates":[[[[-2.75,51.644],[-3.173,51.467],[-3.499,51.46],[-4.159,51.677],[-4.999,51.702],[-5.179,51.787],[-5.249,51.86],[-5.061,52.006],[-4.619,52.094],[-4.295,52.2],[-4.124,52.373],[-4.094,52.746],[-4.148,52.832],[-4.468,52.811],[-4.621,52.831],[-4.492,52.991],[-4.318,53.091],[-3.957,53.205],[-3.33,53.233],[-2.914,53.267],[-2.75,51.644]]],[[[-7.428,55.064],[-7.225,55.104],[-6.997,55.172],[-6.645,55.206],[-6.454,55.187],[-6.279,55.14],[-6.117,55.16],[-6.018,55.093],[-5.785,54.737],[-5.764,54.657],[-5.8,54.523],[-5.662,54.322],[-5.731,54.175],[-5.912,54.027],[-6.072,53.974],[-6.206,53.957],[-6.343,53.94],[-6.443,53.899],[-6.335,53.786],[-6.172,53.439],[-6.043,52.893],[-6.071,52.767],[-6.232,52.613],[-6.341,52.427],[-6.406,52.214],[-6.489,52.194],[-6.617,52.221],[-6.894,52.207],[-6.962,52.111],[-7.372,52.092],[-7.751,52.033],[-7.862,51.968],[-8.159,51.84],[-8.565,51.615],[-8.848,51.6],[-9.243,51.473],[-9.819,51.435],[-9.795,51.605],[-9.835,51.803],[-10.217,51.758],[-10.294,51.978],[-9.964,52.092],[-10.497,52.102],[-10.469,52.207],[-9.891,52.194],[-9.802,52.241],[-9.784,52.341],[-9.736,52.48],[-9.504,52.541],[-9.193,52.554],[-9.134,52.681],[-9.616,52.637],[-9.442,52.833],[-9.526,52.905],[-9.309,53.115],[-8.997,53.12],[-8.924,53.161],[-9.002,53.3],[-9.158,53.221],[-9.297,53.28],[-9.441,53.266],[-9.617,53.346],[-9.803,53.345],[-9.885,53.297],[-10.16,53.374],[-10.021,53.512],[-10.151,53.576],[-9.81,53.632],[-9.872,53.768],[-9.696,53.873],[-9.913,53.97],[-10.179,53.912],[-10.16,54.133],[-9.989,54.254],[-9.892,54.326],[-9.474,54.241],[-9.323,54.275],[-9.086,54.258],[-8.59,54.203],[-8.687,54.364],[-8.301,54.489],[-8.211,54.634],[-8.829,54.634],[-8.76,54.701],[-8.504,54.75],[-8.476,54.88],[-8.345,55.095],[-8.118,55.177],[-7.756,55.253],[-7.657,55.117],[-7.498,55.05],[-7.428,55.064]]],[[[-5.698,55.331],[-5.756,55.477],[-5.689,55.628],[-5.518,55.668],[-5.482,55.443],[-5.62,55.33],[-5.698,55.331]]]]}},{"type":"Feature","properties":{"slug":"kingdom-of-scotland","name":"Scotland","start_year":843,"end_year":1707,"region_type":"kingdom","continental_zone":"Europe","source":"historical-basemaps"},"geometry":{"type":"MultiPolygon","coordinates":[[[[-2.886,54.169],[-3.261,54.141],[-3.479,54.275],[-3.569,54.415],[-3.43,54.643],[-3.153,54.838],[-3.309,54.885],[-3.577,54.924],[-3.908,54.79],[-4.122,54.762],[-4.622,56.348],[-4.915,56.935],[-4.831,57.774],[-4.15,57.835],[-4.249,57.636],[-4.148,57.555],[-3.796,57.542],[-3.401,57.576],[-3.093,57.577],[-2.854,57.543],[-2.15,57.572],[-1.945,57.402],[-2.108,57.21],[-2.203,57.065],[-2.159,57.014],[-2.413,56.717],[-2.515,56.667],[-2.667,56.471],[-2.981,56.354],[-3.152,56.337],[-2.949,56.253],[-2.721,56.178],[-2.773,56.171],[-2.895,56.086],[-3.17,56.062],[-3.294,55.974],[-3.895,55.985],[-3.713,55.885],[-3.577,55.885],[-3.356,55.843],[-3.161,55.846],[-2.928,55.946],[-2.742,55.957],[-2.54,55.885],[-2.245,55.811],[-1.942,55.556],[-2.065,55.3],[-1.897,54.336],[-2.886,54.169]]]]}},{"type":"Feature","properties":{"slug":"kingdom-of-sweden","name":"Sweden","start_year":970,"end_year":1974,"region_type":"kingdom","continental_zone":"Europe","source":"historical-basemaps"},"geometry":{"type":"MultiPolygon","coordinates":[[[[22.149,63.137],[22.957,61.389],[24.609,61.315],[27.966,60.504],[27.474,60.426],[27.406,60.345],[27.178,60.442],[26.946,60.376],[26.922,60.316],[26.613,60.348],[26.526,60.396],[26.552,60.571],[26.443,60.333],[26.323,60.27],[26.038,60.249],[25.89,60.236],[25.846,60.115],[25.581,60.262],[25.45,60.138],[25.146,60.11],[24.993,60.03],[24.969,60.087],[24.743,60.038],[24.516,59.989],[24.421,59.87],[24.281,59.938],[23.979,59.881],[23.961,59.932],[23.665,59.836],[23.419,59.83],[23.201,59.818],[22.982,59.932],[22.882,60.056],[23.005,60.209],[22.625,60.201],[22.392,60.121],[22.421,60.293],[22.221,60.259],[21.931,60.381],[21.747,60.408],[21.56,60.512],[21.443,60.694],[21.427,61.015],[21.498,61.183],[21.521,61.38],[21.561,61.485],[21.405,61.702],[21.211,61.871],[21.346,62.167],[21.338,62.344],[21.226,62.418],[21.2,62.435],[21.034,62.477],[21.062,62.612],[21.195,62.761],[21.481,62.889],[21.546,62.974],[21.495,63.123],[21.666,63.187],[21.951,63.131],[22.075,63.103],[22.149,63.137]]],[[[11.881,57.509],[11.766,57.673],[11.736,57.698],[12.488,58.563],[12.423,60.039],[12.436,60.278],[12.548,60.434],[12.431,60.626],[12.174,60.956],[12.597,61.029],[12.792,61.33],[13.155,62.024],[14.344,62.948],[16.193,62.756],[17.868,62.789],[17.936,62.548],[17.718,62.357],[17.29,62.441],[17.387,62.201],[17.497,62.088],[17.387,61.658],[17.163,61.63],[17.065,61.538],[17.15,61.198],[17.146,60.953],[17.318,60.753],[17.188,60.674],[17.605,60.638],[17.706,60.554],[17.931,60.59],[18.224,60.323],[18.417,60.182],[18.804,60.108],[18.893,59.926],[19.037,59.863],[19.044,59.712],[18.868,59.712],[18.639,59.567],[18.251,59.432],[18.03,59.359],[17.795,59.364],[17.73,59.416],[17.368,59.468],[17.071,59.546],[16.786,59.577],[16.724,59.531],[16.523,59.583],[16.408,59.447],[16.776,59.479],[17.0,59.359],[17.266,59.339],[17.358,59.245],[17.575,59.214],[17.584,59.271],[17.862,59.24],[17.978,59.328],[18.111,59.323],[18.328,59.37],[18.43,59.333],[18.441,59.401],[18.515,59.401],[18.611,59.333],[18.598,59.297],[18.273,59.287],[18.372,59.157],[18.016,59.038],[17.94,58.908],[17.766,58.872],[17.726,58.914],[17.745,58.986],[17.739,59.11],[17.623,59.1],[17.582,58.893],[17.357,58.743],[17.245,58.717],[17.083,58.748],[17.081,58.65],[16.443,58.634],[16.513,58.428],[16.744,58.312],[16.774,58.038],[16.725,57.889],[16.598,57.866],[16.46,57.895],[16.477,57.702],[16.607,57.666],[16.55,57.545],[16.659,57.443],[16.494,57.279],[16.395,57.074],[16.376,56.822],[16.063,56.396],[15.427,56.766],[14.485,56.68],[14.175,56.813],[13.432,56.524],[13.226,57.102],[12.896,56.978],[12.731,57.432],[12.524,57.391],[12.318,57.68],[11.877,57.325],[11.881,57.509]]],[[[18.169,56.91],[18.148,56.912],[18.14,56.915],[18.142,56.92],[18.158,56.942],[18.209,56.989],[18.257,57.032],[18.254,57.079],[18.173,57.142],[18.148,57.235],[18.158,57.316],[18.142,57.409],[18.115,57.481],[18.11,57.496],[18.11,57.513],[18.111,57.519],[18.119,57.531],[18.139,57.551],[18.179,57.588],[18.191,57.596],[18.212,57.606],[18.228,57.611],[18.242,57.617],[18.249,57.621],[18.276,57.634],[18.295,57.646],[18.339,57.682],[18.356,57.696],[18.382,57.719],[18.402,57.739],[18.42,57.76],[18.456,57.803],[18.461,57.808],[18.467,57.812],[18.481,57.819],[18.682,57.914],[18.69,57.916],[18.716,57.921],[18.725,57.923],[18.882,57.92],[18.902,57.918],[18.914,57.917],[19.005,57.909],[19.006,57.904],[19.004,57.899],[19.033,57.827],[18.929,57.74],[18.849,57.721],[18.809,57.704],[18.793,57.659],[18.76,57.508],[18.768,57.472],[18.769,57.467],[18.788,57.448],[18.714,57.247],[18.712,57.242],[18.658,57.221],[18.552,57.183],[18.515,57.169],[18.498,57.165],[18.456,57.157],[18.439,57.153],[18.417,57.144],[18.397,57.134],[18.391,57.13],[18.387,57.125],[18.346,57.08],[18.341,57.074],[18.339,57.069],[18.336,57.023],[18.336,57.017],[18.343,57.014],[18.347,56.999],[18.302,56.937],[18.295,56.935],[18.216,56.913],[18.206,56.912],[18.169,56.91]]]]}},{"type":"Feature","properties":{"slug":"kingdom-of-denmark","name":"Denmark","start_year":936,"end_year":1849,"region_type":"kingdom","continental_zone":"Europe","source":"historical-basemaps"},"geometry":{"type":"MultiPolygon","coordinates":[[[[8.183,56.798],[8.359,57.023],[8.534,57.141],[8.661,57.104],[8.96,57.132],[9.302,57.166],[9.449,57.228],[9.849,57.582],[10.29,57.672],[10.39,57.661],[10.479,57.759],[10.558,57.745],[10.401,57.506],[10.451,57.458],[10.463,57.242],[10.333,57.171],[10.257,57.006],[9.503,56.975],[9.334,57.023],[9.141,57.009],[9.079,57.037],[8.971,57.0],[8.847,56.986],[8.778,56.798],[8.666,56.7],[8.507,56.647],[8.471,56.597],[8.368,56.667],[8.183,56.798]]],[[[8.616,54.887],[8.645,55.069],[8.56,55.356],[8.481,55.349],[8.319,55.481],[8.214,55.399],[8.035,55.476],[8.125,55.636],[8.32,55.768],[8.317,55.849],[8.117,56.092],[8.124,56.207],[8.183,56.431],[8.309,56.479],[8.452,56.412],[8.675,56.358],[8.869,56.616],[9.003,56.657],[9.136,56.46],[9.312,56.481],[9.322,56.719],[9.37,56.882],[9.835,56.89],[10.216,56.85],[10.23,56.605],[10.314,56.469],[10.826,56.443],[10.889,56.369],[10.751,56.097],[10.496,56.034],[10.442,56.151],[10.293,56.137],[10.175,56.076],[10.23,55.951],[10.147,55.765],[10.007,55.73],[9.976,55.62],[9.69,55.605],[9.761,55.502],[9.63,55.459],[9.544,55.351],[9.517,55.223],[9.518,55.129],[9.421,54.976],[9.496,54.938],[9.61,54.88],[9.864,54.726],[9.987,54.592],[9.978,54.49],[9.865,54.411],[10.065,54.434],[10.142,54.337],[9.885,54.254],[9.827,54.276],[9.739,54.276],[9.674,54.189],[9.449,54.189],[9.441,54.247],[9.296,54.247],[9.26,54.305],[9.216,54.29],[9.165,54.32],[9.136,54.298],[9.056,54.349],[8.962,54.276],[8.884,54.229],[8.581,54.194],[8.554,54.275],[8.852,54.332],[8.951,54.419],[8.742,54.608],[8.596,54.761],[8.616,54.887]]],[[[11.877,57.325],[12.318,57.68],[12.524,57.391],[12.731,57.432],[12.896,56.978],[13.226,57.102],[13.432,56.524],[14.175,56.813],[14.485,56.68],[15.427,56.766],[16.063,56.396],[16.031,56.353],[15.771,56.033],[15.696,56.061],[15.497,56.167],[15.221,56.08],[14.653,56.121],[14.605,55.981],[14.492,56.018],[14.259,55.899],[14.126,55.667],[14.286,55.515],[14.117,55.347],[13.901,55.405],[13.823,55.422],[13.302,55.301],[12.802,55.353],[12.802,55.417],[12.888,55.452],[12.859,55.533],[12.986,55.667],[12.699,55.905],[12.513,56.121],[12.414,56.243],[12.652,56.296],[12.615,56.436],[12.805,56.401],[12.872,56.512],[12.786,56.617],[12.657,56.611],[12.526,56.78],[12.289,56.88],[12.005,57.325],[11.877,57.325]]],[[[12.053,55.703],[12.088,55.967],[12.238,55.988],[12.444,55.968],[12.469,55.711],[12.409,55.548],[12.344,55.508],[12.158,55.379],[12.43,55.245],[12.301,55.17],[12.077,54.995],[11.97,54.954],[11.907,55.021],[11.767,55.176],[11.585,55.162],[11.285,55.189],[11.23,55.337],[11.102,55.634],[11.296,55.675],[11.568,55.885],[11.728,55.662],[11.962,55.581],[12.053,55.703]]]]}},{"type":"Feature","properties":{"slug":"holy-roman-empire","name":"Holy Roman Empire","start_year":962,"end_year":1806,"region_type":"empire","continental_zone":"Europe","source":"historical-basemaps"},"geometry":{"type":"MultiPolygon","coordinates":[[[[8.54,53.801],[8.586,53.793],[8.848,53.75],[9.125,53.79],[8.857,53.867],[8.819,53.969],[8.946,54.015],[8.833,54.066],[8.779,54.132],[8.853,54.168],[8.884,54.229],[8.962,54.276],[9.056,54.349],[9.136,54.298],[9.165,54.32],[9.216,54.29],[9.26,54.305],[9.296,54.247],[9.441,54.247],[9.449,54.189],[9.674,54.189],[9.739,54.276],[9.827,54.276],[9.885,54.254],[10.142,54.337],[10.205,53.698],[10.571,53.046],[11.753,52.842],[11.55,52.639],[11.672,52.353],[13.588,52.313],[14.134,52.409],[14.729,51.131],[14.647,50.764],[12.772,50.438],[12.12,50.071],[12.12,49.541],[13.058,48.563],[13.955,48.44],[14.892,48.196],[15.3,48.277],[15.585,48.563],[16.4,48.481],[16.482,48.196],[16.557,47.495],[16.644,47.3],[16.557,47.191],[16.557,47.06],[16.448,46.93],[16.448,46.778],[16.514,46.626],[16.296,46.408],[16.535,46.365],[16.448,46.104],[16.209,46.147],[16.079,45.886],[16.209,45.734],[16.122,45.582],[15.912,45.631],[15.47,45.734],[15.424,45.43],[14.88,45.484],[14.798,45.865],[14.527,45.783],[14.354,45.323],[14.239,45.062],[14.175,45.01],[13.908,44.979],[13.799,45.306],[13.952,45.393],[13.995,45.458],[13.8,45.566],[13.673,45.715],[13.565,45.727],[13.438,45.638],[13.368,45.694],[13.081,45.98],[12.645,45.915],[12.145,45.763],[11.971,45.436],[12.176,45.214],[12.313,45.178],[12.322,45.042],[12.409,44.989],[12.523,44.883],[12.476,44.787],[12.378,44.732],[12.274,44.673],[12.281,44.55],[12.345,44.301],[12.508,44.131],[12.697,43.935],[12.302,43.344],[12.302,43.278],[12.219,43.228],[12.153,43.062],[12.169,42.912],[12.186,42.912],[12.153,42.696],[12.169,42.63],[12.13,42.596],[12.053,42.53],[12.07,42.298],[12.003,42.248],[12.02,42.099],[11.96,42.007],[11.963,42.005],[11.96,42.007],[11.497,42.376],[11.105,42.549],[10.743,42.851],[10.488,43.236],[10.338,43.596],[10.292,43.705],[10.261,43.745],[10.155,43.881],[10.137,43.905],[9.909,44.11],[9.825,44.153],[9.692,44.22],[9.157,44.373],[8.897,44.437],[8.672,44.417],[8.343,44.22],[8.289,44.568],[7.677,44.731],[7.514,45.383],[8.493,46.117],[8.411,47.462],[7.27,47.462],[6.781,47.951],[6.252,47.957],[6.238,48.291],[5.946,48.347],[6.015,48.653],[5.834,48.778],[6.001,48.904],[5.876,49.071],[5.723,48.959],[5.612,49.21],[5.904,49.196],[5.909,49.201],[5.361,49.697],[4.255,49.887],[3.82,50.039],[3.438,51.008],[3.681,51.321],[3.775,51.388],[3.743,51.46],[3.52,51.579],[3.878,51.792],[4.264,52.071],[4.387,52.23],[4.641,52.756],[4.719,52.802],[5.008,52.856],[5.173,52.743],[5.235,52.623],[5.108,52.532],[5.006,52.557],[5.036,52.334],[4.95,52.278],[5.473,52.177],[5.574,52.283],[5.757,52.334],[5.817,52.521],[5.611,52.532],[5.556,52.587],[5.547,52.679],[5.653,52.75],[5.576,52.76],[5.326,52.79],[5.358,52.938],[5.343,52.996],[5.332,53.011],[5.39,53.139],[5.647,53.228],[5.966,53.335],[6.261,53.322],[6.751,53.39],[6.861,53.266],[7.009,53.245],[7.043,53.164],[7.16,53.164],[7.19,53.23],[6.981,53.317],[7.037,53.51],[7.166,53.592],[7.332,53.604],[7.836,53.632],[7.875,53.634],[7.969,53.638],[8.011,53.566],[8.099,53.444],[8.029,53.373],[8.175,53.322],[8.242,53.352],[8.261,53.439],[8.189,53.531],[8.306,53.525],[8.502,53.449],[8.429,53.612],[8.516,53.761],[8.54,53.801]]],[[[14.093,42.61],[14.405,42.353],[14.519,42.23],[14.72,42.142],[14.739,42.047],[14.439,41.879],[13.569,41.856],[13.564,41.866],[13.631,41.933],[13.631,42.016],[13.581,42.049],[13.581,42.099],[13.415,42.198],[13.465,42.232],[13.415,42.364],[13.548,42.431],[13.631,42.53],[13.714,42.398],[13.763,42.464],[13.83,42.481],[13.83,42.564],[13.929,42.53],[13.996,42.613],[14.076,42.634],[14.093,42.61]]]]}},{"type":"Feature","properties":{"slug":"kingdom-of-navarre","name":"Navarre","start_year":824,"end_year":1620,"region_type":"kingdom","continental_zone":"Europe","source":"historical-basemaps"},"geometry":{"type":"MultiPolygon","coordinates":[[[[-0.524,42.758],[-0.603,42.416],[-1.004,41.919],[-1.004,41.919],[-2.583,41.359],[-2.717,42.425],[-3.196,42.398],[-3.356,43.395],[-3.196,43.447],[-3.007,43.55],[-2.768,43.538],[-2.367,43.326],[-2.143,43.331],[-2.066,43.333],[-1.915,43.305],[-1.702,43.196],[-1.491,43.21],[-1.466,43.155],[-1.558,43.045],[-1.515,42.998],[-1.448,42.984],[-1.397,43.032],[-0.907,42.881],[-0.84,42.909],[-0.612,42.731],[-0.587,42.765],[-0.524,42.758]]]]}},{"type":"Feature","properties":{"slug":"crown-of-castile","name":"Castilla","start_year":1230,"end_year":1716,"region_type":"kingdom","continental_zone":"Europe","source":"historical-basemaps"},"geometry":{"type":"MultiPolygon","coordinates":[[[[-3.356,43.395],[-3.196,42.398],[-2.717,42.425],[-2.583,41.359],[-3.532,41.022],[-4.444,40.894],[-5.086,43.495],[-4.802,43.469],[-4.11,43.452],[-3.848,43.439],[-3.417,43.376],[-3.356,43.395]]]]}},{"type":"Feature","properties":{"slug":"duchy-of-brittany","name":"Britany","start_year":939,"end_year":1532,"region_type":"kingdom","continental_zone":"Europe","source":"historical-basemaps"},"geometry":{"type":"MultiPolygon","coordinates":[[[[-1.999,48.677],[-1.752,48.178],[-2.01,47.746],[-2.576,47.324],[-2.576,47.325],[-2.466,47.494],[-2.614,47.572],[-2.842,47.492],[-3.063,47.604],[-3.434,47.717],[-3.712,47.798],[-3.858,47.792],[-3.955,47.904],[-4.364,47.829],[-4.391,47.942],[-4.51,47.998],[-4.675,48.017],[-4.7,48.064],[-4.313,48.101],[-4.351,48.205],[-4.588,48.251],[-4.389,48.298],[-4.35,48.391],[-4.474,48.383],[-4.592,48.392],[-4.78,48.355],[-4.762,48.552],[-4.626,48.547],[-4.488,48.612],[-4.251,48.652],[-3.999,48.731],[-3.902,48.646],[-3.821,48.721],[-3.608,48.693],[-3.558,48.81],[-3.435,48.836],[-3.091,48.872],[-2.914,48.707],[-2.791,48.59],[-2.636,48.552],[-2.343,48.674],[-2.2,48.599],[-2.076,48.656],[-1.999,48.677]]]]}},{"type":"Feature","properties":{"slug":"papal-states","name":"Papal States","start_year":754,"end_year":1870,"region_type":"city-state","continental_zone":"Europe","source":"historical-basemaps"},"geometry":{"type":"MultiPolygon","coordinates":[[[[12.697,43.935],[13.601,43.535],[13.732,43.374],[13.792,43.123],[13.915,42.873],[14.076,42.634],[13.996,42.613],[13.929,42.53],[13.83,42.564],[13.83,42.481],[13.763,42.464],[13.714,42.398],[13.631,42.53],[13.548,42.431],[13.415,42.364],[13.465,42.232],[13.415,42.198],[13.581,42.099],[13.581,42.049],[13.631,42.016],[13.631,41.933],[13.564,41.866],[13.597,41.8],[13.647,41.75],[13.647,41.8],[13.863,41.75],[13.863,41.783],[13.929,41.75],[13.88,41.667],[13.88,41.634],[13.929,41.634],[13.963,41.518],[13.963,41.468],[14.029,41.401],[13.996,41.352],[13.979,41.335],[13.813,41.318],[13.761,41.207],[13.498,41.302],[13.271,41.314],[12.977,41.371],[12.642,41.531],[12.395,41.73],[11.963,42.005],[11.96,42.007],[12.02,42.099],[12.003,42.248],[12.07,42.298],[12.053,42.53],[12.13,42.596],[12.169,42.63],[12.153,42.696],[12.186,42.912],[12.169,42.912],[12.153,43.062],[12.219,43.228],[12.302,43.278],[12.302,43.344],[12.697,43.935]]]]}},{"type":"Feature","properties":{"slug":"almohad-caliphate","name":"Almohad Caliphate","start_year":1121,"end_year":1269,"region_type":"empire","continental_zone":"Africa","source":"historical-basemaps"},"geometry":{"type":"MultiPolygon","coordinates":[[[[1.362,38.861],[1.357,38.865],[1.353,38.868],[1.346,38.871],[1.277,38.88],[1.271,38.878],[1.258,38.864],[1.253,38.859],[1.246,38.86],[1.222,38.874],[1.212,38.898],[1.228,38.948],[1.242,38.968],[1.294,39.031],[1.304,39.039],[1.329,39.055],[1.363,39.073],[1.473,39.105],[1.52,39.118],[1.546,39.118],[1.601,39.096],[1.605,39.092],[1.609,39.081],[1.615,39.028],[1.532,38.952],[1.406,38.846],[1.372,38.831],[1.368,38.851],[1.362,38.861]]],[[[1.569,38.654],[1.556,38.654],[1.531,38.654],[1.524,38.655],[1.518,38.657],[1.505,38.669],[1.494,38.676],[1.463,38.686],[1.457,38.687],[1.444,38.683],[1.39,38.643],[1.386,38.648],[1.386,38.658],[1.384,38.683],[1.383,38.694],[1.383,38.716],[1.383,38.721],[1.399,38.738],[1.445,38.741],[1.573,38.691],[1.578,38.688],[1.587,38.672],[1.588,38.667],[1.576,38.656],[1.569,38.654]]],[[[4.3,39.814],[4.295,39.811],[4.289,39.807],[4.276,39.806],[4.263,39.809],[4.257,39.811],[4.238,39.816],[4.116,39.868],[4.101,39.878],[4.091,39.885],[4.088,39.891],[4.085,39.896],[4.08,39.899],[4.041,39.916],[4.029,39.92],[3.985,39.93],[3.966,39.934],[3.938,39.932],[3.924,39.929],[3.911,39.926],[3.891,39.921],[3.885,39.92],[3.878,39.92],[3.827,39.922],[3.797,40.017],[3.831,40.053],[3.836,40.056],[3.868,40.058],[3.938,40.059],[4.122,40.056],[4.174,40.05],[4.241,39.994],[4.273,39.961],[4.316,39.879],[4.317,39.846],[4.314,39.832],[4.3,39.814]]],[[[3.324,39.759],[3.333,39.766],[3.344,39.776],[3.383,39.773],[3.44,39.75],[3.48,39.722],[3.48,39.711],[3.464,39.661],[3.447,39.64],[3.377,39.553],[3.372,39.549],[3.332,39.526],[3.32,39.521],[3.306,39.502],[3.288,39.467],[3.267,39.413],[3.242,39.364],[3.082,39.273],[3.064,39.264],[3.057,39.263],[3.029,39.283],[2.986,39.319],[2.83,39.353],[2.799,39.361],[2.786,39.365],[2.781,39.369],[2.755,39.392],[2.746,39.406],[2.743,39.412],[2.728,39.473],[2.742,39.491],[2.746,39.495],[2.753,39.497],[2.755,39.502],[2.754,39.508],[2.745,39.516],[2.736,39.524],[2.732,39.527],[2.694,39.552],[2.675,39.559],[2.663,39.564],[2.656,39.564],[2.546,39.525],[2.543,39.52],[2.437,39.522],[2.389,39.525],[2.364,39.556],[2.386,39.613],[2.539,39.7],[2.684,39.794],[2.778,39.845],[2.988,39.911],[3.071,39.922],[3.097,39.911],[3.092,39.901],[3.089,39.891],[3.089,39.886],[3.124,39.812],[3.135,39.792],[3.138,39.787],[3.152,39.776],[3.181,39.76],[3.241,39.736],[3.248,39.735],[3.261,39.734],[3.275,39.738],[3.293,39.746],[3.324,39.759]]],[[[-9.858,31.06],[-9.813,31.289],[-9.635,31.575],[-9.318,31.964],[-9.222,32.256],[-9.251,32.421],[-9.219,32.58],[-8.64,33.122],[-8.314,33.338],[-7.902,33.485],[-7.333,33.696],[-7.004,33.875],[-6.753,34.123],[-6.511,34.454],[-6.472,34.531],[-6.302,34.861],[-5.929,35.728],[-5.808,35.785],[-5.565,35.862],[-5.479,35.805],[-5.172,35.424],[-5.11,35.379],[-4.593,35.151],[-4.295,35.152],[-4.028,35.133],[-3.441,35.166],[-3.206,35.269],[-3.009,35.39],[-2.83,35.142],[-2.715,35.098],[-2.356,35.054],[-2.326,35.054],[-2.193,35.054],[-2.035,35.055],[-1.738,35.119],[-1.495,35.234],[-1.329,35.489],[-1.147,35.629],[-0.917,35.668],[-0.734,35.738],[-0.429,35.86],[-0.283,35.758],[-0.204,35.751],[-0.092,35.74],[0.015,35.804],[0.199,36.033],[0.474,36.225],[0.781,36.385],[1.058,36.462],[1.58,36.514],[1.237,35.886],[0.871,33.074],[0.458,32.547],[0.458,32.547],[-1.802,32.427],[-1.802,32.427],[-2.321,32.293],[-4.773,31.66],[-4.773,31.66],[-9.625,30.406],[-9.817,30.755],[-9.858,31.06]]],[[[-7.304,38.429],[-6.93,38.945],[-7.459,39.643],[-6.93,39.677],[-6.946,40.609],[-6.83,40.62],[-5.57,40.737],[-4.444,40.894],[-3.532,41.022],[-2.583,41.359],[-1.004,41.919],[0.341,42.0],[0.942,41.894],[1.034,41.878],[1.442,41.18],[1.311,41.157],[0.879,41.022],[0.734,40.875],[0.71,40.785],[0.827,40.727],[0.788,40.657],[0.505,40.593],[0.238,40.24],[-0.161,39.886],[-0.204,39.799],[-0.285,39.637],[-0.395,39.434],[-0.236,39.062],[-0.204,39.013],[-0.166,38.954],[0.126,38.821],[0.173,38.738],[-0.107,38.591],[-0.204,38.544],[-0.435,38.43],[-0.564,38.215],[-0.665,38.177],[-0.872,37.76],[-0.803,37.615],[-0.918,37.57],[-1.365,37.548],[-1.626,37.439],[-1.817,37.292],[-1.94,36.952],[-2.239,36.728],[-2.355,36.824],[-2.624,36.811],[-2.761,36.69],[-2.915,36.69],[-2.97,36.741],[-4.447,36.722],[-4.757,36.486],[-5.217,36.41],[-5.374,36.237],[-5.387,36.11],[-5.424,36.072],[-5.457,36.167],[-5.488,36.174],[-5.485,36.065],[-5.661,36.008],[-5.85,36.072],[-6.204,36.282],[-6.305,36.454],[-6.289,36.572],[-6.444,36.623],[-6.5,36.719],[-6.422,36.792],[-6.632,37.022],[-6.948,37.149],[-7.01,37.165],[-7.228,37.226],[-7.492,37.208],[-7.603,37.163],[-7.836,37.032],[-8.034,37.009],[-8.28,37.089],[-8.541,37.089],[-8.667,37.121],[-8.991,36.99],[-9.017,37.07],[-8.842,37.525],[-8.851,37.91],[-8.933,37.962],[-8.833,38.184],[-7.304,38.429]]]]}},{"type":"Feature","properties":{"slug":"kingdom-of-leon","name":"León","start_year":910,"end_year":1230,"region_type":"kingdom","continental_zone":"Europe","source":"historical-basemaps"},"geometry":{"type":"MultiPolygon","coordinates":[[[[-6.946,40.609],[-6.952,40.953],[-6.137,41.582],[-6.468,41.714],[-6.556,41.878],[-7.084,41.943],[-7.855,41.894],[-8.84,41.968],[-8.86,42.015],[-8.799,42.195],[-8.644,42.42],[-8.805,42.632],[-8.942,42.824],[-9.173,42.856],[-9.247,42.901],[-9.271,43.049],[-9.197,43.158],[-9.014,43.281],[-8.849,43.326],[-8.596,43.34],[-8.31,43.353],[-8.251,43.43],[-8.22,43.617],[-7.98,43.74],[-7.636,43.721],[-7.151,43.555],[-6.808,43.523],[-6.468,43.563],[-6.208,43.641],[-5.98,43.705],[-5.82,43.706],[-5.537,43.577],[-5.225,43.507],[-5.086,43.495],[-4.444,40.894],[-5.57,40.737],[-6.83,40.62],[-6.946,40.609]]]]}},{"type":"Feature","properties":{"slug":"kingdom-of-portugal","name":"Portugal","start_year":1139,"end_year":1910,"region_type":"kingdom","continental_zone":"Europe","source":"historical-basemaps"},"geometry":{"type":"MultiPolygon","coordinates":[[[[-6.93,39.677],[-7.459,39.643],[-6.93,38.945],[-7.304,38.429],[-8.833,38.184],[-8.823,38.206],[-8.847,38.385],[-8.789,38.436],[-8.854,38.5],[-9.022,38.461],[-9.237,38.417],[-9.285,38.619],[-9.069,38.643],[-8.942,38.742],[-8.961,38.818],[-9.041,38.92],[-9.176,38.732],[-9.362,38.671],[-9.522,38.69],[-9.549,38.775],[-9.46,38.953],[-9.398,39.23],[-9.415,39.367],[-9.299,39.418],[-9.118,39.644],[-8.916,40.138],[-8.97,40.19],[-8.694,40.992],[-8.852,41.408],[-8.855,41.597],[-8.921,41.767],[-8.806,41.889],[-8.84,41.968],[-7.855,41.894],[-7.084,41.943],[-6.556,41.878],[-6.468,41.714],[-6.137,41.582],[-6.952,40.953],[-6.946,40.609],[-6.93,39.677]]]]}},{"type":"Feature","properties":{"slug":"kingdom-of-france","name":"Kingdom of France","start_year":987,"end_year":1792,"region_type":"kingdom","continental_zone":"Europe","source":"historical-basemaps"},"geometry":{"type":"MultiPolygon","coordinates":[[[[-2.576,47.325],[-2.466,47.494],[-2.466,47.494],[-2.576,47.325],[-2.576,47.325]]],[[[-4.364,47.829],[-4.391,47.942],[-4.391,47.942],[-4.364,47.829],[-4.364,47.829]]],[[[-4.7,48.064],[-4.313,48.101],[-4.351,48.205],[-4.351,48.205],[-4.313,48.101],[-4.7,48.064],[-4.7,48.064]]],[[[-4.588,48.251],[-4.389,48.298],[-4.35,48.391],[-4.35,48.391],[-4.389,48.298],[-4.588,48.251],[-4.588,48.251]]]]}},{"type":"Feature","properties":{"slug":"angevin-empire","name":"Angevin Empire","start_year":1154,"end_year":1214,"region_type":"empire","continental_zone":"Europe","source":"historical-basemaps"},"geometry":{"type":"MultiPolygon","coordinates":[[[[-0.204,53.523],[0.081,53.386],[0.175,53.293],[0.268,53.127],[0.251,53.04],[0.006,52.787],[0.327,52.707],[0.505,52.848],[0.742,52.901],[1.013,52.888],[1.376,52.809],[1.586,52.65],[1.692,52.311],[1.657,52.212],[1.512,52.026],[1.031,51.813],[0.686,51.56],[0.254,51.454],[0.804,51.378],[1.03,51.359],[1.189,51.405],[1.365,51.353],[1.335,51.121],[0.886,50.982],[0.888,50.893],[0.673,50.931],[0.192,50.731],[-0.204,50.795],[-0.336,50.817],[-0.839,50.722],[-1.103,50.817],[-1.373,50.766],[-2.085,50.703],[-2.024,50.57],[-2.432,50.646],[-2.551,50.57],[-2.961,50.722],[-3.111,50.657],[-3.521,50.617],[-3.563,50.361],[-3.715,50.219],[-3.882,50.2],[-4.004,50.314],[-4.243,50.391],[-4.303,50.324],[-4.541,50.358],[-4.967,50.212],[-5.282,49.964],[-5.429,50.068],[-5.778,50.134],[-5.238,50.346],[-5.017,50.561],[-4.815,50.604],[-4.605,50.779],[-4.552,50.997],[-4.443,50.969],[-4.277,51.064],[-4.281,51.187],[-3.825,51.235],[-3.483,51.181],[-3.066,51.178],[-3.033,51.33],[-2.895,51.394],[-2.75,51.644],[-2.914,53.267],[-3.057,53.514],[-2.98,53.821],[-2.865,54.028],[-2.886,54.169],[-1.897,54.336],[-2.065,55.3],[-1.942,55.556],[-1.719,55.454],[-1.666,55.38],[-1.696,55.273],[-1.556,54.922],[-1.389,54.68],[-1.192,54.595],[-0.871,54.547],[-0.605,54.3],[-0.296,54.033],[-0.235,53.799],[-0.319,53.579],[-0.204,53.523]]],[[[1.055,49.952],[1.261,49.161],[0.535,48.01],[1.151,45.553],[2.607,44.787],[2.627,44.776],[0.865,44.557],[0.315,43.096],[0.499,42.631],[0.348,42.635],[0.196,42.608],[0.18,42.663],[-0.166,42.649],[-0.204,42.7],[-0.216,42.717],[-0.41,42.786],[-0.469,42.751],[-0.524,42.758],[-0.587,42.765],[-0.612,42.731],[-0.84,42.909],[-0.907,42.881],[-1.397,43.032],[-1.448,42.984],[-1.515,42.998],[-1.558,43.045],[-1.466,43.155],[-1.491,43.21],[-1.702,43.196],[-1.915,43.305],[-1.746,43.36],[-1.561,43.524],[-1.314,44.559],[-1.136,44.6],[-1.23,44.73],[-1.332,44.614],[-1.276,45.129],[-1.175,45.501],[-1.123,45.432],[-0.9,45.294],[-0.814,45.122],[-0.728,45.019],[-0.855,45.321],[-1.138,45.583],[-1.247,45.688],[-1.237,45.8],[-1.075,46.015],[-1.166,46.184],[-1.256,46.307],[-1.403,46.404],[-1.711,46.449],[-1.942,46.706],[-2.13,46.851],[-2.005,47.043],[-2.109,47.124],[-2.264,47.183],[-2.494,47.247],[-2.576,47.324],[-2.01,47.746],[-1.752,48.178],[-1.999,48.677],[-2.076,48.656],[-2.2,48.599],[-2.343,48.674],[-2.636,48.552],[-2.791,48.59],[-2.914,48.707],[-3.091,48.872],[-3.435,48.836],[-3.558,48.81],[-3.608,48.693],[-3.821,48.721],[-3.902,48.646],[-3.999,48.731],[-4.251,48.652],[-4.488,48.612],[-4.626,48.547],[-4.762,48.552],[-4.78,48.355],[-4.78,48.355],[-4.762,48.552],[-4.626,48.547],[-4.488,48.612],[-4.251,48.652],[-3.999,48.731],[-3.902,48.646],[-3.821,48.721],[-3.608,48.693],[-3.558,48.81],[-3.435,48.836],[-3.091,48.872],[-2.914,48.707],[-2.791,48.59],[-2.636,48.552],[-2.343,48.674],[-2.2,48.599],[-2.076,48.656],[-1.871,48.712],[-1.858,48.608],[-1.591,48.638],[-1.457,48.684],[-1.576,48.768],[-1.588,48.881],[-1.563,49.036],[-1.58,49.229],[-1.639,49.22],[-1.892,49.526],[-1.941,49.709],[-1.524,49.653],[-1.251,49.7],[-1.289,49.521],[-1.177,49.333],[-1.023,49.398],[-0.465,49.351],[-0.239,49.285],[-0.204,49.292],[0.033,49.334],[0.331,49.455],[0.09,49.511],[0.115,49.602],[0.189,49.681],[0.529,49.826],[0.869,49.907],[1.055,49.952]]]]}},{"type":"Feature","properties":{"slug":"county-of-toulouse","name":"Comté de Toulouse","start_year":778,"end_year":1271,"region_type":"kingdom","continental_zone":"Europe","source":"historical-basemaps"},"geometry":{"type":"MultiPolygon","coordinates":[[[[3.43,44.722],[3.97,43.839],[5.346,44.061],[5.346,45.096],[5.841,45.385],[5.935,45.322],[5.947,45.26],[6.058,45.223],[6.033,45.334],[6.083,45.372],[6.145,45.322],[6.219,45.347],[6.268,45.322],[6.243,45.297],[6.28,45.199],[6.507,45.116],[6.665,44.955],[6.943,44.869],[7.003,44.72],[6.925,44.715],[6.783,44.548],[6.87,44.349],[6.787,44.297],[6.787,44.198],[6.836,44.112],[6.886,44.149],[6.935,44.136],[6.972,44.062],[6.997,44.05],[6.923,43.976],[6.96,43.914],[6.886,43.902],[6.923,43.815],[7.355,43.902],[7.397,43.764],[7.298,43.667],[6.923,43.448],[6.523,43.151],[6.331,43.112],[6.188,43.092],[5.829,43.021],[5.647,43.033],[5.434,43.104],[5.052,43.328],[4.91,43.366],[4.751,43.353],[4.647,43.321],[4.417,43.346],[4.078,43.487],[3.807,43.467],[3.479,43.312],[3.318,43.196],[3.068,42.945],[3.039,42.869],[2.949,42.883],[2.825,42.85],[2.701,42.73],[2.49,42.719],[2.481,42.686],[2.272,42.69],[2.103,42.615],[1.728,42.501],[1.731,42.546],[1.792,42.579],[1.755,42.597],[1.577,42.648],[1.456,42.619],[1.32,42.605],[1.307,42.635],[0.744,42.772],[0.584,42.772],[0.592,42.628],[0.499,42.631],[0.315,43.096],[0.865,44.557],[2.627,44.776],[2.607,44.787],[3.43,44.722]]]]}},{"type":"Feature","properties":{"slug":"crown-of-aragon","name":"Aragón","start_year":1035,"end_year":1716,"region_type":"kingdom","continental_zone":"Europe","source":"historical-basemaps"},"geometry":{"type":"MultiPolygon","coordinates":[[[[3.086,42.121],[3.157,42.076],[3.129,41.857],[2.628,41.62],[2.201,41.446],[2.081,41.298],[1.61,41.209],[1.442,41.18],[1.034,41.878],[0.942,41.894],[0.341,42.0],[-1.004,41.919],[-0.603,42.416],[-0.524,42.758],[-0.469,42.751],[-0.41,42.786],[-0.216,42.717],[-0.204,42.7],[-0.166,42.649],[0.18,42.663],[0.196,42.608],[0.348,42.635],[0.499,42.631],[0.592,42.628],[0.584,42.772],[0.744,42.772],[1.307,42.635],[1.32,42.605],[1.456,42.619],[1.577,42.648],[1.755,42.597],[1.792,42.579],[1.731,42.546],[1.728,42.501],[2.103,42.615],[2.272,42.69],[2.481,42.686],[2.49,42.719],[2.701,42.73],[2.825,42.85],[2.949,42.883],[3.039,42.869],[3.002,42.771],[3.046,42.539],[3.087,42.369],[3.087,42.369],[3.087,42.329],[3.086,42.121]]]]}}]}